{"type":"FeatureCollection","features":[{"type":"Feature","properties":{"name":"Geneva, Switzerland → Chamonix, France"},"geometry":{"coordinates":[[6.14636,46.20157],[6.14684,46.20112],[6.14625,46.20074],[6.14403,46.20145],[6.14277,46.20123],[6.14311,46.20078],[6.14379,46.20127],[6.14436,46.20115],[6.14713,46.19984],[6.14789,46.19876],[6.14991,46.19741],[6.15332,46.19982],[6.15382,46.1999],[6.15492,46.19918],[6.15977,46.19794],[6.16314,46.19683],[6.1673,46.19594],[6.17326,46.19367],[6.1751,46.19338],[6.17836,46.19333],[6.18012,46.19308],[6.18133,46.19254],[6.18353,46.19089],[6.18506,46.19034],[6.18714,46.19016],[6.19455,46.19073],[6.19624,46.19059],[6.20024,46.18911],[6.20196,46.18814],[6.20222,46.18821],[6.20353,46.18783],[6.2108,46.18513],[6.21372,46.18449],[6.22357,46.18287],[6.22571,46.18201],[6.22833,46.18157],[6.2317,46.18032],[6.23387,46.17896],[6.23661,46.17602],[6.2399,46.17319],[6.24325,46.16908],[6.24479,46.16793],[6.24698,46.16684],[6.24929,46.16609],[6.26308,46.16236],[6.28066,46.15687],[6.29424,46.15303],[6.30232,46.15104],[6.30562,46.14989],[6.30879,46.14835],[6.31211,46.14606],[6.31503,46.14309],[6.31665,46.14057],[6.31979,46.13379],[6.32429,46.12841],[6.32902,46.12215],[6.3326,46.11845],[6.33835,46.11361],[6.3416,46.11048],[6.34412,46.10759],[6.3507,46.0989],[6.35475,46.0946],[6.35757,46.09214],[6.36111,46.08948],[6.37041,46.08374],[6.37274,46.08213],[6.37565,46.07961],[6.3815,46.07392],[6.38465,46.0714],[6.38862,46.06901],[6.39319,46.06708],[6.39758,46.06585],[6.40198,46.06513],[6.40664,46.06485],[6.41209,46.06516],[6.41601,46.06579],[6.41891,46.06646],[6.4373,46.07175],[6.44189,46.07258],[6.44684,46.07296],[6.45418,46.07266],[6.47134,46.07089],[6.47521,46.07014],[6.48362,46.0679],[6.48704,46.06745],[6.49015,46.06759],[6.49872,46.06918],[6.50293,46.06969],[6.51597,46.0698],[6.52753,46.07065],[6.53359,46.07093],[6.53728,46.07092],[6.54038,46.07068],[6.54456,46.06992],[6.54897,46.0685],[6.55273,46.06665],[6.559,46.0626],[6.56096,46.06156],[6.56738,46.05922],[6.57212,46.05696],[6.57406,46.05641],[6.5771,46.05586],[6.57885,46.05527],[6.58093,46.05395],[6.58368,46.05097],[6.58609,46.04964],[6.58839,46.04883],[6.59576,46.04684],[6.6013,46.04586],[6.60349,46.04507],[6.60466,46.04435],[6.60586,46.04322],[6.60831,46.03822],[6.61127,46.03498],[6.6127,46.03294],[6.617,46.02287],[6.61882,46.0198],[6.62593,46.00906],[6.62748,46.00583],[6.62864,46.00064],[6.63012,45.99139],[6.62991,45.98884],[6.62853,45.98293],[6.6289,45.97632],[6.6274,45.96994],[6.62737,45.96744],[6.62783,45.96589],[6.62873,45.96433],[6.63322,45.95945],[6.63479,45.95688],[6.63698,45.95046],[6.63826,45.94515],[6.639,45.94344],[6.64158,45.94004],[6.64708,45.93084],[6.64836,45.92925],[6.65024,45.92758],[6.652,45.92652],[6.65409,45.92558],[6.6665,45.92101],[6.6745,45.91766],[6.6778,45.91653],[6.68619,45.91429],[6.69301,45.91153],[6.69555,45.91074],[6.69799,45.91039],[6.70366,45.91018],[6.70877,45.90975],[6.71132,45.90983],[6.7127,45.91041],[6.71535,45.9127],[6.71677,45.91359],[6.72176,45.91554],[6.72435,45.91765],[6.72732,45.91956],[6.73067,45.92287],[6.73183,45.92499],[6.73338,45.92695],[6.73358,45.92807],[6.73274,45.93018],[6.73308,45.93124],[6.7337,45.93183],[6.73462,45.93223],[6.73573,45.93244],[6.73685,45.93233],[6.73797,45.93189],[6.73953,45.93073],[6.7443,45.9287],[6.74729,45.92784],[6.7491,45.92757],[6.75105,45.92664],[6.75369,45.92649],[6.75832,45.92708],[6.75967,45.92691],[6.76091,45.92632],[6.7618,45.92547],[6.7624,45.92425],[6.76326,45.91883],[6.76457,45.9159],[6.7652,45.91542],[6.7661,45.91506],[6.77015,45.91444],[6.77199,45.91344],[6.77359,45.91182],[6.77402,45.91109],[6.77408,45.91035],[6.77355,45.90854],[6.77388,45.90753],[6.77557,45.90612],[6.77763,45.90346],[6.78014,45.90125],[6.78318,45.89774],[6.78652,45.89449],[6.78866,45.89299],[6.79136,45.89164],[6.79255,45.89134],[6.79378,45.89126],[6.79586,45.89163],[6.79889,45.89301],[6.80009,45.89387],[6.80133,45.89517],[6.80224,45.89568],[6.81117,45.89793],[6.81229,45.8981],[6.81386,45.89809],[6.81992,45.89684],[6.82155,45.89688],[6.82304,45.89717],[6.82827,45.89929],[6.83461,45.90248],[6.83953,45.90433],[6.84767,45.90799],[6.85339,45.90955],[6.85666,45.90984],[6.85695,45.91029],[6.85792,45.91076],[6.86381,45.91258],[6.86521,45.91332],[6.86815,45.9156],[6.8691,45.91603],[6.86928,45.91632],[6.87061,45.91718],[6.874,45.9188],[6.87486,45.91966],[6.87629,45.9223],[6.87638,45.92281],[6.87609,45.92336],[6.87496,45.92411],[6.8732,45.9243],[6.87278,45.92479],[6.87237,45.92416],[6.87125,45.92446],[6.87117,45.92424],[6.87092,45.92429]],"type":"LineString"}},{"type":"Feature","properties":{"name":"Chamonix, France → Bourg-Saint-Maurice, France"},"geometry":{"coordinates":[[6.87092,45.92429],[6.87117,45.92424],[6.87125,45.92446],[6.87237,45.92416],[6.87282,45.9246],[6.87342,45.92424],[6.8752,45.92402],[6.87614,45.92331],[6.87638,45.92281],[6.87629,45.9223],[6.8755,45.92102],[6.87494,45.92069],[6.87499,45.92016],[6.87476,45.91967],[6.87358,45.91862],[6.87113,45.91757],[6.86875,45.91629],[6.86458,45.91294],[6.86181,45.9119],[6.85812,45.91093],[6.85627,45.91014],[6.8565,45.90982],[6.86038,45.90979],[6.86312,45.90942],[6.86341,45.90913],[6.8632,45.90893],[6.86198,45.90875],[6.85924,45.90749],[6.85458,45.90409],[6.8546,45.90379],[6.85498,45.90368],[6.85577,45.90406],[6.85935,45.90461],[6.8599,45.90486],[6.86066,45.90567],[6.86121,45.90553],[6.86117,45.90529],[6.85924,45.90327],[6.85697,45.90208],[6.85483,45.90046],[6.85371,45.90004],[6.85362,45.89974],[6.85397,45.89964],[6.85471,45.90008],[6.85915,45.90097],[6.86041,45.901],[6.86128,45.90122],[6.86252,45.901],[6.86349,45.90045],[6.87583,45.88906],[6.8782,45.88706],[6.90423,45.86276],[6.9517,45.8181],[6.95146,45.81733],[6.95179,45.81695],[6.95246,45.81677],[6.95467,45.81759],[6.9577,45.81729],[6.96059,45.81752],[6.96333,45.81812],[6.96395,45.81793],[6.96395,45.81743],[6.96436,45.81738],[6.96439,45.81648],[6.96382,45.81474],[6.96315,45.81392],[6.96307,45.81263],[6.96411,45.81174],[6.96393,45.80882],[6.96434,45.80751],[6.96431,45.80621],[6.96543,45.80477],[6.96703,45.80345],[6.96772,45.80109],[6.96766,45.80012],[6.96896,45.79837],[6.96802,45.79783],[6.9679,45.79475],[6.96896,45.79281],[6.9703,45.78951],[6.97,45.78467],[6.97033,45.7832],[6.97109,45.78253],[6.97232,45.78061],[6.97478,45.77811],[6.97689,45.77634],[6.9786,45.77397],[6.97964,45.77355],[6.98324,45.77333],[6.98417,45.77286],[6.9854,45.77087],[6.98606,45.76903],[6.98672,45.76833],[6.98966,45.76697],[6.99053,45.76691],[6.99231,45.76722],[6.99308,45.7671],[6.99661,45.7657],[6.99681,45.76529],[6.99656,45.76504],[6.99617,45.76499],[6.99481,45.76559],[6.9939,45.76567],[6.98988,45.76499],[6.98651,45.76559],[6.98594,45.76537],[6.98581,45.76487],[6.98531,45.76451],[6.98467,45.76481],[6.98301,45.76626],[6.98326,45.76563],[6.98335,45.76394],[6.98314,45.76285],[6.98336,45.7622],[6.98452,45.76072],[6.98434,45.76071],[6.98411,45.7611],[6.98353,45.76131],[6.98293,45.76195],[6.9828,45.76185],[6.98332,45.76122],[6.98388,45.7609],[6.98398,45.76055],[6.9824,45.76175],[6.98221,45.76171],[6.98328,45.7608],[6.98369,45.76],[6.98467,45.75973],[6.98301,45.76015],[6.98191,45.76145],[6.98168,45.7614],[6.98234,45.76065],[6.9826,45.75983],[6.98307,45.75955],[6.98462,45.75927],[6.98267,45.75941],[6.98221,45.75979],[6.98196,45.76039],[6.98176,45.76037],[6.98237,45.75927],[6.98332,45.75887],[6.98393,45.75722],[6.98285,45.75654],[6.98254,45.75594],[6.97989,45.75479],[6.97943,45.75419],[6.97701,45.75235],[6.97385,45.75045],[6.97255,45.74993],[6.97187,45.74872],[6.9711,45.74798],[6.96902,45.74662],[6.96792,45.74509],[6.96748,45.74391],[6.9668,45.74341],[6.96558,45.74287],[6.96423,45.74161],[6.96315,45.73961],[6.96186,45.73904],[6.96012,45.73759],[6.95997,45.73725],[6.9602,45.73662],[6.95967,45.73523],[6.96067,45.73501],[6.9611,45.73575],[6.96146,45.73565],[6.96058,45.73413],[6.95948,45.73138],[6.95787,45.72966],[6.95718,45.72922],[6.95587,45.72885],[6.9572,45.72887],[6.95794,45.72917],[6.95804,45.72903],[6.95741,45.7287],[6.95499,45.72805],[6.94734,45.72208],[6.94767,45.72031],[6.94721,45.71862],[6.94763,45.71788],[6.9488,45.71664],[6.94786,45.71647],[6.94642,45.71668],[6.94522,45.71532],[6.94453,45.7141],[6.94336,45.71311],[6.94279,45.71337],[6.9424,45.71398],[6.94243,45.71576],[6.94146,45.71395],[6.94035,45.71357],[6.93955,45.71307],[6.94079,45.71493],[6.94129,45.71536],[6.94114,45.71553],[6.94035,45.715],[6.94017,45.71449],[6.93967,45.71407],[6.93751,45.71291],[6.93671,45.71207],[6.93642,45.71204],[6.93626,45.71224],[6.93683,45.71312],[6.93756,45.71351],[6.93528,45.71268],[6.93433,45.71202],[6.93204,45.71135],[6.93102,45.71078],[6.93107,45.71051],[6.93233,45.71031],[6.93267,45.70999],[6.93374,45.70972],[6.93429,45.70938],[6.93304,45.70969],[6.93164,45.70958],[6.93039,45.70983],[6.93031,45.70973],[6.93217,45.70931],[6.93287,45.709],[6.93351,45.70844],[6.93196,45.70885],[6.93046,45.70895],[6.92926,45.70879],[6.9302,45.70867],[6.93165,45.70781],[6.93371,45.70767],[6.93382,45.70754],[6.93132,45.70744],[6.92955,45.70761],[6.92698,45.70758],[6.92589,45.70734],[6.92545,45.70762],[6.92354,45.70724],[6.92304,45.70737],[6.92312,45.70768],[6.92283,45.70778],[6.92107,45.70741],[6.921,45.70684],[6.92081,45.70674],[6.92024,45.70733],[6.91829,45.70745],[6.91795,45.70863],[6.91729,45.70914],[6.91596,45.70911],[6.91268,45.71006],[6.91145,45.70961],[6.90937,45.70967],[6.90936,45.70941],[6.91165,45.70919],[6.91327,45.70813],[6.91408,45.7073],[6.91486,45.70711],[6.91491,45.70688],[6.91347,45.7071],[6.91262,45.70764],[6.91055,45.70834],[6.91206,45.70751],[6.91281,45.70615],[6.91161,45.70522],[6.9116,45.70455],[6.90782,45.70285],[6.90643,45.70193],[6.90652,45.70102],[6.90704,45.70074],[6.90694,45.70052],[6.90578,45.69977],[6.90446,45.69932],[6.90304,45.69842],[6.90221,45.69816],[6.90131,45.69738],[6.89951,45.69626],[6.89852,45.69515],[6.89526,45.69398],[6.89429,45.69393],[6.89317,45.6935],[6.89198,45.69348],[6.89048,45.69246],[6.89014,45.69169],[6.89076,45.69158],[6.88948,45.69113],[6.88917,45.69086],[6.89042,45.69092],[6.89136,45.69116],[6.89158,45.69085],[6.89116,45.69036],[6.89001,45.69026],[6.88961,45.69002],[6.88868,45.6884],[6.8886,45.68664],[6.88759,45.68493],[6.88467,45.68115],[6.88453,45.68011],[6.88317,45.6796],[6.8815,45.67663],[6.87337,45.66942],[6.87317,45.66963],[6.87372,45.67035],[6.87367,45.67065],[6.8734,45.67062],[6.87294,45.67011],[6.87248,45.66935],[6.87272,45.66878],[6.87227,45.66832],[6.87233,45.66758],[6.8719,45.66643],[6.8713,45.66503],[6.87054,45.66395],[6.8704,45.66321],[6.87073,45.66234],[6.86932,45.66233],[6.86893,45.66187],[6.86801,45.66143],[6.86579,45.65969],[6.86439,45.65907],[6.86313,45.65728],[6.86262,45.65686],[6.86162,45.65641],[6.86102,45.65544],[6.8598,45.65478],[6.85954,45.65416],[6.85833,45.65321],[6.85793,45.65243],[6.85718,45.65172],[6.85638,45.65052],[6.855,45.64979],[6.85296,45.64902],[6.85195,45.64704],[6.8481,45.64448],[6.8471,45.64322],[6.84555,45.6422],[6.84429,45.6417],[6.84539,45.64022],[6.84641,45.63928],[6.84699,45.63823],[6.8477,45.63837],[6.84936,45.63807],[6.85049,45.63737],[6.85138,45.63707],[6.8523,45.63612],[6.85285,45.63472],[6.85205,45.63361],[6.85109,45.63272],[6.84726,45.63032],[6.84691,45.62994],[6.84811,45.62884],[6.84876,45.62776],[6.85136,45.62609],[6.8524,45.62581],[6.85516,45.62563],[6.8568,45.62489],[6.85805,45.62401],[6.86265,45.62414],[6.86437,45.624],[6.86511,45.62424],[6.86519,45.62403],[6.86123,45.62328],[6.85981,45.62271],[6.85818,45.6226],[6.85699,45.62295],[6.85531,45.62306],[6.85331,45.62285],[6.85074,45.6233],[6.85288,45.62263],[6.85537,45.62238],[6.85612,45.62197],[6.857,45.62195],[6.85775,45.62143],[6.85967,45.62117],[6.85967,45.62099],[6.85492,45.62171],[6.85408,45.62149],[6.85245,45.62142],[6.85035,45.62181],[6.84654,45.6217],[6.84361,45.62311],[6.84275,45.6232],[6.84209,45.62345],[6.84132,45.62432],[6.84021,45.62496],[6.83981,45.62557],[6.83857,45.6261],[6.8379,45.62667],[6.83645,45.62732],[6.8361,45.62772],[6.83497,45.62819],[6.83601,45.62752],[6.83684,45.62654],[6.83849,45.62554],[6.83877,45.62518],[6.83895,45.62425],[6.84043,45.62305],[6.84087,45.62201],[6.8421,45.62113],[6.84515,45.61976],[6.84498,45.61964],[6.84387,45.62018],[6.84149,45.62093],[6.83948,45.62241],[6.83821,45.62293],[6.83762,45.62366],[6.8367,45.62418],[6.83589,45.62436],[6.8348,45.62558],[6.83371,45.62581],[6.83303,45.62636],[6.8318,45.6268],[6.83029,45.62706],[6.82833,45.62636],[6.82796,45.62636],[6.82752,45.62706],[6.82695,45.62748],[6.82697,45.62819],[6.82677,45.62812],[6.82667,45.62735],[6.82699,45.6263],[6.8274,45.6258],[6.82794,45.62565],[6.83128,45.62573],[6.83199,45.62508],[6.83175,45.62503],[6.83144,45.62544],[6.83113,45.62553],[6.83003,45.62509],[6.82809,45.62518],[6.82707,45.62481],[6.82611,45.62514],[6.82513,45.62584],[6.82436,45.62696],[6.82375,45.62883],[6.82294,45.62923],[6.82262,45.62974],[6.8226,45.62933],[6.82347,45.62859],[6.82364,45.6267],[6.82343,45.62624],[6.82394,45.62497],[6.82384,45.62438],[6.82549,45.62323],[6.82735,45.62316],[6.82837,45.62288],[6.82824,45.62277],[6.82713,45.62303],[6.8261,45.62277],[6.82559,45.62281],[6.82306,45.6238],[6.8223,45.62443],[6.82175,45.62639],[6.82087,45.62721],[6.82026,45.62862],[6.81998,45.62873],[6.82029,45.62791],[6.82023,45.62703],[6.82088,45.62615],[6.82107,45.62447],[6.82136,45.62388],[6.82282,45.62209],[6.824,45.6211],[6.82548,45.62046],[6.82546,45.62031],[6.8233,45.62114],[6.82244,45.62182],[6.82133,45.6222],[6.82075,45.62296],[6.81947,45.62376],[6.81827,45.62524],[6.81801,45.62594],[6.81604,45.62704],[6.81583,45.62698],[6.81729,45.62568],[6.81774,45.62356],[6.81883,45.62266],[6.81912,45.62198],[6.82252,45.61929],[6.82321,45.61904],[6.82315,45.61891],[6.82185,45.61937],[6.81942,45.62066],[6.8176,45.62109],[6.81695,45.62148],[6.81628,45.62221],[6.81527,45.62254],[6.81426,45.62396],[6.81347,45.62438],[6.81275,45.6252],[6.81306,45.62604],[6.81216,45.62684],[6.80906,45.62673],[6.80906,45.62651],[6.80961,45.62616],[6.81166,45.62528],[6.80807,45.62461],[6.808,45.62438],[6.80892,45.62395],[6.80792,45.62387],[6.80636,45.62328],[6.80517,45.62343],[6.80387,45.62335],[6.80336,45.62317],[6.80161,45.62369],[6.80141,45.62341],[6.80071,45.62318],[6.79983,45.62387],[6.79871,45.62421],[6.79754,45.62428],[6.79757,45.62381],[6.79495,45.62509],[6.79331,45.62623],[6.79056,45.62685],[6.78707,45.62711],[6.7863,45.62702],[6.78539,45.62629],[6.78386,45.62582],[6.78178,45.62564],[6.78037,45.62516],[6.77793,45.62325],[6.77442,45.62169],[6.77102,45.62046],[6.77094,45.61968],[6.77056,45.61976],[6.76941,45.61868]],"type":"LineString"}},{"type":"Feature","properties":{"name":"Bourg-Saint-Maurice, France → Briancon, France"},"geometry":{"coordinates":[[6.76941,45.61868],[6.76926,45.61846],[6.76976,45.61844],[6.769,45.61664],[6.76823,45.61611],[6.76676,45.61597],[6.76546,45.61206],[6.76492,45.61123],[6.76271,45.60992],[6.76021,45.6091],[6.75951,45.60871],[6.7586,45.60714],[6.75681,45.60538],[6.75582,45.60373],[6.75371,45.60225],[6.75309,45.60093],[6.7519,45.59978],[6.75144,45.59811],[6.74744,45.59131],[6.74674,45.58974],[6.74669,45.58858],[6.74618,45.58743],[6.74526,45.58646],[6.74163,45.58396],[6.74001,45.58325],[6.73762,45.5814],[6.73566,45.57932],[6.73262,45.57738],[6.73058,45.57651],[6.72791,45.575],[6.72739,45.57497],[6.72579,45.57372],[6.72332,45.57323],[6.71814,45.57071],[6.71723,45.57022],[6.7158,45.56898],[6.71493,45.5686],[6.71276,45.56814],[6.71045,45.5679],[6.70417,45.56811],[6.70188,45.56762],[6.69981,45.56694],[6.69779,45.56698],[6.69679,45.56659],[6.68992,45.56485],[6.68818,45.56486],[6.68655,45.56439],[6.68556,45.56441],[6.68374,45.56498],[6.6803,45.56471],[6.67709,45.56369],[6.67528,45.56267],[6.67189,45.56126],[6.67036,45.56094],[6.66522,45.55923],[6.66165,45.55717],[6.65647,45.55574],[6.65387,45.5542],[6.65256,45.55379],[6.64148,45.55307],[6.6376,45.55311],[6.63668,45.55285],[6.63427,45.55166],[6.6333,45.5515],[6.62955,45.55154],[6.62625,45.55027],[6.62383,45.54967],[6.62223,45.54955],[6.62059,45.55034],[6.61987,45.55048],[6.61929,45.55037],[6.61844,45.54977],[6.61673,45.54902],[6.61548,45.54741],[6.61538,45.54693],[6.61579,45.54611],[6.61577,45.54572],[6.61498,45.5434],[6.61414,45.54257],[6.61331,45.54238],[6.61197,45.54244],[6.61066,45.54273],[6.61005,45.54268],[6.60828,45.54181],[6.6054,45.54098],[6.6044,45.54036],[6.60374,45.53947],[6.60325,45.53691],[6.60236,45.53507],[6.5995,45.53202],[6.59777,45.53074],[6.59485,45.52953],[6.59305,45.52903],[6.59176,45.52887],[6.58653,45.52874],[6.58052,45.52784],[6.57937,45.52752],[6.57843,45.52702],[6.56954,45.51831],[6.568,45.51534],[6.56506,45.51103],[6.56502,45.50846],[6.56349,45.50625],[6.56308,45.50322],[6.56274,45.50257],[6.55882,45.49904],[6.55376,45.49548],[6.55107,45.49261],[6.54999,45.4907],[6.54639,45.48783],[6.54374,45.48523],[6.54214,45.48468],[6.53955,45.48464],[6.53882,45.48433],[6.53758,45.48338],[6.53658,45.48295],[6.53092,45.48209],[6.52824,45.48123],[6.5267,45.48139],[6.52576,45.48185],[6.52439,45.48433],[6.52286,45.48582],[6.52064,45.4874],[6.52019,45.48843],[6.52012,45.49081],[6.51923,45.49269],[6.51672,45.49567],[6.5136,45.49792],[6.51307,45.49849],[6.51223,45.50166],[6.50913,45.50627],[6.50705,45.50785],[6.50432,45.50849],[6.50315,45.50897],[6.50233,45.50956],[6.50076,45.51124],[6.49784,45.51274],[6.49601,45.51331],[6.49194,45.51384],[6.48889,45.51468],[6.48766,45.51536],[6.48693,45.51632],[6.48579,45.51995],[6.48383,45.52244],[6.48059,45.52726],[6.47943,45.52846],[6.47576,45.53137],[6.47511,45.53219],[6.47398,45.53437],[6.4711,45.53678],[6.47045,45.53756],[6.46892,45.54227],[6.46808,45.54364],[6.46699,45.54483],[6.46669,45.54572],[6.46687,45.54653],[6.46881,45.55019],[6.46923,45.55202],[6.46871,45.55383],[6.4662,45.55875],[6.46599,45.55981],[6.46652,45.56082],[6.4684,45.5622],[6.4689,45.56284],[6.4691,45.56458],[6.46886,45.56628],[6.46793,45.56783],[6.46517,45.57041],[6.4629,45.57403],[6.46068,45.57646],[6.45932,45.58042],[6.45875,45.58139],[6.45777,45.58233],[6.45531,45.58383],[6.45413,45.58486],[6.45341,45.58598],[6.45208,45.5891],[6.44845,45.5928],[6.44774,45.59386],[6.44743,45.59501],[6.44753,45.59613],[6.45117,45.60825],[6.45124,45.60994],[6.45093,45.61153],[6.44226,45.63447],[6.43649,45.65068],[6.43521,45.65271],[6.43183,45.65659],[6.42997,45.6579],[6.42766,45.6588],[6.40732,45.66245],[6.39779,45.66314],[6.38716,45.66283],[6.38534,45.66237],[6.37411,45.6572],[6.3709,45.65605],[6.36822,45.65544],[6.36029,45.65411],[6.34431,45.64981],[6.34246,45.64953],[6.33877,45.64933],[6.33689,45.64881],[6.3353,45.64774],[6.33455,45.64662],[6.3324,45.63527],[6.33096,45.63227],[6.32898,45.6298],[6.32583,45.62715],[6.32168,45.62458],[6.30339,45.6162],[6.28919,45.60905],[6.28671,45.60761],[6.28489,45.60628],[6.2824,45.60388],[6.28067,45.60152],[6.27305,45.58504],[6.27191,45.58349],[6.27001,45.58187],[6.26819,45.58085],[6.2663,45.58013],[6.24927,45.57568],[6.24075,45.57328],[6.22124,45.56678],[6.21925,45.56635],[6.21704,45.5664],[6.2165,45.56617],[6.21616,45.5657],[6.21641,45.56502],[6.21737,45.56468],[6.22041,45.5657],[6.22266,45.56569],[6.22424,45.56525],[6.22827,45.56371],[6.23385,45.56221],[6.23615,45.56132],[6.23737,45.56067],[6.24185,45.55769],[6.24425,45.55638],[6.24636,45.55562],[6.24891,45.55512],[6.25157,45.55503],[6.25466,45.55544],[6.25667,45.55604],[6.26207,45.55808],[6.26634,45.55887],[6.27267,45.55931],[6.27583,45.55936],[6.27863,45.55908],[6.28179,45.55833],[6.28681,45.55618],[6.28868,45.5551],[6.29014,45.554],[6.29149,45.55262],[6.29276,45.55064],[6.29332,45.54907],[6.29393,45.54611],[6.29441,45.54507],[6.29536,45.54392],[6.29714,45.54267],[6.30057,45.54124],[6.30315,45.53968],[6.30631,45.53668],[6.30738,45.53531],[6.30808,45.53331],[6.3085,45.5309],[6.3088,45.52224],[6.30857,45.519],[6.30731,45.51341],[6.30603,45.51022],[6.30394,45.50648],[6.29921,45.50047],[6.29836,45.49906],[6.29759,45.49714],[6.29672,45.49336],[6.296,45.49128],[6.28894,45.47753],[6.28801,45.47479],[6.28791,45.47298],[6.28814,45.47144],[6.28993,45.46681],[6.29153,45.46024],[6.29165,45.45919],[6.29144,45.45784],[6.29048,45.45601],[6.28797,45.45349],[6.28698,45.45186],[6.28525,45.44674],[6.28366,45.44016],[6.2824,45.43712],[6.27858,45.43349],[6.27791,45.43228],[6.27733,45.42965],[6.27659,45.42839],[6.2752,45.4272],[6.27256,45.42552],[6.27173,45.42454],[6.2713,45.42357],[6.27119,45.42251],[6.27137,45.42164],[6.27286,45.41909],[6.27313,45.4176],[6.27268,45.41601],[6.27107,45.41301],[6.27072,45.41081],[6.27266,45.40244],[6.27262,45.39845],[6.27392,45.395],[6.27438,45.38762],[6.27506,45.38595],[6.28476,45.37088],[6.28545,45.36831],[6.2852,45.36383],[6.28535,45.36171],[6.28597,45.35944],[6.28739,45.3568],[6.28867,45.35519],[6.29086,45.35319],[6.29258,45.35199],[6.30247,45.34608],[6.30558,45.3437],[6.30764,45.34164],[6.30921,45.33966],[6.31682,45.32803],[6.318,45.32532],[6.31867,45.32196],[6.31935,45.32084],[6.32066,45.31983],[6.32711,45.31637],[6.33832,45.31129],[6.34024,45.30996],[6.34673,45.30401],[6.34819,45.30325],[6.35237,45.30182],[6.35378,45.30094],[6.35452,45.30016],[6.35532,45.29828],[6.35608,45.29478],[6.3564,45.2921],[6.35608,45.28998],[6.35488,45.2873],[6.35488,45.28589],[6.35745,45.28003],[6.35898,45.27819],[6.36042,45.27718],[6.36195,45.27647],[6.37313,45.27282],[6.37633,45.27115],[6.37998,45.26855],[6.38246,45.26745],[6.38374,45.26669],[6.38491,45.26557],[6.38605,45.26364],[6.38646,45.2627],[6.38708,45.25982],[6.3883,45.25798],[6.39353,45.25384],[6.39507,45.2529],[6.39758,45.25203],[6.40481,45.25072],[6.41,45.24868],[6.41518,45.24747],[6.41768,45.2464],[6.41914,45.24597],[6.42766,45.24507],[6.42932,45.24467],[6.43048,45.24418],[6.43158,45.24342],[6.43243,45.24248],[6.43361,45.24055],[6.43509,45.23909],[6.43666,45.23822],[6.4419,45.23646],[6.4432,45.23568],[6.44421,45.23475],[6.44646,45.23239],[6.44768,45.23052],[6.44959,45.22829],[6.44995,45.22718],[6.45034,45.22394],[6.45075,45.22318],[6.45167,45.22234],[6.45399,45.22104],[6.45587,45.21972],[6.45728,45.21912],[6.46674,45.21709],[6.46863,45.2165],[6.47096,45.21552],[6.4734,45.21397],[6.47656,45.21056],[6.47754,45.20997],[6.47856,45.20962],[6.48034,45.20946],[6.48571,45.20991],[6.48764,45.20992],[6.49144,45.21051],[6.50488,45.21103],[6.50683,45.21097],[6.51104,45.21011],[6.51468,45.20967],[6.51606,45.20936],[6.51775,45.20862],[6.51983,45.20685],[6.52103,45.2061],[6.52253,45.20547],[6.52421,45.20508],[6.55326,45.20333],[6.55562,45.20345],[6.55786,45.20394],[6.55966,45.20469],[6.56259,45.20634],[6.56404,45.20682],[6.56608,45.20713],[6.56829,45.20706],[6.57906,45.20524],[6.58042,45.20488],[6.58366,45.20354],[6.58921,45.20195],[6.5964,45.20102],[6.60186,45.19941],[6.60352,45.19922],[6.60641,45.19919],[6.61314,45.19859],[6.61774,45.1971],[6.62295,45.19575],[6.62534,45.19388],[6.62672,45.19321],[6.62795,45.19302],[6.63193,45.19293],[6.6342,45.19241],[6.63574,45.19168],[6.63779,45.19012],[6.63951,45.18937],[6.64087,45.18911],[6.64501,45.1888],[6.65054,45.18747],[6.65206,45.18751],[6.65327,45.1878],[6.65742,45.18961],[6.66047,45.19031],[6.66236,45.19131],[6.66492,45.19191],[6.6679,45.19318],[6.66971,45.19348],[6.67299,45.19364],[6.67391,45.19414],[6.67455,45.19517],[6.67555,45.19563],[6.67707,45.19582],[6.67834,45.19576],[6.68031,45.19505],[6.68166,45.19425],[6.68288,45.19325],[6.68376,45.19207],[6.68426,45.19098],[6.68489,45.18227],[6.68483,45.17747],[6.68134,45.15979],[6.68126,45.15747],[6.682,45.15391],[6.68598,45.14339],[6.68851,45.13786],[6.69369,45.12416],[6.71333,45.08853],[6.7135,45.08766],[6.71334,45.08664],[6.71281,45.08551],[6.71119,45.08326],[6.71081,45.08143],[6.71241,45.07855],[6.71534,45.07584],[6.71672,45.07363],[6.71982,45.06994],[6.72072,45.06915],[6.7232,45.06754],[6.72623,45.06445],[6.72726,45.06365],[6.7323,45.06165],[6.73498,45.06006],[6.73776,45.05897],[6.73888,45.05817],[6.74048,45.05628],[6.74537,45.05278],[6.74644,45.05221],[6.7508,45.05055],[6.75386,45.04903],[6.76157,45.04703],[6.76385,45.04659],[6.7685,45.04646],[6.77224,45.04689],[6.77565,45.04642],[6.77851,45.04553],[6.7798,45.04481],[6.78241,45.04287],[6.78376,45.04224],[6.78508,45.0419],[6.79139,45.04171],[6.79577,45.04108],[6.79922,45.04028],[6.80338,45.03888],[6.80646,45.03828],[6.8093,45.03812],[6.81451,45.03843],[6.81548,45.03823],[6.81617,45.03769],[6.82432,45.02852],[6.82992,45.02382],[6.83051,45.02278],[6.83161,45.01965],[6.83162,45.01796],[6.83038,45.01574],[6.82863,45.01374],[6.8257,45.00971],[6.82449,45.00855],[6.82417,45.00724],[6.82127,45.00495],[6.81911,45.00437],[6.81604,45.0026],[6.81338,45.0016],[6.81223,44.99997],[6.81165,44.99836],[6.80898,44.99604],[6.8078,44.9942],[6.80763,44.99364],[6.80782,44.99178],[6.80843,44.99082],[6.80854,44.99011],[6.80772,44.98681],[6.8069,44.98469],[6.80667,44.9823],[6.80594,44.98108],[6.8053,44.97908],[6.80313,44.97737],[6.80248,44.97702],[6.80039,44.97637],[6.79974,44.97563],[6.79799,44.97099],[6.79856,44.9699],[6.79855,44.96793],[6.796,44.96401],[6.79609,44.9622],[6.79508,44.96087],[6.79535,44.95973],[6.7951,44.95859],[6.79399,44.95704],[6.79308,44.95638],[6.79272,44.95518],[6.79179,44.95443],[6.79132,44.95425],[6.7902,44.95419],[6.78913,44.95297],[6.78726,44.95206],[6.78578,44.95162],[6.78532,44.95117],[6.78532,44.95068],[6.7857,44.95031],[6.78641,44.95018],[6.7883,44.9504],[6.78877,44.95005],[6.78871,44.94958],[6.7868,44.94963],[6.78637,44.94938],[6.78565,44.94841],[6.78529,44.94833],[6.78462,44.94876],[6.78385,44.9497],[6.78267,44.94982],[6.77871,44.94837],[6.77725,44.94712],[6.77233,44.94726],[6.7718,44.94757],[6.77193,44.94799],[6.77343,44.94881],[6.77568,44.94921],[6.77652,44.94953],[6.77723,44.94998],[6.77779,44.9512],[6.77905,44.95196],[6.77836,44.95197],[6.77706,44.95103],[6.77581,44.95073],[6.77482,44.95095],[6.77329,44.95196],[6.7724,44.95232],[6.77096,44.95251],[6.76941,44.95237],[6.76808,44.95195],[6.76524,44.95059],[6.76111,44.94763],[6.76024,44.94634],[6.75992,44.94398],[6.75844,44.94233],[6.75792,44.94204],[6.7577,44.94156],[6.75702,44.94115],[6.75574,44.94111],[6.75372,44.9404],[6.75192,44.93999],[6.74756,44.93702],[6.74538,44.9362],[6.74405,44.93545],[6.74267,44.93527],[6.74218,44.93436],[6.7418,44.93408],[6.73984,44.93358],[6.73616,44.93305],[6.73488,44.93315],[6.73339,44.93384],[6.73193,44.93419],[6.73137,44.93417],[6.72795,44.93291],[6.72688,44.9319],[6.7249,44.93097],[6.7217,44.93028],[6.71855,44.92918],[6.71705,44.92918],[6.7136,44.92862],[6.70909,44.92716],[6.70715,44.92677],[6.70405,44.92738],[6.70191,44.92665],[6.7005,44.92657],[6.69955,44.92671],[6.69841,44.92664],[6.69779,44.92708],[6.69681,44.92689],[6.69531,44.92714],[6.69485,44.92785],[6.69496,44.92862],[6.69445,44.93048],[6.69423,44.92946],[6.69437,44.92867],[6.6937,44.9284],[6.69256,44.92707],[6.69299,44.92682],[6.6939,44.92686],[6.69478,44.92584],[6.69649,44.92553],[6.69643,44.92531],[6.69523,44.92554],[6.69452,44.92546],[6.69378,44.92627],[6.6922,44.92618],[6.69162,44.92651],[6.69138,44.92687],[6.69212,44.92815],[6.69211,44.92853],[6.69162,44.92879],[6.69056,44.92888],[6.69021,44.9292],[6.69017,44.92875],[6.69119,44.92859],[6.69153,44.92837],[6.69035,44.92681],[6.69012,44.92549],[6.69103,44.92507],[6.69006,44.92517],[6.68979,44.92538],[6.68989,44.92596],[6.68948,44.92647],[6.68949,44.92702],[6.68993,44.92768],[6.68975,44.92781],[6.68916,44.92701],[6.68901,44.92631],[6.68924,44.9258],[6.68868,44.92521],[6.68865,44.92484],[6.68895,44.92453],[6.69075,44.9243],[6.69064,44.92383],[6.68905,44.92297],[6.68722,44.92242],[6.68685,44.92171],[6.68558,44.92107],[6.68506,44.92099],[6.6835,44.92125],[6.68204,44.92103],[6.68015,44.92056],[6.67897,44.91998],[6.67782,44.91906],[6.67564,44.91595],[6.67361,44.91368],[6.67042,44.91182],[6.66657,44.91001],[6.66575,44.9098],[6.66398,44.90975],[6.66281,44.90952],[6.66226,44.90897],[6.66186,44.90763],[6.66135,44.9074],[6.66055,44.90741],[6.66003,44.90725],[6.65887,44.90585],[6.6575,44.905],[6.65568,44.90482],[6.65392,44.90433],[6.65057,44.90278],[6.64933,44.90312],[6.64813,44.903],[6.6461,44.90186],[6.64511,44.90153],[6.64351,44.90148],[6.63905,44.9023],[6.64077,44.90045],[6.64148,44.89897],[6.6424,44.89879],[6.64247,44.89825],[6.64296,44.89799],[6.64341,44.898],[6.64353,44.89853],[6.64363,44.89842]],"type":"LineString"}},{"type":"Feature","properties":{"name":"Briancon, France → Barcelonnette, France"},"geometry":{"coordinates":[[6.64363,44.89842],[6.64353,44.89853],[6.64333,44.8981],[6.64289,44.89804],[6.64247,44.89825],[6.6424,44.89879],[6.64175,44.89885],[6.64128,44.89919],[6.64099,44.89895],[6.63562,44.89693],[6.63471,44.89661],[6.63453,44.89669],[6.63041,44.89493],[6.63012,44.89472],[6.62914,44.89192],[6.6271,44.88975],[6.62577,44.88762],[6.62315,44.88459],[6.62109,44.88162],[6.62067,44.88131],[6.62059,44.88094],[6.61879,44.87897],[6.61744,44.87584],[6.61662,44.87484],[6.6149,44.87384],[6.60756,44.87158],[6.60276,44.86899],[6.60166,44.86807],[6.60002,44.86581],[6.59913,44.86494],[6.59047,44.86036],[6.58241,44.85281],[6.58197,44.85169],[6.58258,44.84999],[6.58325,44.84624],[6.58251,44.84359],[6.58281,44.84278],[6.58398,44.84115],[6.58431,44.83969],[6.58431,44.83609],[6.58321,44.83308],[6.58315,44.83095],[6.58269,44.83031],[6.58082,44.82953],[6.57973,44.82736],[6.58005,44.82498],[6.57891,44.82278],[6.57888,44.82029],[6.57834,44.81908],[6.57776,44.81835],[6.57692,44.81503],[6.57565,44.81413],[6.57537,44.81253],[6.57446,44.81152],[6.574,44.81011],[6.57419,44.80897],[6.57405,44.80857],[6.57344,44.80814],[6.56951,44.8066],[6.56817,44.80572],[6.56773,44.80498],[6.5682,44.80357],[6.56805,44.80338],[6.56772,44.80349],[6.5673,44.80503],[6.56635,44.80571],[6.56609,44.80664],[6.56566,44.80663],[6.56574,44.8058],[6.5653,44.80428],[6.56604,44.80259],[6.56588,44.79965],[6.56541,44.7989],[6.56372,44.79766],[6.56282,44.79628],[6.56066,44.78461],[6.56056,44.78323],[6.56112,44.7807],[6.55985,44.77649],[6.55976,44.77509],[6.5602,44.77281],[6.56057,44.77207],[6.56373,44.76789],[6.57248,44.75937],[6.57955,44.74845],[6.58072,44.74632],[6.5822,44.74434],[6.58346,44.73955],[6.58427,44.73314],[6.58635,44.72719],[6.60177,44.7119],[6.60246,44.71092],[6.60426,44.70672],[6.60993,44.69957],[6.61845,44.67017],[6.61833,44.66877],[6.61746,44.66739],[6.61592,44.66633],[6.61443,44.66581],[6.61439,44.66555],[6.61511,44.66515],[6.61806,44.6622],[6.6182,44.66182],[6.61863,44.66163],[6.61985,44.66043],[6.62065,44.6599],[6.62185,44.65951],[6.62296,44.65942],[6.63013,44.65976],[6.63138,44.65943],[6.63285,44.65853],[6.63341,44.6584],[6.63729,44.65988],[6.63868,44.65976],[6.64028,44.65994],[6.64151,44.65953],[6.64303,44.65847],[6.64498,44.6579],[6.64612,44.65791],[6.6497,44.65841],[6.65025,44.65828],[6.65156,44.6567],[6.65212,44.65648],[6.65261,44.65562],[6.6522,44.6551],[6.65156,44.6551],[6.65128,44.65548],[6.65096,44.65557],[6.64969,44.65489],[6.64954,44.654],[6.6497,44.6538],[6.65,44.6538],[6.6506,44.65427],[6.65137,44.65428],[6.65187,44.65408],[6.65216,44.65372],[6.65188,44.65338],[6.65024,44.65311],[6.64989,44.65291],[6.65057,44.65148],[6.65049,44.65081],[6.65085,44.6505],[6.6521,44.65061],[6.65311,44.65008],[6.65406,44.65008],[6.65453,44.64986],[6.65527,44.64854],[6.65555,44.64743],[6.65548,44.64555],[6.6566,44.64434],[6.65689,44.64378],[6.6572,44.64367],[6.65735,44.64381],[6.6565,44.64559],[6.65674,44.64592],[6.65846,44.64512],[6.65933,44.64409],[6.66076,44.6432],[6.66171,44.64306],[6.6621,44.64242],[6.66203,44.64129],[6.66229,44.64107],[6.66264,44.64119],[6.66272,44.64189],[6.66232,44.64315],[6.66255,44.6433],[6.66285,44.64325],[6.66328,44.64261],[6.66345,44.64175],[6.66521,44.64116],[6.66566,44.64057],[6.66577,44.64021],[6.6655,44.63955],[6.6658,44.63737],[6.66616,44.63741],[6.66624,44.63826],[6.66696,44.63987],[6.66727,44.63995],[6.66742,44.63975],[6.66733,44.63884],[6.66792,44.63832],[6.6685,44.63719],[6.66848,44.63617],[6.66889,44.63622],[6.66929,44.6368],[6.6694,44.63764],[6.66983,44.63761],[6.67,44.63642],[6.66964,44.63501],[6.67102,44.63319],[6.67148,44.63304],[6.67185,44.63314],[6.67213,44.63384],[6.67315,44.63456],[6.67428,44.63472],[6.67509,44.63452],[6.67667,44.63334],[6.67662,44.63191],[6.67735,44.6313],[6.67752,44.63069],[6.67889,44.62938],[6.68032,44.6287],[6.68107,44.628],[6.68104,44.62773],[6.68018,44.62724],[6.68004,44.62645],[6.68056,44.62567],[6.68177,44.62562],[6.68302,44.62492],[6.6834,44.6245],[6.68295,44.62197],[6.6832,44.62156],[6.6841,44.62094],[6.68361,44.61974],[6.68394,44.61855],[6.68521,44.61694],[6.68578,44.61565],[6.68568,44.61484],[6.68591,44.6141],[6.68693,44.61317],[6.68801,44.61016],[6.68848,44.60982],[6.68838,44.60749],[6.68938,44.60508],[6.68873,44.60433],[6.68859,44.60346],[6.68901,44.60277],[6.68902,44.60181],[6.68988,44.59975],[6.68973,44.59858],[6.69,44.59654],[6.68991,44.59471],[6.68946,44.59391],[6.68938,44.59279],[6.6889,44.59208],[6.6888,44.59135],[6.6878,44.59081],[6.68771,44.5887],[6.68671,44.58675],[6.68368,44.58462],[6.6828,44.5834],[6.68287,44.58299],[6.68448,44.58048],[6.68433,44.57949],[6.68407,44.57907],[6.68291,44.57835],[6.68289,44.57754],[6.68209,44.57651],[6.68209,44.57559],[6.68179,44.5748],[6.68192,44.57354],[6.68015,44.57285],[6.68004,44.57203],[6.68051,44.5717],[6.68181,44.57166],[6.68261,44.57111],[6.68277,44.57066],[6.68258,44.56979],[6.68306,44.56924],[6.68347,44.56918],[6.68409,44.56945],[6.68446,44.5693],[6.68504,44.5681],[6.68506,44.56703],[6.68742,44.56508],[6.6877,44.56421],[6.68926,44.56296],[6.68973,44.56177],[6.69066,44.56064],[6.69187,44.56009],[6.69435,44.55745],[6.69508,44.55705],[6.69731,44.55635],[6.69843,44.55552],[6.69926,44.55322],[6.70046,44.55238],[6.70046,44.55123],[6.70278,44.5481],[6.70236,44.54694],[6.70219,44.54543],[6.70291,44.54232],[6.70222,44.53995],[6.70291,44.53861],[6.703,44.53748],[6.70344,44.53616],[6.70454,44.53543],[6.70487,44.53482],[6.70451,44.5341],[6.70473,44.53337],[6.70455,44.53307],[6.70149,44.53205],[6.70145,44.53181],[6.70304,44.53218],[6.70441,44.53209],[6.70533,44.5323],[6.70724,44.53233],[6.7079,44.53286],[6.70842,44.5329],[6.7094,44.53239],[6.71033,44.53145],[6.71088,44.53116],[6.71157,44.5311],[6.71269,44.53142],[6.71307,44.53127],[6.71288,44.53087],[6.71159,44.5304],[6.71103,44.53042],[6.71017,44.53082],[6.70991,44.53077],[6.70998,44.53055],[6.71179,44.52962],[6.71261,44.52951],[6.71352,44.52963],[6.71615,44.52932],[6.71715,44.5294],[6.72223,44.52879],[6.72208,44.52862],[6.71738,44.52801],[6.7157,44.52725],[6.71506,44.52713],[6.71509,44.52694],[6.71729,44.52687],[6.71791,44.52716],[6.71841,44.52672],[6.71936,44.52655],[6.7224,44.52555],[6.72353,44.52538],[6.72573,44.52556],[6.726,44.52573],[6.72606,44.5263],[6.72628,44.52636],[6.72677,44.52605],[6.72685,44.5256],[6.72713,44.52539],[6.72869,44.52504],[6.73022,44.52508],[6.73215,44.52487],[6.73282,44.52381],[6.73384,44.52332],[6.7354,44.52338],[6.73718,44.52296],[6.73847,44.52315],[6.73901,44.52302],[6.73937,44.5227],[6.73963,44.52196],[6.7406,44.52135],[6.74048,44.52042],[6.74065,44.52024],[6.74107,44.52008],[6.74284,44.52036],[6.74362,44.5202],[6.7456,44.51822],[6.74734,44.5173],[6.74901,44.51712],[6.75152,44.51798],[6.75209,44.51805],[6.75273,44.5179],[6.75256,44.51762],[6.75137,44.5174],[6.75038,44.51543],[6.7487,44.51459],[6.74683,44.51473],[6.74579,44.51526],[6.74451,44.51563],[6.74408,44.51541],[6.74426,44.51125],[6.74515,44.51049],[6.74643,44.51019],[6.74668,44.50976],[6.74497,44.50507],[6.74454,44.50471],[6.74354,44.50445],[6.74287,44.50305],[6.74144,44.50277],[6.74078,44.50236],[6.74049,44.50081],[6.7394,44.49934],[6.7392,44.49832],[6.74082,44.49581],[6.74136,44.49405],[6.74203,44.49288],[6.74213,44.49143],[6.74308,44.49037],[6.74343,44.48945],[6.74518,44.48831],[6.74606,44.48706],[6.74747,44.48604],[6.7484,44.48443],[6.75184,44.48149],[6.75339,44.48058],[6.75556,44.48],[6.75785,44.47812],[6.76045,44.47676],[6.76378,44.47112],[6.76161,44.46729],[6.75701,44.46499],[6.75635,44.46493],[6.75354,44.46527],[6.75209,44.46472],[6.75042,44.46336],[6.74984,44.46225],[6.74732,44.4604],[6.74683,44.45961],[6.74649,44.45833],[6.74495,44.45791],[6.74425,44.45705],[6.74406,44.45587],[6.74368,44.45516],[6.7438,44.45311],[6.74315,44.45262],[6.74213,44.45119],[6.74083,44.45003],[6.74021,44.44772],[6.74041,44.44722],[6.74196,44.44563],[6.74262,44.44448],[6.7426,44.444],[6.74218,44.44326],[6.74195,44.44161],[6.74271,44.44065],[6.74281,44.43982],[6.74393,44.43877],[6.74384,44.43816],[6.74409,44.43749],[6.74367,44.43625],[6.74406,44.43548],[6.74396,44.43461],[6.74364,44.4343],[6.74117,44.43354],[6.74036,44.43266],[6.73885,44.43181],[6.73819,44.43078],[6.73652,44.42965],[6.7363,44.42891],[6.73693,44.4272],[6.7372,44.42249],[6.7368,44.4209],[6.73627,44.4202],[6.73476,44.41987],[6.73365,44.41935],[6.73303,44.41874],[6.73099,44.41822],[6.72868,44.4166],[6.72821,44.41523],[6.729,44.41316],[6.729,44.41249],[6.72842,44.41085],[6.72718,44.40963],[6.7223,44.4072],[6.71797,44.40588],[6.71139,44.40486],[6.7058,44.40481],[6.7024,44.40393],[6.70191,44.4035],[6.70142,44.40228],[6.70093,44.40186],[6.69425,44.39946],[6.69114,44.39586],[6.68991,44.39475],[6.68605,44.39243],[6.6829,44.39162],[6.67112,44.39135],[6.67037,44.39107],[6.6695,44.39035],[6.66797,44.39],[6.6663,44.3901],[6.66248,44.38854],[6.65744,44.38791],[6.65721,44.38774],[6.65719,44.38697],[6.65396,44.38655],[6.65107,44.38591],[6.65095,44.38622],[6.65132,44.38629]],"type":"LineString"}},{"type":"Feature","properties":{"name":"Barcelonnette, France → Nice, France"},"geometry":{"coordinates":[[6.65132,44.38629],[6.65249,44.38652],[6.65257,44.38629],[6.65239,44.38618],[6.65281,44.38506],[6.65432,44.38522],[6.65761,44.38516],[6.6572,44.38766],[6.65744,44.38791],[6.66248,44.38854],[6.6663,44.3901],[6.66797,44.39],[6.6695,44.39035],[6.67037,44.39107],[6.67112,44.39135],[6.6829,44.39162],[6.68628,44.39251],[6.68991,44.39475],[6.69114,44.39586],[6.69425,44.39946],[6.70093,44.40186],[6.70142,44.40228],[6.70191,44.4035],[6.7024,44.40393],[6.7058,44.40481],[6.71139,44.40486],[6.71797,44.40588],[6.7223,44.4072],[6.72633,44.4091],[6.7279,44.41021],[6.7287,44.41146],[6.72902,44.41304],[6.72821,44.41523],[6.72868,44.4166],[6.73099,44.41822],[6.73303,44.41874],[6.73382,44.41945],[6.73495,44.41993],[6.73619,44.42016],[6.73661,44.42056],[6.73966,44.41984],[6.74173,44.41729],[6.74338,44.41585],[6.74491,44.41525],[6.74579,44.41521],[6.74841,44.41456],[6.7508,44.41553],[6.75156,44.41463],[6.75275,44.41502],[6.75282,44.41482],[6.75198,44.41433],[6.75112,44.41279],[6.75132,44.41279],[6.75183,44.41329],[6.75381,44.41369],[6.75406,44.41361],[6.75401,44.41343],[6.75286,44.41273],[6.75282,44.41242],[6.75488,44.41308],[6.75547,44.41302],[6.75589,44.41276],[6.75559,44.41258],[6.75478,44.41262],[6.75264,44.41121],[6.75115,44.41124],[6.75098,44.41113],[6.75144,44.41089],[6.75256,44.41076],[6.75305,44.41041],[6.75338,44.40981],[6.7534,44.40904],[6.75395,44.40842],[6.75422,44.40756],[6.75539,44.40697],[6.75531,44.40671],[6.75463,44.40634],[6.75464,44.40587],[6.75514,44.40562],[6.75658,44.40552],[6.75761,44.405],[6.75865,44.40514],[6.75941,44.40506],[6.76051,44.40437],[6.761,44.40354],[6.76255,44.40336],[6.76588,44.40229],[6.76611,44.4013],[6.7677,44.40017],[6.76888,44.39877],[6.76879,44.3982],[6.76735,44.39712],[6.76739,44.39575],[6.76808,44.39503],[6.76873,44.3947],[6.77044,44.39431],[6.77211,44.39311],[6.77333,44.39277],[6.77465,44.39214],[6.77536,44.39159],[6.77725,44.39109],[6.77814,44.38995],[6.77824,44.38948],[6.77789,44.38887],[6.77797,44.38867],[6.77867,44.38809],[6.77829,44.38894],[6.77944,44.38946],[6.77897,44.38887],[6.77967,44.38841],[6.77988,44.38751],[6.78022,44.38882],[6.78078,44.38926],[6.78057,44.38891],[6.78061,44.38809],[6.78102,44.38694],[6.78038,44.38604],[6.78035,44.38501],[6.77988,44.38468],[6.78052,44.38369],[6.78041,44.38335],[6.78061,44.38285],[6.78028,44.38252],[6.78054,44.38066],[6.78074,44.38061],[6.78081,44.38108],[6.78144,44.38186],[6.78154,44.38076],[6.78196,44.37964],[6.78178,44.37822],[6.78122,44.37758],[6.78114,44.37719],[6.78133,44.37675],[6.78204,44.37609],[6.78255,44.37492],[6.78249,44.37362],[6.78193,44.37285],[6.78218,44.37173],[6.78294,44.37069],[6.78396,44.37016],[6.78485,44.36931],[6.78529,44.36912],[6.78592,44.3682],[6.78661,44.36652],[6.78683,44.36657],[6.7869,44.3688],[6.78758,44.36745],[6.78839,44.36678],[6.7887,44.36603],[6.78855,44.36526],[6.78794,44.36454],[6.78818,44.36334],[6.78751,44.36186],[6.78684,44.36127],[6.78608,44.36103],[6.78552,44.36031],[6.78445,44.36001],[6.78297,44.35874],[6.78362,44.35793],[6.78328,44.35681],[6.78269,44.35605],[6.78256,44.35537],[6.78327,44.35449],[6.7836,44.35348],[6.78353,44.35309],[6.78265,44.35183],[6.78302,44.35154],[6.78444,44.3514],[6.78496,44.35173],[6.78511,44.35156],[6.78453,44.35062],[6.78352,44.35023],[6.78358,44.34871],[6.78374,44.34863],[6.78404,44.34878],[6.78528,44.34987],[6.78493,44.34925],[6.78487,44.34845],[6.7842,44.34815],[6.78468,44.34808],[6.78544,44.34767],[6.78551,44.34833],[6.78567,44.34835],[6.78715,44.34695],[6.78646,44.34582],[6.78554,44.34495],[6.78456,44.34488],[6.78446,44.34419],[6.78464,44.34359],[6.78439,44.34317],[6.78313,44.34319],[6.78222,44.3426],[6.78215,44.34203],[6.78271,44.34028],[6.7825,44.33964],[6.78304,44.33902],[6.78406,44.33853],[6.78433,44.33803],[6.78464,44.33807],[6.78498,44.33846],[6.78604,44.33843],[6.78768,44.33754],[6.78834,44.33773],[6.78882,44.3376],[6.79183,44.33796],[6.792,44.33826],[6.79149,44.33982],[6.78914,44.34088],[6.78995,44.34074],[6.79151,44.3408],[6.79334,44.33995],[6.79361,44.34075],[6.79483,44.3414],[6.79422,44.34309],[6.79438,44.34386],[6.79467,44.34387],[6.79467,44.34332],[6.79563,44.34248],[6.79609,44.34304],[6.79821,44.34377],[6.7976,44.34406],[6.79683,44.3439],[6.7978,44.34473],[6.79769,44.34524],[6.79799,44.34522],[6.79828,44.34463],[6.79872,44.34428],[6.79995,44.34427],[6.80118,44.34372],[6.80206,44.34248],[6.802,44.34144],[6.80137,44.33994],[6.8021,44.33944],[6.80248,44.33877],[6.80129,44.33682],[6.80777,44.33628],[6.80954,44.33534],[6.81047,44.33398],[6.81076,44.33216],[6.80811,44.32963],[6.80777,44.3286],[6.80795,44.3276],[6.80738,44.32674],[6.80752,44.32662],[6.80925,44.32838],[6.81034,44.32917],[6.8109,44.33046],[6.81144,44.33075],[6.81286,44.33089],[6.81407,44.33055],[6.81583,44.33045],[6.81667,44.3305],[6.8174,44.33084],[6.82099,44.33051],[6.82181,44.331],[6.82433,44.33102],[6.82614,44.33173],[6.82613,44.33236],[6.82646,44.33285],[6.8258,44.33365],[6.82587,44.33449],[6.8277,44.33626],[6.82916,44.33704],[6.83058,44.33817],[6.83094,44.3386],[6.8312,44.33946],[6.83204,44.34053],[6.83268,44.34025],[6.83403,44.34003],[6.83538,44.34012],[6.83604,44.34045],[6.83678,44.34041],[6.83777,44.34087],[6.83834,44.34064],[6.83906,44.34059],[6.8403,44.34092],[6.84125,44.34057],[6.84249,44.34051],[6.84321,44.34071],[6.84446,44.34187],[6.84591,44.34233],[6.84674,44.34172],[6.84732,44.34159],[6.84745,44.34106],[6.84809,44.34048],[6.84878,44.34027],[6.84952,44.3403],[6.85005,44.33968],[6.85008,44.33896],[6.85053,44.33803],[6.85043,44.33699],[6.85011,44.33632],[6.85057,44.33596],[6.85066,44.33554],[6.85034,44.33433],[6.85038,44.33355],[6.85061,44.33304],[6.85107,44.3328],[6.85204,44.33279],[6.85286,44.33245],[6.85478,44.3321],[6.85609,44.33239],[6.85794,44.33236],[6.85941,44.33207],[6.86044,44.33162],[6.86105,44.33188],[6.86352,44.3339],[6.86588,44.33374],[6.86697,44.33327],[6.86823,44.33338],[6.86854,44.33322],[6.86858,44.33277],[6.8675,44.33289],[6.86739,44.33223],[6.86654,44.33174],[6.8667,44.33161],[6.86793,44.33179],[6.8686,44.33119],[6.86878,44.33026],[6.86816,44.32867],[6.86799,44.32874],[6.86819,44.32917],[6.86803,44.32979],[6.86766,44.33018],[6.86556,44.32941],[6.86469,44.32879],[6.86385,44.32893],[6.86275,44.3288],[6.86304,44.32846],[6.86363,44.32823],[6.86385,44.32768],[6.86502,44.32704],[6.86498,44.3268],[6.8639,44.32711],[6.8632,44.32714],[6.86301,44.32742],[6.86193,44.32803],[6.86029,44.32816],[6.85959,44.32797],[6.86089,44.32769],[6.86183,44.32714],[6.86245,44.32607],[6.86178,44.32664],[6.86046,44.32711],[6.85735,44.32696],[6.85523,44.32748],[6.85416,44.32716],[6.85327,44.32667],[6.85227,44.32665],[6.8535,44.32616],[6.85514,44.326],[6.85605,44.3251],[6.85809,44.32428],[6.85896,44.3243],[6.8598,44.32374],[6.86109,44.32347],[6.86182,44.32272],[6.8626,44.32303],[6.86391,44.32262],[6.86393,44.32251],[6.86283,44.32244],[6.86241,44.32199],[6.86154,44.32158],[6.86095,44.32208],[6.85923,44.32264],[6.86035,44.32148],[6.86108,44.32125],[6.86141,44.32094],[6.86389,44.3211],[6.86533,44.32099],[6.86645,44.32049],[6.86843,44.32012],[6.86636,44.32008],[6.86644,44.31993],[6.87022,44.3196],[6.87206,44.3197],[6.87482,44.3201],[6.87712,44.32076],[6.87882,44.32144],[6.88111,44.32202],[6.88228,44.32247],[6.88351,44.32354],[6.88418,44.32358],[6.8869,44.32184],[6.88972,44.32067],[6.8928,44.32032],[6.89554,44.31903],[6.89711,44.31865],[6.89933,44.31725],[6.90038,44.31596],[6.90095,44.31402],[6.90045,44.31227],[6.90112,44.31011],[6.90198,44.30892],[6.90249,44.30746],[6.90319,44.30628],[6.90503,44.30567],[6.90327,44.30573],[6.90392,44.30541],[6.90451,44.30539],[6.90467,44.3052],[6.90341,44.30384],[6.90321,44.30292],[6.9034,44.30219],[6.90329,44.30157],[6.90261,44.3012],[6.90181,44.29992],[6.90193,44.29913],[6.90155,44.29781],[6.90181,44.29512],[6.90173,44.29337],[6.90135,44.29235],[6.90105,44.29213],[6.90099,44.29111],[6.90064,44.29078],[6.89986,44.29057],[6.89999,44.28983],[6.89941,44.28896],[6.89954,44.28837],[6.89929,44.28799],[6.89947,44.28734],[6.89926,44.28687],[6.90037,44.28655],[6.90054,44.28538],[6.9016,44.28385],[6.90204,44.28354],[6.90226,44.28265],[6.90322,44.28166],[6.90381,44.28068],[6.90554,44.27962],[6.90713,44.27899],[6.90819,44.27811],[6.90952,44.27769],[6.91028,44.27707],[6.91071,44.27644],[6.9125,44.27591],[6.9151,44.27432],[6.91663,44.27368],[6.91789,44.27183],[6.9198,44.27102],[6.92083,44.27033],[6.92118,44.26923],[6.92083,44.26765],[6.92157,44.26561],[6.92141,44.26351],[6.92163,44.26285],[6.9214,44.26175],[6.92162,44.26107],[6.92231,44.26016],[6.92354,44.25964],[6.92513,44.25931],[6.92602,44.25861],[6.92244,44.25671],[6.92359,44.25592],[6.9248,44.2542],[6.92642,44.25285],[6.92734,44.25118],[6.92945,44.24879],[6.93389,44.24621],[6.93405,44.24587],[6.93387,44.24484],[6.93502,44.24463],[6.93664,44.2434],[6.93698,44.24302],[6.93692,44.24263],[6.93738,44.24249],[6.93772,44.2421],[6.93796,44.24071],[6.94147,44.23807],[6.94193,44.238],[6.94207,44.23827],[6.94112,44.23881],[6.93961,44.24021],[6.93971,44.24053],[6.94001,44.2405],[6.94157,44.23942],[6.94354,44.2387],[6.94508,44.23658],[6.9492,44.23376],[6.95395,44.23171],[6.95771,44.22927],[6.95993,44.22564],[6.96044,44.22538],[6.96252,44.225],[6.9632,44.22468],[6.96649,44.22029],[6.96773,44.21936],[6.97061,44.21668],[6.97151,44.21499],[6.97384,44.21309],[6.9753,44.21079],[6.97707,44.20919],[6.98026,44.20699],[6.98337,44.20662],[6.98563,44.20476],[6.98891,44.20314],[6.99087,44.20162],[6.99156,44.20141],[6.99466,44.20113],[6.99626,44.2003],[6.99912,44.1997],[7.00161,44.19833],[7.00452,44.19769],[7.00685,44.19603],[7.00821,44.19465],[7.01034,44.1941],[7.01321,44.19242],[7.01657,44.19101],[7.01841,44.18993],[7.01938,44.18972],[7.02255,44.18964],[7.02507,44.18918],[7.02927,44.19042],[7.03128,44.19055],[7.03313,44.19034],[7.04277,44.18843],[7.04465,44.18759],[7.046,44.1872],[7.04658,44.18635],[7.04768,44.18615],[7.04977,44.18542],[7.05367,44.1851],[7.05429,44.18492],[7.05458,44.18463],[7.05778,44.18315],[7.05929,44.18174],[7.06238,44.18003],[7.0661,44.1787],[7.0692,44.17675],[7.07197,44.17616],[7.07424,44.17615],[7.07743,44.17514],[7.07953,44.17396],[7.0805,44.17298],[7.08265,44.17267],[7.08452,44.1715],[7.08585,44.17039],[7.08768,44.16784],[7.08809,44.16524],[7.08854,44.16422],[7.09009,44.16248],[7.09026,44.1607],[7.09088,44.15892],[7.09033,44.15685],[7.09043,44.15605],[7.09168,44.1546],[7.09361,44.15367],[7.09392,44.1532],[7.09408,44.15193],[7.09495,44.15117],[7.0959,44.15063],[7.09649,44.14997],[7.09659,44.14928],[7.09633,44.14757],[7.09689,44.14655],[7.09775,44.14577],[7.09807,44.14521],[7.09766,44.14344],[7.09773,44.14282],[7.09837,44.1417],[7.09863,44.14024],[7.10018,44.13819],[7.09995,44.13641],[7.10051,44.13517],[7.10102,44.13297],[7.1001,44.1305],[7.09957,44.12986],[7.09756,44.12878],[7.09629,44.12768],[7.09493,44.12715],[7.0944,44.12677],[7.09356,44.12535],[7.09235,44.12409],[7.09191,44.12192],[7.09211,44.12002],[7.09275,44.11814],[7.09239,44.1169],[7.09251,44.1164],[7.09281,44.11611],[7.09551,44.11482],[7.09725,44.11258],[7.09788,44.11108],[7.09894,44.11023],[7.10139,44.109],[7.10191,44.10841],[7.10211,44.10674],[7.1019,44.10572],[7.10298,44.1024],[7.10369,44.09857],[7.10451,44.09762],[7.10503,44.09653],[7.10582,44.09607],[7.10621,44.09557],[7.10665,44.09327],[7.10777,44.09101],[7.10733,44.0901],[7.10757,44.08895],[7.10744,44.08797],[7.10614,44.08696],[7.10625,44.08471],[7.10604,44.08447],[7.10489,44.08399],[7.10686,44.0811],[7.10657,44.0804],[7.10532,44.07968],[7.10484,44.07782],[7.10539,44.07732],[7.10648,44.07686],[7.10755,44.07616],[7.10895,44.07459],[7.10964,44.07312],[7.10958,44.07126],[7.11071,44.06985],[7.11131,44.06946],[7.11187,44.06876],[7.11385,44.06827],[7.11426,44.06803],[7.11497,44.06641],[7.11462,44.06594],[7.11456,44.0652],[7.11635,44.06456],[7.11696,44.06461],[7.11726,44.06444],[7.11702,44.06268],[7.11799,44.06201],[7.11804,44.06117],[7.11769,44.06074],[7.11773,44.05999],[7.11819,44.05958],[7.11863,44.05864],[7.11841,44.05788],[7.11898,44.05722],[7.11884,44.05641],[7.11943,44.05577],[7.11878,44.0549],[7.11882,44.05457],[7.11905,44.05446],[7.11956,44.05468],[7.12057,44.05475],[7.12178,44.05461],[7.12333,44.05348],[7.12405,44.05349],[7.12439,44.05334],[7.12457,44.05251],[7.12547,44.05212],[7.12617,44.05121],[7.1271,44.05071],[7.12815,44.04979],[7.129,44.04866],[7.12973,44.04713],[7.12948,44.04605],[7.12872,44.04494],[7.1282,44.04354],[7.12851,44.04265],[7.12905,44.04217],[7.12866,44.04055],[7.12833,44.04002],[7.1274,44.03926],[7.12725,44.03886],[7.12783,44.03685],[7.12818,44.03632],[7.13049,44.03579],[7.13156,44.03499],[7.13207,44.03406],[7.13215,44.0307],[7.13111,44.02809],[7.13127,44.02647],[7.13177,44.02518],[7.13114,44.0231],[7.13116,44.02168],[7.13167,44.01915],[7.13086,44.01548],[7.13153,44.01357],[7.13176,44.01063],[7.13231,44.00974],[7.13651,44.00601],[7.13805,44.00347],[7.13832,44.00242],[7.13699,43.9991],[7.13769,43.99755],[7.13774,43.99655],[7.13713,43.99544],[7.13677,43.99396],[7.13713,43.99153],[7.13642,43.98977],[7.13614,43.98716],[7.13676,43.98531],[7.13932,43.98188],[7.13982,43.97956],[7.1405,43.97789],[7.14041,43.97701],[7.13938,43.97527],[7.14141,43.97304],[7.14247,43.97275],[7.14457,43.9728],[7.14633,43.97236],[7.14826,43.97006],[7.1504,43.96809],[7.15215,43.96531],[7.15259,43.96419],[7.1537,43.96337],[7.15363,43.96214],[7.15473,43.96098],[7.15516,43.96009],[7.15621,43.95939],[7.15686,43.95771],[7.15799,43.95626],[7.16032,43.95016],[7.16017,43.94763],[7.16066,43.94688],[7.16266,43.94547],[7.16302,43.94493],[7.16301,43.94424],[7.16251,43.94271],[7.16146,43.9414],[7.16105,43.93964],[7.16126,43.93902],[7.1625,43.93837],[7.1649,43.93853],[7.16547,43.93771],[7.16756,43.93708],[7.16952,43.93716],[7.17053,43.93763],[7.17087,43.93758],[7.17166,43.9365],[7.17194,43.93437],[7.17319,43.93364],[7.17422,43.93236],[7.1803,43.93008],[7.18066,43.92966],[7.18084,43.92876],[7.18128,43.92796],[7.18224,43.92678],[7.18309,43.92616],[7.18548,43.92545],[7.18634,43.92487],[7.18637,43.92353],[7.18588,43.9227],[7.18615,43.92195],[7.18665,43.92119],[7.18782,43.92063],[7.18813,43.91957],[7.18954,43.91848],[7.18953,43.91759],[7.18909,43.91675],[7.18746,43.91565],[7.18723,43.91531],[7.18796,43.91426],[7.18812,43.9135],[7.18777,43.91305],[7.186,43.91233],[7.18579,43.91201],[7.18603,43.90976],[7.18755,43.90259],[7.18926,43.89831],[7.18844,43.89308],[7.18921,43.89121],[7.18836,43.88957],[7.1882,43.88882],[7.18977,43.88629],[7.19055,43.8845],[7.19024,43.88229],[7.18968,43.88052],[7.18988,43.87943],[7.19139,43.87774],[7.19275,43.8766],[7.19294,43.87602],[7.19268,43.87473],[7.19294,43.8741],[7.19493,43.87296],[7.19712,43.87086],[7.198,43.86955],[7.19855,43.86813],[7.19872,43.86395],[7.1984,43.86135],[7.19788,43.86017],[7.19623,43.85813],[7.19595,43.85716],[7.19623,43.85608],[7.19749,43.85454],[7.19794,43.8535],[7.19793,43.85088],[7.19688,43.84647],[7.19703,43.84572],[7.19427,43.83798],[7.194,43.83784],[7.19107,43.83833],[7.191,43.83761],[7.19054,43.83681],[7.18871,43.8348],[7.18825,43.83455],[7.18811,43.83418],[7.18621,43.83213],[7.18367,43.8273],[7.18296,43.82669],[7.18083,43.82558],[7.18134,43.82528],[7.18221,43.8243],[7.1833,43.82248],[7.18391,43.81998],[7.18454,43.81441],[7.1844,43.81396],[7.18505,43.81373],[7.18532,43.8129],[7.18631,43.8113],[7.18782,43.80959],[7.19581,43.8027],[7.19587,43.80234],[7.19874,43.80006],[7.21114,43.78897],[7.21221,43.78763],[7.21329,43.78572],[7.21299,43.78515],[7.21363,43.78487],[7.21419,43.7822],[7.21417,43.78072],[7.21388,43.77894],[7.21326,43.77723],[7.21227,43.7755],[7.211,43.77392],[7.2065,43.76938],[7.20221,43.76562],[7.19779,43.76125],[7.19417,43.75868],[7.19274,43.75746],[7.18951,43.75358],[7.18523,43.74937],[7.18331,43.74713],[7.18208,43.74531],[7.18089,43.74274],[7.18001,43.73934],[7.17985,43.73737],[7.18275,43.71526],[7.18552,43.69908],[7.18651,43.69768],[7.18731,43.6971],[7.18921,43.69618],[7.18979,43.69532],[7.1904,43.69521],[7.1914,43.69564],[7.19229,43.69514],[7.19562,43.69121],[7.1976,43.68574],[7.19872,43.68186],[7.20107,43.67733],[7.2022,43.67178],[7.20525,43.66622],[7.20504,43.66586],[7.2042,43.66575],[7.2042,43.6659],[7.20473,43.66616],[7.21219,43.66879],[7.21363,43.66952],[7.21716,43.67077],[7.21977,43.67196],[7.22136,43.67305],[7.22492,43.67773],[7.22617,43.679],[7.23247,43.68324],[7.23508,43.68589],[7.24655,43.69462],[7.24745,43.69572],[7.24874,43.69829],[7.25011,43.69951],[7.25603,43.7024],[7.2585,43.70432],[7.25975,43.705],[7.26124,43.70543],[7.26449,43.70593],[7.26781,43.70744],[7.2702,43.70822],[7.27048,43.70792],[7.26978,43.7067],[7.27041,43.70581],[7.27084,43.70543],[7.27201,43.70517],[7.27341,43.70448],[7.27354,43.70412],[7.27203,43.70199],[7.26852,43.70079]],"type":"LineString"}},{"type":"Feature","properties":{"name":"Geneva, Switzerland"},"geometry":{"type":"Point","coordinates":[6.1466,46.20176]}},{"type":"Feature","properties":{"name":"Chamonix, France"},"geometry":{"type":"Point","coordinates":[6.87,45.9231]}},{"type":"Feature","properties":{"name":"Bourg-Saint-Maurice, France"},"geometry":{"type":"Point","coordinates":[6.76953,45.61861]}},{"type":"Feature","properties":{"name":"Briancon, France"},"geometry":{"type":"Point","coordinates":[6.64363,44.8984]}},{"type":"Feature","properties":{"name":"Barcelonnette, France"},"geometry":{"type":"Point","coordinates":[6.65136,44.3862]}},{"type":"Feature","properties":{"name":"Nice, France"},"geometry":{"type":"Point","coordinates":[7.26839,43.70094]}}]}