{"type":"FeatureCollection","features":[{"type":"Feature","properties":{"name":"Reykjavik, Iceland → Vik, Iceland"},"geometry":{"coordinates":[[-21.94312,64.14592],[-21.94356,64.14583],[-21.94273,64.14658],[-21.93889,64.1457],[-21.93932,64.14531],[-21.94026,64.14277],[-21.93796,64.13971],[-21.94008,64.13861],[-21.93511,64.1366],[-21.93233,64.13599],[-21.92833,64.13572],[-21.92274,64.13591],[-21.91977,64.13624],[-21.9168,64.13594],[-21.88372,64.13082],[-21.84905,64.12499],[-21.84202,64.12418],[-21.83249,64.12378],[-21.78815,64.12442],[-21.78633,64.12426],[-21.78492,64.12354],[-21.78363,64.1209],[-21.78127,64.11826],[-21.78033,64.11654],[-21.78005,64.11428],[-21.78076,64.11104],[-21.78022,64.10942],[-21.77776,64.10641],[-21.77638,64.10554],[-21.77498,64.10503],[-21.77466,64.10465],[-21.76986,64.10401],[-21.75996,64.10186],[-21.75951,64.10148],[-21.75683,64.10108],[-21.75002,64.09948],[-21.74482,64.09803],[-21.73477,64.09465],[-21.73218,64.09408],[-21.72816,64.09357],[-21.71757,64.09311],[-21.71222,64.09246],[-21.70584,64.09137],[-21.66949,64.08114],[-21.63763,64.07334],[-21.63075,64.07223],[-21.61758,64.0712],[-21.60662,64.06994],[-21.55857,64.06178],[-21.54905,64.06041],[-21.53951,64.05948],[-21.53215,64.05903],[-21.52562,64.05884],[-21.51147,64.05886],[-21.50826,64.05861],[-21.50446,64.05799],[-21.49755,64.05591],[-21.46483,64.04421],[-21.46105,64.04241],[-21.45161,64.03663],[-21.44713,64.03476],[-21.44451,64.03394],[-21.44073,64.03306],[-21.43063,64.03148],[-21.42508,64.02984],[-21.42127,64.02794],[-21.41253,64.02155],[-21.40987,64.02031],[-21.40583,64.01923],[-21.40369,64.0189],[-21.40036,64.01866],[-21.38631,64.0188],[-21.37194,64.01815],[-21.35646,64.01845],[-21.34615,64.01839],[-21.33921,64.01887],[-21.31242,64.02194],[-21.30642,64.0222],[-21.3022,64.02205],[-21.29763,64.02164],[-21.29369,64.02103],[-21.2679,64.01479],[-21.25816,64.01316],[-21.24843,64.01089],[-21.24334,64.0103],[-21.23966,64.01043],[-21.23717,64.01092],[-21.23604,64.01132],[-21.23477,64.01201],[-21.23382,64.01291],[-21.23332,64.01508],[-21.23284,64.01563],[-21.23127,64.01617],[-21.22913,64.01611],[-21.22789,64.01562],[-21.22627,64.0141],[-21.2235,64.01348],[-21.22262,64.01309],[-21.22081,64.01035],[-21.21809,64.00818],[-21.21731,64.00717],[-21.21743,64.00634],[-21.21816,64.00575],[-21.22443,64.00361],[-21.22573,64.00297],[-21.22617,64.00206],[-21.22532,64.00109],[-21.22408,64.00065],[-21.22282,64.00046],[-21.21586,64.00001],[-21.21114,63.99939],[-21.19715,63.99625],[-21.18322,63.99254],[-21.16121,63.98594],[-21.15902,63.98503],[-21.15699,63.98387],[-21.15015,63.97852],[-21.14695,63.97655],[-21.13941,63.97251],[-21.13306,63.96977],[-21.12891,63.96772],[-21.12471,63.96533],[-21.11955,63.96187],[-21.11611,63.96029],[-21.1112,63.95897],[-21.10625,63.95834],[-21.07569,63.95773],[-21.06527,63.9572],[-21.05729,63.95657],[-21.04737,63.95553],[-21.02129,63.95216],[-21.02103,63.95183],[-21.02141,63.95108],[-21.0211,63.95049],[-21.02003,63.94996],[-21.01587,63.94892],[-21.01424,63.94823],[-21.00826,63.9434],[-21.00563,63.94196],[-21.00501,63.94105],[-21.00527,63.93948],[-21.00392,63.93732],[-20.98671,63.93711],[-20.97739,63.9385],[-20.97325,63.93889],[-20.97225,63.93874],[-20.97107,63.93905],[-20.96523,63.93957],[-20.94194,63.94137],[-20.92619,63.94188],[-20.8459,63.94366],[-20.83623,63.94356],[-20.82195,63.94266],[-20.78212,63.9431],[-20.77845,63.94337],[-20.76713,63.94499],[-20.75968,63.94572],[-20.75271,63.94733],[-20.7405,63.94859],[-20.71907,63.9524],[-20.71544,63.95265],[-20.69747,63.95299],[-20.69515,63.95286],[-20.69257,63.95242],[-20.69074,63.95185],[-20.68916,63.95106],[-20.68397,63.94778],[-20.67525,63.94329],[-20.67302,63.94186],[-20.67168,63.94061],[-20.67065,63.93914],[-20.66937,63.93525],[-20.6684,63.93348],[-20.66259,63.9271],[-20.65987,63.92485],[-20.65744,63.92331],[-20.65357,63.92142],[-20.65077,63.92032],[-20.64466,63.9185],[-20.63883,63.91732],[-20.60039,63.91057],[-20.59689,63.90945],[-20.59448,63.90812],[-20.59082,63.90508],[-20.58932,63.90169],[-20.58809,63.90076],[-20.58664,63.90015],[-20.55339,63.8926],[-20.55001,63.89194],[-20.53955,63.89039],[-20.53375,63.88916],[-20.50985,63.8817],[-20.50344,63.87962],[-20.50232,63.879],[-20.50073,63.87878],[-20.466,63.86783],[-20.46305,63.86741],[-20.45079,63.86704],[-20.44722,63.86636],[-20.4445,63.86532],[-20.41955,63.84889],[-20.41426,63.84627],[-20.40997,63.84347],[-20.40803,63.84146],[-20.40629,63.83735],[-20.40282,63.83518],[-20.4026,63.83433],[-20.3988,63.83302],[-20.36845,63.82626],[-20.36412,63.82494],[-20.36088,63.82349],[-20.35672,63.82094],[-20.35101,63.81687],[-20.34817,63.81535],[-20.34202,63.81254],[-20.33444,63.80763],[-20.32968,63.80497],[-20.31171,63.79519],[-20.29952,63.7897],[-20.2848,63.77989],[-20.27701,63.77359],[-20.2739,63.77141],[-20.26917,63.76901],[-20.24789,63.75905],[-20.23289,63.74955],[-20.23244,63.74918],[-20.23243,63.7486],[-20.23513,63.73107],[-20.23401,63.72293],[-20.23302,63.72033],[-20.23121,63.71806],[-20.21508,63.70254],[-20.21017,63.69912],[-20.20102,63.6935],[-20.19749,63.69199],[-20.15289,63.67703],[-20.1487,63.67603],[-20.13027,63.67246],[-20.12347,63.6705],[-20.11942,63.66874],[-20.10136,63.65949],[-20.09396,63.65618],[-20.08604,63.65335],[-20.06128,63.64567],[-20.05534,63.64346],[-20.05,63.64088],[-20.04693,63.63904],[-20.044,63.6369],[-20.0419,63.63502],[-20.03192,63.62444],[-20.0276,63.62139],[-20.02437,63.61971],[-20.02161,63.61858],[-20.00547,63.6134],[-20.00017,63.61127],[-19.99527,63.60875],[-19.97461,63.59657],[-19.97079,63.59501],[-19.93601,63.58481],[-19.93127,63.58358],[-19.92864,63.5831],[-19.91943,63.58199],[-19.91583,63.58131],[-19.8796,63.57309],[-19.84607,63.56513],[-19.8352,63.56357],[-19.82022,63.5625],[-19.8166,63.56199],[-19.80857,63.56007],[-19.77662,63.55105],[-19.76315,63.54967],[-19.75246,63.54894],[-19.74993,63.5485],[-19.74471,63.54713],[-19.73376,63.54619],[-19.72196,63.54446],[-19.71222,63.54453],[-19.70295,63.54324],[-19.69693,63.5431],[-19.69262,63.5427],[-19.68856,63.54282],[-19.68353,63.54266],[-19.67175,63.54346],[-19.66038,63.54257],[-19.65761,63.54198],[-19.64414,63.53708],[-19.63767,63.53524],[-19.57738,63.52275],[-19.57468,63.52232],[-19.57117,63.52224],[-19.56125,63.52312],[-19.54497,63.52352],[-19.5414,63.52344],[-19.52892,63.52197],[-19.46499,63.51554],[-19.46048,63.51454],[-19.40998,63.50058],[-19.3448,63.48753],[-19.34048,63.48638],[-19.33177,63.48348],[-19.32858,63.48264],[-19.32509,63.4821],[-19.31669,63.48143],[-19.25694,63.47245],[-19.2548,63.47181],[-19.23434,63.46344],[-19.22302,63.4598],[-19.2081,63.45177],[-19.20695,63.45091],[-19.19174,63.43472],[-19.19018,63.43367],[-19.18855,63.43292],[-19.18651,63.43226],[-19.18398,63.43174],[-19.17989,63.43143],[-19.17668,63.43161],[-19.17422,63.43207],[-19.17005,63.43326],[-19.16167,63.43592],[-19.15643,63.43797],[-19.14553,63.44115],[-19.1435,63.44219],[-19.13859,63.44585],[-19.13676,63.44655],[-19.13433,63.44707],[-19.13129,63.44731],[-19.11908,63.44754],[-19.11541,63.44785],[-19.11264,63.44839],[-19.10576,63.45028],[-19.09637,63.4514],[-19.08936,63.45347],[-19.07537,63.45529],[-19.07231,63.45533],[-19.06489,63.45475],[-19.06355,63.45425],[-19.0627,63.45309],[-19.06176,63.45277],[-19.06088,63.45286],[-19.05663,63.45413],[-19.05299,63.45399],[-19.0472,63.45466],[-19.04505,63.45459],[-19.04272,63.45428],[-19.04014,63.45351],[-19.03884,63.45289],[-19.03757,63.45201],[-19.03661,63.45093],[-19.03609,63.44916],[-19.0368,63.44526],[-19.03631,63.44387],[-19.03514,63.44229],[-19.02569,63.43551],[-19.02122,63.43309],[-19.02019,63.43219],[-19.01975,63.43105],[-19.02026,63.42885],[-19.02018,63.42756],[-19.01967,63.42631],[-19.01847,63.42487],[-19.01635,63.42334],[-19.01211,63.42126],[-19.00846,63.42047],[-19.0055,63.41905],[-19.00286,63.41825],[-19.00303,63.41808],[-19.00386,63.41791],[-19.00448,63.41847],[-19.0053,63.41877]],"type":"LineString"}},{"type":"Feature","properties":{"name":"Vik, Iceland → Hofn, Iceland"},"geometry":{"coordinates":[[-19.0053,63.41877],[-19.00448,63.41847],[-19.00386,63.41791],[-19.0032,63.418],[-19.00286,63.41825],[-18.997,63.41743],[-18.99572,63.41769],[-18.9533,63.41897],[-18.93016,63.42059],[-18.9246,63.42111],[-18.89502,63.42564],[-18.89201,63.42648],[-18.86536,63.43576],[-18.86115,63.43677],[-18.85678,63.43736],[-18.84966,63.43769],[-18.83904,63.43777],[-18.81904,63.4372],[-18.80941,63.43709],[-18.79983,63.43724],[-18.78775,63.4378],[-18.77947,63.43842],[-18.77059,63.43931],[-18.74819,63.44223],[-18.7369,63.44345],[-18.72693,63.44428],[-18.69951,63.44594],[-18.68828,63.44697],[-18.67613,63.44844],[-18.66443,63.45021],[-18.65229,63.45244],[-18.64512,63.45395],[-18.63315,63.45683],[-18.61741,63.46138],[-18.60166,63.46677],[-18.59417,63.46909],[-18.58135,63.47258],[-18.56104,63.4775],[-18.5548,63.4794],[-18.54802,63.48186],[-18.54058,63.48512],[-18.52662,63.4922],[-18.51222,63.49843],[-18.50549,63.50156],[-18.49688,63.50609],[-18.49032,63.51002],[-18.48277,63.51537],[-18.47617,63.52091],[-18.46986,63.52729],[-18.46363,63.53453],[-18.45512,63.5411],[-18.45163,63.54524],[-18.44439,63.55691],[-18.44394,63.55827],[-18.44397,63.55942],[-18.45,63.57813],[-18.45935,63.58844],[-18.46109,63.59091],[-18.46223,63.59316],[-18.4632,63.5961],[-18.46361,63.59936],[-18.46344,63.60209],[-18.46248,63.6054],[-18.46047,63.60921],[-18.4568,63.61359],[-18.42733,63.63783],[-18.42227,63.64276],[-18.41965,63.64594],[-18.41666,63.65071],[-18.41495,63.65468],[-18.41285,63.6613],[-18.41145,63.6639],[-18.40791,63.6678],[-18.40232,63.67152],[-18.39885,63.67323],[-18.39212,63.67575],[-18.34063,63.68924],[-18.31998,63.69696],[-18.17919,63.73963],[-18.17567,63.74095],[-18.16694,63.74482],[-18.13,63.75683],[-18.12822,63.75767],[-18.12489,63.76006],[-18.1235,63.76077],[-18.11763,63.76313],[-18.11385,63.7644],[-18.10733,63.76611],[-18.10252,63.76697],[-18.09779,63.76739],[-18.08344,63.76788],[-18.08058,63.76835],[-18.07837,63.76907],[-18.07392,63.77197],[-18.07206,63.77294],[-18.05633,63.77874],[-18.05479,63.77981],[-18.0533,63.78182],[-18.05192,63.78269],[-18.04994,63.78335],[-18.04154,63.78516],[-18.03845,63.78633],[-18.03677,63.78783],[-18.03639,63.78911],[-18.03821,63.79363],[-18.03953,63.79454],[-18.03922,63.79498],[-18.00994,63.81489],[-18.00564,63.81746],[-18.00195,63.8188],[-17.9819,63.82415],[-17.97931,63.82525],[-17.97183,63.82932],[-17.97093,63.83016],[-17.97042,63.83117],[-17.97075,63.83496],[-17.97034,63.8363],[-17.9683,63.83873],[-17.96605,63.83987],[-17.96358,63.84035],[-17.95805,63.84075],[-17.94845,63.84265],[-17.94373,63.84341],[-17.94013,63.8444],[-17.92865,63.84632],[-17.92109,63.8469],[-17.91677,63.84761],[-17.91161,63.84901],[-17.88749,63.85245],[-17.8719,63.8533],[-17.85926,63.85092],[-17.84826,63.85029],[-17.84527,63.85056],[-17.83275,63.85418],[-17.82937,63.85535],[-17.82431,63.85769],[-17.81678,63.86159],[-17.81357,63.86296],[-17.78094,63.87389],[-17.77167,63.87668],[-17.75429,63.8826],[-17.74711,63.88473],[-17.74438,63.88593],[-17.74206,63.88727],[-17.74021,63.88885],[-17.7393,63.88999],[-17.73626,63.89658],[-17.73485,63.90203],[-17.73354,63.90382],[-17.73243,63.90471],[-17.7189,63.91269],[-17.71651,63.91477],[-17.7046,63.93374],[-17.70265,63.93533],[-17.70052,63.93653],[-17.69795,63.93759],[-17.69447,63.93859],[-17.69176,63.93913],[-17.68028,63.94075],[-17.66462,63.94447],[-17.65932,63.94545],[-17.65446,63.94612],[-17.64563,63.94682],[-17.61779,63.94751],[-17.61338,63.94789],[-17.59899,63.95135],[-17.59311,63.95381],[-17.59111,63.95445],[-17.58593,63.95532],[-17.58153,63.95629],[-17.55275,63.95774],[-17.54903,63.9578],[-17.47897,63.95623],[-17.46242,63.9567],[-17.4572,63.95642],[-17.44171,63.95407],[-17.34224,63.93494],[-17.33748,63.93435],[-17.33146,63.93433],[-17.27901,63.93733],[-17.27485,63.93777],[-17.26844,63.93887],[-17.22519,63.9485],[-17.16188,63.96599],[-17.15686,63.96705],[-17.15288,63.96764],[-17.09484,63.97362],[-17.08949,63.97403],[-17.08292,63.97424],[-17.0352,63.97479],[-17.01953,63.97554],[-17.00911,63.9758],[-16.99688,63.97575],[-16.98542,63.97536],[-16.98165,63.97537],[-16.97788,63.97557],[-16.97331,63.97627],[-16.97049,63.97699],[-16.9681,63.97786],[-16.96561,63.97914],[-16.96374,63.98058],[-16.94716,64.00323],[-16.94581,64.00453],[-16.94396,64.0055],[-16.94008,64.00642],[-16.9372,64.00658],[-16.93198,64.00638],[-16.929,64.00602],[-16.92564,64.00497],[-16.8886,63.9876],[-16.88515,63.98663],[-16.87858,63.98574],[-16.87589,63.98506],[-16.86577,63.97923],[-16.86439,63.97791],[-16.86372,63.97663],[-16.85969,63.95904],[-16.85817,63.95701],[-16.85498,63.95502],[-16.85204,63.95396],[-16.84289,63.95173],[-16.8407,63.95136],[-16.83276,63.95074],[-16.83056,63.95038],[-16.80463,63.94478],[-16.80269,63.94418],[-16.80082,63.94332],[-16.79488,63.9383],[-16.78967,63.92729],[-16.78706,63.9226],[-16.78648,63.92196],[-16.78533,63.92131],[-16.78345,63.92075],[-16.76994,63.91879],[-16.76699,63.91822],[-16.7225,63.90752],[-16.71842,63.90628],[-16.71563,63.905],[-16.71432,63.90417],[-16.71138,63.90145],[-16.71007,63.9006],[-16.70355,63.89794],[-16.70136,63.89656],[-16.69974,63.89449],[-16.69882,63.89084],[-16.69749,63.88877],[-16.69514,63.88657],[-16.6904,63.88361],[-16.68934,63.88188],[-16.68877,63.88141],[-16.68769,63.88099],[-16.68577,63.88073],[-16.68211,63.88099],[-16.67891,63.88092],[-16.67309,63.88024],[-16.66655,63.87902],[-16.66394,63.87886],[-16.66076,63.87905],[-16.64569,63.88101],[-16.64377,63.88102],[-16.64065,63.88068],[-16.63888,63.88077],[-16.63253,63.88224],[-16.62888,63.88358],[-16.62626,63.88553],[-16.62356,63.88947],[-16.62032,63.89202],[-16.60336,63.89991],[-16.59973,63.90128],[-16.59624,63.90235],[-16.58832,63.9041],[-16.51486,63.91693],[-16.51141,63.91783],[-16.49708,63.92288],[-16.43555,63.93676],[-16.43259,63.93774],[-16.43029,63.93916],[-16.42917,63.94073],[-16.42049,63.97224],[-16.42007,63.97326],[-16.41905,63.97443],[-16.39507,63.98866],[-16.37391,64.00027],[-16.3652,64.00588],[-16.36148,64.00861],[-16.35057,64.01756],[-16.34712,64.01945],[-16.34432,64.02062],[-16.33977,64.02202],[-16.27812,64.03751],[-16.27355,64.03846],[-16.2692,64.03905],[-16.26326,64.03954],[-16.2104,64.04142],[-16.20365,64.04188],[-16.19931,64.04245],[-16.17345,64.04677],[-16.16834,64.04801],[-16.16297,64.04986],[-16.1574,64.05262],[-16.13543,64.06597],[-16.13265,64.06731],[-16.11186,64.07597],[-16.11003,64.0771],[-16.1089,64.07841],[-16.09639,64.10602],[-16.09419,64.10891],[-16.08943,64.11284],[-16.06188,64.12918],[-16.05984,64.13011],[-16.05746,64.13072],[-16.0555,64.13098],[-16.0419,64.13162],[-16.03888,64.13142],[-16.03666,64.13105],[-16.03088,64.12947],[-16.02784,64.12935],[-16.02416,64.12978],[-16.01419,64.13185],[-16.00406,64.1325],[-15.99689,64.13338],[-15.99205,64.13424],[-15.98404,64.13603],[-15.97047,64.14083],[-15.96785,64.14194],[-15.96499,64.14355],[-15.95904,64.14784],[-15.95379,64.15105],[-15.94818,64.15386],[-15.94238,64.15633],[-15.8951,64.1738],[-15.8917,64.17467],[-15.88162,64.17642],[-15.87055,64.17825],[-15.86844,64.17843],[-15.85182,64.17886],[-15.84869,64.17866],[-15.84212,64.17776],[-15.83799,64.17783],[-15.83412,64.17859],[-15.82845,64.18092],[-15.82262,64.18249],[-15.81833,64.18396],[-15.81503,64.18461],[-15.81139,64.1849],[-15.8044,64.18464],[-15.79976,64.18407],[-15.78719,64.18174],[-15.7804,64.17998],[-15.77673,64.17939],[-15.77334,64.17917],[-15.76992,64.17923],[-15.7676,64.17947],[-15.76507,64.18003],[-15.75997,64.18232],[-15.75408,64.18433],[-15.75114,64.1861],[-15.7447,64.19201],[-15.74457,64.19314],[-15.74593,64.19621],[-15.74553,64.19702],[-15.74462,64.19772],[-15.73821,64.20087],[-15.72865,64.20665],[-15.72042,64.20978],[-15.7147,64.21395],[-15.70568,64.21764],[-15.6845,64.22833],[-15.68359,64.22911],[-15.68287,64.23033],[-15.68307,64.23395],[-15.68276,64.23618],[-15.67944,64.23966],[-15.6782,64.24349],[-15.67701,64.24465],[-15.67268,64.24685],[-15.67117,64.24736],[-15.66943,64.24767],[-15.64697,64.25002],[-15.62484,64.25271],[-15.52341,64.2637],[-15.51772,64.26453],[-15.51224,64.26556],[-15.50692,64.26679],[-15.50119,64.26844],[-15.47729,64.27857],[-15.47102,64.28072],[-15.47157,64.28127],[-15.47136,64.28194],[-15.46853,64.28286],[-15.46148,64.28712],[-15.45952,64.28802],[-15.44816,64.2916],[-15.41458,64.30089],[-15.41159,64.30244],[-15.40602,64.3079],[-15.40549,64.30877],[-15.40543,64.30967],[-15.40676,64.31134],[-15.41262,64.31496],[-15.41371,64.31601],[-15.41399,64.31707],[-15.41295,64.31881],[-15.4129,64.31985],[-15.41739,64.32675],[-15.41737,64.32793],[-15.41395,64.33099],[-15.40928,64.33336],[-15.40146,64.3392],[-15.3952,64.34649],[-15.39304,64.34822],[-15.38958,64.34937],[-15.29909,64.37248],[-15.2911,64.37406],[-15.28697,64.3744],[-15.28276,64.37417],[-15.27981,64.37358],[-15.27681,64.37241],[-15.27508,64.37111],[-15.26521,64.36183],[-15.24842,64.34863],[-15.24669,64.34407],[-15.24668,64.34033],[-15.2447,64.33681],[-15.2447,64.33381],[-15.24431,64.33269],[-15.24215,64.33092],[-15.23865,64.32953],[-15.23748,64.32887],[-15.23656,64.32807],[-15.23596,64.32705],[-15.23616,64.32542],[-15.23921,64.3213],[-15.2391,64.3198],[-15.23775,64.31807],[-15.22804,64.31225],[-15.21997,64.30817],[-15.21633,64.30674],[-15.20993,64.30484],[-15.20701,64.30361],[-15.18426,64.29184],[-15.18288,64.29071],[-15.18252,64.28983],[-15.18263,64.28903],[-15.18356,64.28749],[-15.18463,64.28644],[-15.18799,64.28405],[-15.18964,64.28245],[-15.19342,64.28019],[-15.19438,64.27983],[-15.19747,64.27935],[-15.19808,64.2791],[-15.19839,64.2785],[-15.19886,64.2783],[-15.19834,64.27812],[-15.19839,64.27762],[-15.20203,64.27465],[-15.20244,64.27036],[-15.20168,64.26718],[-15.20195,64.26359],[-15.20555,64.2578],[-15.2073,64.25611],[-15.2108,64.25382],[-15.21099,64.25255],[-15.21011,64.25266],[-15.20933,64.25306],[-15.20874,64.25301]],"type":"LineString"}},{"type":"Feature","properties":{"name":"Hofn, Iceland → Egilsstadir, Iceland"},"geometry":{"coordinates":[[-15.20874,64.25301],[-15.20933,64.25306],[-15.21011,64.25266],[-15.21099,64.25255],[-15.21073,64.2539],[-15.2073,64.25611],[-15.20522,64.25816],[-15.20195,64.26359],[-15.20168,64.26718],[-15.20244,64.27036],[-15.20203,64.27465],[-15.19839,64.27762],[-15.19834,64.27812],[-15.19796,64.27832],[-15.19843,64.27866],[-15.19808,64.2791],[-15.19747,64.27935],[-15.19503,64.27968],[-15.19368,64.28006],[-15.18929,64.28271],[-15.18831,64.2838],[-15.18512,64.28605],[-15.18356,64.28749],[-15.18263,64.28903],[-15.18256,64.29004],[-15.15714,64.28914],[-15.15028,64.28819],[-15.14761,64.2881],[-15.14472,64.28839],[-15.13394,64.28998],[-15.1226,64.29134],[-15.11698,64.29179],[-15.11121,64.29173],[-15.1034,64.29113],[-15.09638,64.29003],[-15.09376,64.29003],[-15.0899,64.29032],[-15.08772,64.29024],[-15.06991,64.2882],[-15.06596,64.28746],[-15.05651,64.28476],[-15.04847,64.28322],[-15.04291,64.28266],[-15.04049,64.28267],[-15.0374,64.28295],[-15.03422,64.28358],[-15.03218,64.28421],[-15.02982,64.28561],[-15.02831,64.28772],[-15.02807,64.29171],[-15.02757,64.29315],[-15.02551,64.29508],[-15.02253,64.29661],[-15.01918,64.29778],[-15.01146,64.29996],[-14.99947,64.30391],[-14.97315,64.31402],[-14.96993,64.31485],[-14.95482,64.31799],[-14.94345,64.32194],[-14.94219,64.32274],[-14.93601,64.32803],[-14.93386,64.33051],[-14.93283,64.33258],[-14.9318,64.33672],[-14.92932,64.33983],[-14.92756,64.34443],[-14.92649,64.34624],[-14.92416,64.34906],[-14.92349,64.35087],[-14.92385,64.35943],[-14.92533,64.36337],[-14.92497,64.36456],[-14.92307,64.36785],[-14.9239,64.37518],[-14.92433,64.37602],[-14.9252,64.37681],[-14.93241,64.38035],[-14.93335,64.38174],[-14.93327,64.38346],[-14.92486,64.39152],[-14.91784,64.40048],[-14.91681,64.40132],[-14.89466,64.41733],[-14.89256,64.41828],[-14.88097,64.42212],[-14.87947,64.42214],[-14.87069,64.42054],[-14.8614,64.4171],[-14.85832,64.41666],[-14.85249,64.4162],[-14.85041,64.41658],[-14.84286,64.41969],[-14.82929,64.4224],[-14.82134,64.42332],[-14.80413,64.42445],[-14.79108,64.42668],[-14.78899,64.42688],[-14.78685,64.42642],[-14.78508,64.42311],[-14.78258,64.42111],[-14.77935,64.41977],[-14.77573,64.41892],[-14.77252,64.41852],[-14.75746,64.41767],[-14.75474,64.41765],[-14.74554,64.41813],[-14.7328,64.41781],[-14.72889,64.41839],[-14.71984,64.42118],[-14.71741,64.4225],[-14.71566,64.42468],[-14.71467,64.4254],[-14.71147,64.42679],[-14.70714,64.42816],[-14.69698,64.4304],[-14.67783,64.43336],[-14.67318,64.43461],[-14.66721,64.43669],[-14.66551,64.43705],[-14.66311,64.43731],[-14.66029,64.43731],[-14.65635,64.43683],[-14.65059,64.43553],[-14.64626,64.43402],[-14.63772,64.43054],[-14.6354,64.42986],[-14.62845,64.4285],[-14.62258,64.4281],[-14.61986,64.42755],[-14.61783,64.42668],[-14.6149,64.42441],[-14.61124,64.42282],[-14.60784,64.42196],[-14.59957,64.42074],[-14.59669,64.42008],[-14.58996,64.41749],[-14.58454,64.41635],[-14.58198,64.41515],[-14.57702,64.41342],[-14.57406,64.41266],[-14.57134,64.41147],[-14.56958,64.41094],[-14.56605,64.41034],[-14.55987,64.41043],[-14.55688,64.41002],[-14.55422,64.40918],[-14.54967,64.40661],[-14.546,64.40558],[-14.54368,64.40535],[-14.5424,64.40542],[-14.54034,64.40592],[-14.53901,64.40678],[-14.53675,64.41128],[-14.53691,64.41404],[-14.53846,64.41831],[-14.53735,64.42238],[-14.5365,64.42346],[-14.534,64.42501],[-14.5321,64.42692],[-14.53039,64.42815],[-14.5207,64.43334],[-14.51864,64.43408],[-14.51434,64.43475],[-14.51168,64.43544],[-14.50446,64.4382],[-14.50293,64.43936],[-14.5027,64.44017],[-14.50325,64.4412],[-14.50786,64.44538],[-14.51032,64.44672],[-14.51083,64.44804],[-14.51073,64.4488],[-14.51198,64.45015],[-14.51164,64.45192],[-14.50988,64.45424],[-14.51007,64.45541],[-14.50954,64.45704],[-14.51026,64.46034],[-14.50997,64.46193],[-14.5082,64.46371],[-14.50144,64.46773],[-14.5003,64.46975],[-14.49798,64.47157],[-14.49631,64.47421],[-14.49599,64.47854],[-14.49654,64.48095],[-14.49607,64.48206],[-14.49517,64.483],[-14.49333,64.48412],[-14.48768,64.48653],[-14.48239,64.49111],[-14.47742,64.49393],[-14.47562,64.49563],[-14.47534,64.49665],[-14.47556,64.4975],[-14.47715,64.49917],[-14.47866,64.49997],[-14.48042,64.50063],[-14.48527,64.50178],[-14.4887,64.50308],[-14.49306,64.50639],[-14.49795,64.50907],[-14.49954,64.50979],[-14.5055,64.51154],[-14.50692,64.51212],[-14.50892,64.51344],[-14.51136,64.51616],[-14.51293,64.51727],[-14.52972,64.52521],[-14.53193,64.52601],[-14.54044,64.52775],[-14.54736,64.53029],[-14.55179,64.53151],[-14.55558,64.53211],[-14.5726,64.53399],[-14.57489,64.53452],[-14.57811,64.53588],[-14.58491,64.54198],[-14.58848,64.54374],[-14.59318,64.54505],[-14.60612,64.54679],[-14.60815,64.54725],[-14.6097,64.54785],[-14.61109,64.54893],[-14.61264,64.55154],[-14.61293,64.55244],[-14.61265,64.55323],[-14.5977,64.56428],[-14.59472,64.5657],[-14.59016,64.56722],[-14.58884,64.56783],[-14.58796,64.56864],[-14.58754,64.56964],[-14.58733,64.57849],[-14.58623,64.58068],[-14.58395,64.58297],[-14.57995,64.58521],[-14.57019,64.59001],[-14.56654,64.59143],[-14.56201,64.59281],[-14.55775,64.59365],[-14.55627,64.59371],[-14.55403,64.59353],[-14.54096,64.59111],[-14.53666,64.5894],[-14.53421,64.58931],[-14.5275,64.59082],[-14.51859,64.59178],[-14.51105,64.5941],[-14.5085,64.59449],[-14.49819,64.59504],[-14.48729,64.59624],[-14.47712,64.59631],[-14.47305,64.59655],[-14.4697,64.59689],[-14.45911,64.59865],[-14.45563,64.59903],[-14.44278,64.59936],[-14.43537,64.59855],[-14.43281,64.59849],[-14.43016,64.59871],[-14.42515,64.59967],[-14.41975,64.60003],[-14.4177,64.60046],[-14.41589,64.60124],[-14.41037,64.60582],[-14.40943,64.60751],[-14.41039,64.61069],[-14.40933,64.61316],[-14.40941,64.61449],[-14.4109,64.61603],[-14.41652,64.62053],[-14.42276,64.62236],[-14.42781,64.62528],[-14.43237,64.62858],[-14.43425,64.62927],[-14.43695,64.62968],[-14.44221,64.62954],[-14.44459,64.62973],[-14.45514,64.63119],[-14.45767,64.63172],[-14.463,64.63328],[-14.46825,64.63384],[-14.47083,64.63443],[-14.47243,64.635],[-14.47491,64.63663],[-14.47877,64.6383],[-14.48157,64.63984],[-14.49322,64.6421],[-14.49932,64.64302],[-14.50146,64.64355],[-14.50284,64.6442],[-14.50397,64.64511],[-14.50704,64.64926],[-14.50684,64.65031],[-14.506,64.6513],[-14.50232,64.65342],[-14.49742,64.65479],[-14.49508,64.65502],[-14.49001,64.65496],[-14.48113,64.65784],[-14.47916,64.65815],[-14.47645,64.65814],[-14.46171,64.65715],[-14.45517,64.6561],[-14.45301,64.65598],[-14.45061,64.65625],[-14.44499,64.65758],[-14.44103,64.65807],[-14.43047,64.65843],[-14.42026,64.65947],[-14.41775,64.65945],[-14.41237,64.65901],[-14.40516,64.65966],[-14.39926,64.65922],[-14.39418,64.65957],[-14.39244,64.65954],[-14.36413,64.65788],[-14.36005,64.6573],[-14.34623,64.65452],[-14.34387,64.65426],[-14.34178,64.65429],[-14.33635,64.65464],[-14.3233,64.65667],[-14.31612,64.65689],[-14.31398,64.65709],[-14.30809,64.6583],[-14.30619,64.65948],[-14.30614,64.6608],[-14.30734,64.66178],[-14.31955,64.66733],[-14.32604,64.6691],[-14.33173,64.6712],[-14.33349,64.67207],[-14.33451,64.67225],[-14.3388,64.67239],[-14.34254,64.67377],[-14.34478,64.67513],[-14.34766,64.67621],[-14.36456,64.68672],[-14.36991,64.69109],[-14.37201,64.69181],[-14.37701,64.69263],[-14.37962,64.69367],[-14.38934,64.70162],[-14.3945,64.70455],[-14.39559,64.70559],[-14.39783,64.70998],[-14.40146,64.7142],[-14.40056,64.72052],[-14.4011,64.72186],[-14.40339,64.72504],[-14.40575,64.72663],[-14.41413,64.73025],[-14.41587,64.7321],[-14.4198,64.73545],[-14.42362,64.73722],[-14.42753,64.73991],[-14.43684,64.74405],[-14.44074,64.74507],[-14.44376,64.74633],[-14.44825,64.74752],[-14.44956,64.74875],[-14.45111,64.74935],[-14.45302,64.74975],[-14.45519,64.74997],[-14.46043,64.74984],[-14.46443,64.75039],[-14.46596,64.75076],[-14.46874,64.75213],[-14.47406,64.75532],[-14.47654,64.75741],[-14.47827,64.75947],[-14.47918,64.76124],[-14.47902,64.76269],[-14.47784,64.76414],[-14.47593,64.76542],[-14.46959,64.76786],[-14.46756,64.76885],[-14.46645,64.76984],[-14.46607,64.7709],[-14.4665,64.77203],[-14.4702,64.77659],[-14.47241,64.77845],[-14.47506,64.77997],[-14.4857,64.78389],[-14.49281,64.7856],[-14.50137,64.78652],[-14.50364,64.78693],[-14.51233,64.79013],[-14.52469,64.7932],[-14.5253,64.79358],[-14.52541,64.79407],[-14.52345,64.79578],[-14.52351,64.79668],[-14.52538,64.79979],[-14.52851,64.80233],[-14.52989,64.80299],[-14.53121,64.80312],[-14.5326,64.80306],[-14.54109,64.80177],[-14.54724,64.80297],[-14.55346,64.80453],[-14.55466,64.80504],[-14.55609,64.80529],[-14.55838,64.80609],[-14.55949,64.80671],[-14.56081,64.80711],[-14.56268,64.8068],[-14.56423,64.80681],[-14.56508,64.80694],[-14.56844,64.80808],[-14.5706,64.8084],[-14.57203,64.80828],[-14.57521,64.80751],[-14.57612,64.80752],[-14.57751,64.80791],[-14.57867,64.80878],[-14.58016,64.80938],[-14.58468,64.80929],[-14.58702,64.80965],[-14.58835,64.81018],[-14.58952,64.81121],[-14.59045,64.81145],[-14.59293,64.8113],[-14.59614,64.81072],[-14.59838,64.81078],[-14.60142,64.81056],[-14.60209,64.81068],[-14.60244,64.811],[-14.60182,64.81198],[-14.60346,64.81283],[-14.60438,64.81281],[-14.60583,64.81232],[-14.61108,64.81181],[-14.62046,64.81268],[-14.62128,64.8131],[-14.62115,64.81383],[-14.62203,64.81407],[-14.62269,64.81394],[-14.62374,64.81316],[-14.63086,64.81248],[-14.63722,64.81385],[-14.63904,64.8153],[-14.63996,64.81572],[-14.64639,64.81658],[-14.64904,64.81786],[-14.65065,64.81894],[-14.6505,64.81982],[-14.64834,64.82142],[-14.64852,64.82241],[-14.65036,64.82308],[-14.65315,64.82293],[-14.65397,64.82315],[-14.65452,64.82387],[-14.65874,64.82709],[-14.65913,64.8279],[-14.65907,64.82937],[-14.65991,64.83032],[-14.6609,64.83103],[-14.66344,64.83186],[-14.666,64.83314],[-14.66753,64.83508],[-14.6672,64.83661],[-14.66807,64.83834],[-14.67053,64.84003],[-14.67033,64.84134],[-14.67068,64.84266],[-14.67366,64.84547],[-14.67403,64.84625],[-14.67356,64.84767],[-14.67431,64.84868],[-14.67426,64.84937],[-14.67353,64.85165],[-14.67204,64.85287],[-14.67245,64.85431],[-14.67149,64.85515],[-14.671,64.85608],[-14.67188,64.85881],[-14.67415,64.86195],[-14.67445,64.86302],[-14.67132,64.86784],[-14.67032,64.8704],[-14.66579,64.87389],[-14.66595,64.87437],[-14.66702,64.87508],[-14.66722,64.87548],[-14.66564,64.87637],[-14.66483,64.87781],[-14.66226,64.87858],[-14.66106,64.87929],[-14.66091,64.88134],[-14.65961,64.8836],[-14.65855,64.88471],[-14.65627,64.88537],[-14.65466,64.88699],[-14.65309,64.88793],[-14.65199,64.88936],[-14.65167,64.89058],[-14.64552,64.89284],[-14.64312,64.89406],[-14.64291,64.89456],[-14.64387,64.89588],[-14.64382,64.89714],[-14.64422,64.8983],[-14.64301,64.89965],[-14.64226,64.90017],[-14.64074,64.90063],[-14.63666,64.90057],[-14.63578,64.90152],[-14.64065,64.90563],[-14.64517,64.91139],[-14.64711,64.915],[-14.6471,64.91794],[-14.64542,64.9223],[-14.64478,64.92593],[-14.64289,64.92902],[-14.64305,64.93156],[-14.64244,64.93392],[-14.64128,64.93595],[-14.63982,64.93709],[-14.63789,64.93987],[-14.63779,64.94092],[-14.63864,64.94499],[-14.6376,64.94741],[-14.63563,64.95067],[-14.63478,64.95364],[-14.63365,64.95524],[-14.63288,64.95794],[-14.63195,64.95922],[-14.63177,64.96155],[-14.62703,64.96635],[-14.62658,64.96781],[-14.62658,64.97003],[-14.62591,64.97137],[-14.62264,64.97487],[-14.62195,64.9772],[-14.61865,64.97936],[-14.61774,64.98036],[-14.61765,64.98193],[-14.61841,64.98441],[-14.61804,64.98589],[-14.60626,64.99864],[-14.60588,65.00008],[-14.60628,65.01068],[-14.60544,65.01491],[-14.60425,65.01616],[-14.59632,65.02192],[-14.59548,65.02308],[-14.59573,65.02559],[-14.5999,65.0334],[-14.60397,65.03845],[-14.60473,65.04014],[-14.60484,65.04185],[-14.60444,65.04317],[-14.60285,65.04527],[-14.59724,65.04935],[-14.59536,65.05103],[-14.59403,65.05311],[-14.5922,65.05748],[-14.59095,65.05886],[-14.58675,65.06229],[-14.58505,65.06495],[-14.58487,65.06705],[-14.58531,65.07069],[-14.5841,65.0733],[-14.58085,65.07725],[-14.58003,65.0787],[-14.57948,65.08075],[-14.57949,65.08257],[-14.58102,65.08983],[-14.58294,65.09386],[-14.58321,65.09515],[-14.58197,65.1005],[-14.58197,65.10352],[-14.5816,65.10461],[-14.58037,65.10582],[-14.57286,65.11105],[-14.56702,65.11627],[-14.56553,65.11724],[-14.55157,65.12186],[-14.54955,65.12291],[-14.547,65.12506],[-14.54453,65.12623],[-14.5385,65.1277],[-14.52775,65.13169],[-14.52245,65.133],[-14.52036,65.13393],[-14.51953,65.13453],[-14.51876,65.13544],[-14.51852,65.13638],[-14.51985,65.13916],[-14.51989,65.14315],[-14.51648,65.14937],[-14.51602,65.15118],[-14.51742,65.1574],[-14.51736,65.16026],[-14.51617,65.16283],[-14.516,65.17506],[-14.51647,65.17578],[-14.51125,65.17957],[-14.5075,65.18179],[-14.50497,65.1838],[-14.49843,65.18815],[-14.49753,65.18949],[-14.49717,65.19217],[-14.49473,65.19462],[-14.49349,65.19695],[-14.48953,65.20207],[-14.4879,65.20538],[-14.48617,65.20752],[-14.48281,65.21017],[-14.47655,65.21412],[-14.4748,65.21595],[-14.47127,65.21892],[-14.46818,65.2235],[-14.45457,65.23534],[-14.43755,65.24773],[-14.43566,65.24885],[-14.42892,65.25148],[-14.42293,65.25459],[-14.41699,65.25621],[-14.41509,65.2569],[-14.40771,65.26121],[-14.40625,65.26101],[-14.40536,65.26158],[-14.40411,65.26148],[-14.40352,65.26204]],"type":"LineString"}},{"type":"Feature","properties":{"name":"Egilsstadir, Iceland → Akureyri, Iceland"},"geometry":{"coordinates":[[-14.40352,65.26204],[-14.40411,65.26148],[-14.40536,65.26158],[-14.40625,65.26101],[-14.40765,65.26126],[-14.40518,65.26591],[-14.40535,65.26743],[-14.40619,65.26862],[-14.41071,65.27226],[-14.41364,65.27553],[-14.41548,65.27709],[-14.42725,65.28299],[-14.43685,65.29228],[-14.44424,65.2969],[-14.44687,65.29829],[-14.45064,65.29928],[-14.45707,65.29994],[-14.45891,65.30052],[-14.46045,65.30146],[-14.46105,65.30235],[-14.46217,65.30602],[-14.46624,65.30953],[-14.46689,65.3123],[-14.46939,65.31604],[-14.473,65.31936],[-14.48507,65.33241],[-14.48733,65.33427],[-14.49176,65.33726],[-14.4981,65.34794],[-14.50218,65.35159],[-14.50453,65.35482],[-14.50662,65.35632],[-14.51004,65.3578],[-14.51885,65.3597],[-14.52143,65.36051],[-14.52419,65.36181],[-14.52655,65.36366],[-14.52761,65.36608],[-14.52859,65.37253],[-14.53071,65.37816],[-14.53085,65.3815],[-14.53145,65.38376],[-14.53301,65.3857],[-14.53715,65.38913],[-14.53805,65.39041],[-14.53853,65.39283],[-14.53761,65.39694],[-14.53775,65.39907],[-14.53973,65.40291],[-14.54286,65.40634],[-14.5474,65.40969],[-14.5512,65.41121],[-14.56625,65.41429],[-14.57187,65.41509],[-14.57999,65.41574],[-14.58442,65.41694],[-14.58567,65.41762],[-14.58703,65.41887],[-14.58794,65.42049],[-14.58875,65.42475],[-14.5885,65.42835],[-14.5889,65.42916],[-14.58986,65.43001],[-14.59129,65.43069],[-14.59309,65.43121],[-14.59594,65.43156],[-14.5996,65.43138],[-14.60727,65.43012],[-14.61099,65.42909],[-14.61295,65.42805],[-14.61421,65.42703],[-14.61489,65.42599],[-14.6151,65.42341],[-14.61629,65.42128],[-14.62211,65.41554],[-14.62688,65.41271],[-14.63128,65.41114],[-14.63614,65.41029],[-14.64255,65.40843],[-14.64806,65.4052],[-14.6564,65.40208],[-14.66289,65.39882],[-14.6957,65.38873],[-14.69818,65.3877],[-14.70485,65.38435],[-14.70772,65.3834],[-14.71205,65.38246],[-14.71777,65.38179],[-14.72671,65.38175],[-14.73333,65.38093],[-14.7539,65.37887],[-14.76157,65.37758],[-14.76732,65.37686],[-14.77259,65.37571],[-14.77833,65.37474],[-14.78438,65.37406],[-14.79328,65.37271],[-14.79858,65.37221],[-14.80481,65.37117],[-14.81192,65.37046],[-14.8164,65.3695],[-14.82682,65.36798],[-14.83849,65.36571],[-14.85258,65.3642],[-14.86662,65.36232],[-14.89219,65.3599],[-14.91634,65.35578],[-14.91955,65.35553],[-14.93494,65.35521],[-14.94587,65.35311],[-14.96317,65.35218],[-14.96775,65.3516],[-14.97565,65.3512],[-14.98516,65.34988],[-14.99188,65.34817],[-15.05812,65.33432],[-15.07045,65.3316],[-15.07659,65.33045],[-15.08018,65.32926],[-15.08964,65.32419],[-15.10363,65.31983],[-15.11577,65.31661],[-15.119,65.31604],[-15.12991,65.31493],[-15.13599,65.31392],[-15.13972,65.31325],[-15.14756,65.3111],[-15.15848,65.30916],[-15.17223,65.30611],[-15.18164,65.30529],[-15.18829,65.30389],[-15.19136,65.30346],[-15.20083,65.3026],[-15.21181,65.30203],[-15.2223,65.30207],[-15.23459,65.30188],[-15.24199,65.30119],[-15.24526,65.30065],[-15.2516,65.29905],[-15.25501,65.29858],[-15.26075,65.29833],[-15.27314,65.29902],[-15.29192,65.3007],[-15.2966,65.30151],[-15.30239,65.30311],[-15.306,65.30385],[-15.31812,65.30548],[-15.32114,65.30616],[-15.32461,65.30733],[-15.32726,65.30866],[-15.33111,65.31143],[-15.33376,65.31299],[-15.33651,65.31416],[-15.34391,65.31665],[-15.34807,65.31848],[-15.3517,65.32084],[-15.35693,65.3255],[-15.36048,65.32775],[-15.36698,65.33086],[-15.38656,65.33911],[-15.3899,65.34084],[-15.39234,65.34249],[-15.39448,65.34454],[-15.39573,65.34636],[-15.39645,65.34838],[-15.3971,65.35387],[-15.39838,65.35634],[-15.40019,65.35845],[-15.40247,65.36033],[-15.40512,65.36201],[-15.41418,65.36611],[-15.41749,65.36788],[-15.42032,65.36996],[-15.42253,65.37252],[-15.42502,65.37874],[-15.42891,65.38542],[-15.43087,65.38998],[-15.43286,65.39945],[-15.43343,65.41036],[-15.4349,65.41432],[-15.43698,65.4171],[-15.43902,65.4189],[-15.44149,65.42055],[-15.44474,65.42223],[-15.44754,65.42338],[-15.45322,65.42516],[-15.46637,65.42816],[-15.47192,65.42976],[-15.4785,65.43242],[-15.48256,65.43469],[-15.48666,65.43801],[-15.4891,65.44128],[-15.49005,65.44388],[-15.49064,65.44913],[-15.4921,65.45163],[-15.49425,65.45367],[-15.49678,65.45533],[-15.49951,65.45669],[-15.50362,65.45817],[-15.50703,65.45909],[-15.51075,65.45973],[-15.51492,65.46005],[-15.51779,65.46008],[-15.52247,65.45978],[-15.52657,65.45913],[-15.53027,65.45816],[-15.53608,65.4561],[-15.53949,65.45539],[-15.54316,65.45504],[-15.54573,65.45502],[-15.54858,65.45521],[-15.55375,65.45598],[-15.55803,65.45636],[-15.56127,65.45637],[-15.57036,65.45583],[-15.57416,65.45592],[-15.5764,65.4561],[-15.58354,65.45712],[-15.5883,65.45743],[-15.59343,65.45713],[-15.60556,65.45522],[-15.61023,65.45492],[-15.61385,65.45491],[-15.61924,65.45531],[-15.62268,65.45583],[-15.63673,65.45927],[-15.64234,65.46038],[-15.64819,65.46106],[-15.66577,65.46246],[-15.68286,65.46485],[-15.68578,65.46512],[-15.69171,65.46534],[-15.69711,65.46514],[-15.70009,65.4649],[-15.71057,65.46354],[-15.71417,65.46335],[-15.74095,65.46447],[-15.74963,65.46419],[-15.75492,65.46424],[-15.75797,65.46399],[-15.76082,65.46344],[-15.76802,65.46067],[-15.77032,65.4601],[-15.77368,65.45957],[-15.77794,65.45933],[-15.79088,65.45968],[-15.79397,65.4595],[-15.79698,65.4591],[-15.80132,65.45808],[-15.8077,65.45557],[-15.81041,65.45486],[-15.81475,65.45422],[-15.82662,65.45382],[-15.83346,65.45299],[-15.83775,65.45204],[-15.84759,65.44902],[-15.85048,65.44842],[-15.85862,65.44723],[-15.86764,65.4447],[-15.87128,65.44397],[-15.87652,65.44341],[-15.88778,65.44334],[-15.89142,65.44314],[-15.89538,65.44243],[-15.90125,65.44063],[-15.90381,65.44004],[-15.90891,65.43928],[-15.91503,65.43898],[-15.92024,65.4392],[-15.92695,65.44016],[-15.9327,65.44166],[-15.93499,65.44203],[-15.93792,65.44225],[-15.94424,65.44221],[-15.94876,65.44277],[-15.95227,65.44382],[-15.95445,65.445],[-15.95555,65.44603],[-15.95624,65.4479],[-15.95602,65.4488],[-15.95266,65.45361],[-15.95226,65.45477],[-15.9507,65.46519],[-15.94853,65.46947],[-15.94844,65.47068],[-15.94921,65.47274],[-15.95101,65.47464],[-15.96547,65.48642],[-15.97448,65.50086],[-15.98214,65.5108],[-15.98278,65.51279],[-15.98275,65.51586],[-15.98314,65.51745],[-15.98457,65.51963],[-15.98781,65.52283],[-15.98855,65.52441],[-15.9885,65.5264],[-15.98715,65.52942],[-15.98699,65.53135],[-15.98973,65.53815],[-15.99033,65.54358],[-15.99126,65.54576],[-15.99722,65.5518],[-16.00852,65.55798],[-16.01417,65.56003],[-16.02424,65.5623],[-16.02854,65.5636],[-16.03341,65.56582],[-16.03866,65.56868],[-16.04449,65.57103],[-16.05049,65.57271],[-16.06262,65.57551],[-16.0676,65.57701],[-16.07256,65.57888],[-16.07665,65.58072],[-16.08665,65.58585],[-16.09145,65.58753],[-16.09373,65.58823],[-16.10026,65.58967],[-16.11317,65.59171],[-16.11618,65.59233],[-16.12178,65.59374],[-16.12952,65.59646],[-16.13493,65.59912],[-16.14227,65.60371],[-16.15217,65.60864],[-16.1569,65.61141],[-16.16161,65.61537],[-16.16403,65.6183],[-16.16587,65.62127],[-16.16746,65.62298],[-16.16976,65.62433],[-16.17301,65.62543],[-16.17653,65.62609],[-16.1799,65.62636],[-16.18285,65.62632],[-16.18563,65.62593],[-16.18738,65.62539],[-16.18872,65.62467],[-16.19281,65.62062],[-16.19466,65.61979],[-16.19755,65.61917],[-16.19936,65.61902],[-16.20537,65.61916],[-16.20842,65.61906],[-16.21402,65.61841],[-16.21881,65.61819],[-16.22537,65.61863],[-16.23007,65.61951],[-16.23292,65.62035],[-16.27878,65.63518],[-16.28466,65.63657],[-16.28899,65.63712],[-16.29547,65.63762],[-16.3023,65.63836],[-16.40069,65.65244],[-16.41417,65.65373],[-16.42227,65.65421],[-16.45049,65.65478],[-16.45852,65.65545],[-16.47543,65.65763],[-16.48189,65.65806],[-16.48917,65.65818],[-16.5023,65.65794],[-16.51095,65.65818],[-16.51925,65.6589],[-16.52885,65.66007],[-16.53539,65.66048],[-16.5413,65.66051],[-16.55397,65.66001],[-16.56572,65.66042],[-16.5697,65.66014],[-16.57344,65.65953],[-16.57625,65.6588],[-16.58078,65.65721],[-16.5854,65.65605],[-16.58779,65.65569],[-16.59894,65.65479],[-16.60515,65.6537],[-16.6098,65.6524],[-16.6176,65.64971],[-16.62093,65.64882],[-16.62718,65.64758],[-16.63379,65.64678],[-16.64644,65.6461],[-16.66499,65.64437],[-16.67155,65.64415],[-16.70281,65.64475],[-16.707,65.64527],[-16.72167,65.64837],[-16.72408,65.64873],[-16.7291,65.64907],[-16.74566,65.64953],[-16.76132,65.64893],[-16.78447,65.64619],[-16.79142,65.64589],[-16.81024,65.64365],[-16.81152,65.64374],[-16.81285,65.64412],[-16.81422,65.64552],[-16.81536,65.64596],[-16.81979,65.64636],[-16.82402,65.64727],[-16.82633,65.64729],[-16.82809,65.64689],[-16.82918,65.64632],[-16.83158,65.64314],[-16.83518,65.64225],[-16.83806,65.64026],[-16.84129,65.63947],[-16.8441,65.63925],[-16.84958,65.6395],[-16.8666,65.63962],[-16.88986,65.63895],[-16.9107,65.63993],[-16.91305,65.64351],[-16.91378,65.6441],[-16.91499,65.64449],[-16.91871,65.64509],[-16.92015,65.64549],[-16.93758,65.65407],[-16.94087,65.65492],[-16.9611,65.6577],[-16.96973,65.65965],[-16.97504,65.66064],[-16.97626,65.65813],[-16.97831,65.65635],[-16.98139,65.65517],[-16.98828,65.65382],[-16.99073,65.65297],[-16.99194,65.65227],[-16.99468,65.64974],[-16.99841,65.64733],[-17.00002,65.64509],[-17.00045,65.63883],[-17.00129,65.63729],[-17.00301,65.63614],[-17.01012,65.63353],[-17.01225,65.6314],[-17.01391,65.63038],[-17.01666,65.62953],[-17.02009,65.62783],[-17.0249,65.62592],[-17.02595,65.62464],[-17.02645,65.62087],[-17.02624,65.6195],[-17.02716,65.61852],[-17.02784,65.61825],[-17.02951,65.61796],[-17.03665,65.61734],[-17.04679,65.61733],[-17.04975,65.61695],[-17.05948,65.61511],[-17.06529,65.61464],[-17.07059,65.61381],[-17.07544,65.61344],[-17.07994,65.61287],[-17.08389,65.61268],[-17.08557,65.61239],[-17.08713,65.61157],[-17.08872,65.60928],[-17.09013,65.60806],[-17.09791,65.60377],[-17.09986,65.6031],[-17.10466,65.60208],[-17.109,65.60073],[-17.11613,65.5997],[-17.11934,65.5985],[-17.12109,65.59703],[-17.12176,65.59451],[-17.1227,65.59323],[-17.12485,65.59185],[-17.12943,65.59017],[-17.13128,65.58924],[-17.13324,65.58749],[-17.13423,65.58538],[-17.13774,65.58558],[-17.14316,65.58639],[-17.14855,65.58652],[-17.15062,65.58675],[-17.15329,65.5875],[-17.15678,65.58941],[-17.16726,65.59274],[-17.17472,65.59368],[-17.18112,65.59505],[-17.18999,65.59577],[-17.19354,65.59656],[-17.19542,65.59732],[-17.19685,65.59819],[-17.20019,65.60229],[-17.20396,65.60476],[-17.20715,65.60772],[-17.21274,65.61105],[-17.21502,65.61273],[-17.21811,65.61757],[-17.22094,65.6195],[-17.22439,65.62073],[-17.22765,65.62142],[-17.23249,65.62186],[-17.23843,65.6217],[-17.24113,65.6218],[-17.24351,65.62222],[-17.24569,65.62315],[-17.2473,65.62486],[-17.25216,65.63272],[-17.2605,65.64016],[-17.26255,65.64454],[-17.26349,65.64566],[-17.26523,65.64697],[-17.2715,65.64988],[-17.28328,65.65726],[-17.2862,65.65874],[-17.28901,65.65975],[-17.29184,65.66047],[-17.30258,65.6623],[-17.31515,65.6664],[-17.34047,65.67752],[-17.34358,65.6792],[-17.34588,65.68155],[-17.34884,65.68859],[-17.34952,65.69074],[-17.34952,65.69363],[-17.35041,65.69593],[-17.3518,65.6974],[-17.3557,65.69996],[-17.35793,65.70181],[-17.36725,65.71582],[-17.37506,65.72471],[-17.37647,65.7258],[-17.37931,65.72716],[-17.40279,65.7354],[-17.40774,65.73829],[-17.40878,65.73788],[-17.41155,65.73615],[-17.41353,65.7334],[-17.4144,65.73275],[-17.41684,65.73183],[-17.41995,65.73144],[-17.42264,65.73153],[-17.42511,65.73202],[-17.42922,65.73406],[-17.43092,65.7346],[-17.43395,65.73494],[-17.43522,65.73494],[-17.43737,65.73467],[-17.44007,65.73376],[-17.44147,65.73245],[-17.44283,65.73029],[-17.44375,65.72947],[-17.44693,65.72788],[-17.4497,65.72712],[-17.45919,65.72547],[-17.46146,65.72492],[-17.46498,65.72372],[-17.46818,65.72197],[-17.47002,65.7203],[-17.47091,65.71884],[-17.47306,65.71322],[-17.47456,65.7113],[-17.47765,65.70866],[-17.48027,65.707],[-17.48504,65.7048],[-17.49442,65.70171],[-17.50005,65.69928],[-17.50357,65.69719],[-17.50529,65.69585],[-17.51109,65.69025],[-17.51318,65.68896],[-17.51555,65.68799],[-17.51876,65.68717],[-17.52248,65.68658],[-17.52417,65.68648],[-17.54359,65.68662],[-17.54608,65.68703],[-17.55141,65.68965],[-17.55578,65.69107],[-17.57469,65.6948],[-17.60034,65.70088],[-17.6055,65.70186],[-17.6237,65.70385],[-17.63958,65.70419],[-17.66792,65.70612],[-17.67248,65.70688],[-17.67955,65.70875],[-17.68267,65.7093],[-17.68682,65.70955],[-17.69129,65.70938],[-17.69367,65.70945],[-17.69584,65.70969],[-17.70081,65.7108],[-17.70358,65.71123],[-17.71286,65.71198],[-17.71558,65.71256],[-17.71999,65.71423],[-17.72424,65.71516],[-17.73087,65.71541],[-17.73447,65.71532],[-17.74513,65.7143],[-17.74665,65.71425],[-17.75048,65.71455],[-17.75262,65.71493],[-17.76743,65.71865],[-17.77235,65.71964],[-17.77518,65.71996],[-17.78722,65.72043],[-17.79076,65.72093],[-17.79429,65.72181],[-17.79967,65.72383],[-17.80547,65.72548],[-17.83143,65.73093],[-17.83355,65.73166],[-17.83889,65.73432],[-17.84109,65.73518],[-17.84487,65.73625],[-17.84945,65.73711],[-17.85748,65.7382],[-17.86662,65.7402],[-17.88648,65.74683],[-17.8892,65.74728],[-17.89243,65.74742],[-17.90782,65.74634],[-17.91035,65.74607],[-17.91347,65.74527],[-17.91549,65.74427],[-17.91672,65.74309],[-17.92023,65.73735],[-17.92069,65.73604],[-17.9202,65.73446],[-17.9178,65.73122],[-17.91763,65.72913],[-17.9184,65.72793],[-17.91973,65.72684],[-17.92349,65.72518],[-17.92724,65.72419],[-17.94445,65.72129],[-17.96299,65.71732],[-17.97183,65.71515],[-17.99179,65.70938],[-18.0093,65.70486],[-18.02007,65.70257],[-18.03517,65.6997],[-18.04477,65.69823],[-18.04815,65.69733],[-18.05099,65.6962],[-18.05315,65.69455],[-18.05404,65.69312],[-18.05399,65.69225],[-18.05278,65.6906],[-18.05301,65.69034],[-18.05219,65.68937],[-18.04941,65.68199],[-18.04659,65.67734],[-18.04478,65.67324],[-18.0456,65.67143],[-18.04693,65.67057],[-18.04932,65.66966],[-18.05408,65.66878],[-18.05878,65.6686],[-18.06162,65.66878],[-18.06905,65.66984],[-18.07414,65.67031],[-18.07811,65.67045],[-18.08249,65.67037],[-18.08803,65.67603],[-18.0882,65.67752],[-18.08724,65.68079],[-18.08849,65.6832],[-18.09105,65.68542],[-18.09248,65.68615],[-18.10163,65.68873],[-18.10423,65.68821],[-18.10535,65.68814],[-18.10724,65.68761],[-18.10893,65.68697],[-18.11062,65.68603],[-18.11179,65.6857],[-18.11357,65.68566],[-18.11451,65.6858],[-18.11557,65.68462],[-18.11423,65.68464],[-18.11403,65.68412],[-18.11295,65.68422]],"type":"LineString"}},{"type":"Feature","properties":{"name":"Akureyri, Iceland → Borgarnes, Iceland"},"geometry":{"coordinates":[[-18.11295,65.68422],[-18.11403,65.68412],[-18.11423,65.68464],[-18.11557,65.68462],[-18.11451,65.6858],[-18.11764,65.68703],[-18.11915,65.68721],[-18.12917,65.68736],[-18.12916,65.69235],[-18.12692,65.6941],[-18.12363,65.6957],[-18.13961,65.69937],[-18.14075,65.69987],[-18.14229,65.70003],[-18.1467,65.70116],[-18.15189,65.70302],[-18.15442,65.70441],[-18.15998,65.70865],[-18.17925,65.72235],[-18.18312,65.72631],[-18.19261,65.73854],[-18.19968,65.74297],[-18.20123,65.74367],[-18.21038,65.74666],[-18.21318,65.74728],[-18.21674,65.74756],[-18.22249,65.74754],[-18.22696,65.74814],[-18.23109,65.74837],[-18.23363,65.74825],[-18.24703,65.74674],[-18.25545,65.74662],[-18.25931,65.74634],[-18.26515,65.74558],[-18.26868,65.74475],[-18.2733,65.74326],[-18.28414,65.74029],[-18.29596,65.73564],[-18.30555,65.73089],[-18.31502,65.72661],[-18.32253,65.7229],[-18.32887,65.72025],[-18.33668,65.71756],[-18.35101,65.71326],[-18.35812,65.71062],[-18.36458,65.70752],[-18.38006,65.69851],[-18.40223,65.68755],[-18.40713,65.68476],[-18.40961,65.68276],[-18.41202,65.67976],[-18.41302,65.67722],[-18.4135,65.67232],[-18.41436,65.6709],[-18.41566,65.66968],[-18.42937,65.6607],[-18.43286,65.6591],[-18.43863,65.65712],[-18.44138,65.65581],[-18.44378,65.65403],[-18.44639,65.65149],[-18.45202,65.64787],[-18.45711,65.64371],[-18.46347,65.64043],[-18.46963,65.63647],[-18.47751,65.63269],[-18.48087,65.63047],[-18.48905,65.62295],[-18.49346,65.62003],[-18.49915,65.61674],[-18.50334,65.61339],[-18.50502,65.61117],[-18.50657,65.60714],[-18.50781,65.60494],[-18.51803,65.59319],[-18.52168,65.5909],[-18.52842,65.58815],[-18.53269,65.58595],[-18.53745,65.58223],[-18.54295,65.57858],[-18.54427,65.5766],[-18.54449,65.57262],[-18.54647,65.56878],[-18.54659,65.56575],[-18.54745,65.56313],[-18.54803,65.55761],[-18.54909,65.55502],[-18.55103,65.55207],[-18.55381,65.54912],[-18.55686,65.54663],[-18.56027,65.54442],[-18.5675,65.54043],[-18.57127,65.53762],[-18.57395,65.53455],[-18.57635,65.53028],[-18.57858,65.52823],[-18.58019,65.5272],[-18.58369,65.52559],[-18.59238,65.52276],[-18.59799,65.52012],[-18.60056,65.51833],[-18.60234,65.51662],[-18.60513,65.51221],[-18.60695,65.51032],[-18.60987,65.50829],[-18.61486,65.50576],[-18.61735,65.50423],[-18.62198,65.49991],[-18.62467,65.49798],[-18.62839,65.49616],[-18.63708,65.49321],[-18.64007,65.49189],[-18.65367,65.48186],[-18.6603,65.4789],[-18.66367,65.47682],[-18.66794,65.47513],[-18.6707,65.47327],[-18.67228,65.47254],[-18.67495,65.47187],[-18.6816,65.47113],[-18.68916,65.46888],[-18.69249,65.46827],[-18.69492,65.46807],[-18.69991,65.46802],[-18.70663,65.46848],[-18.71643,65.46805],[-18.74545,65.46871],[-18.75471,65.46847],[-18.77048,65.46701],[-18.78109,65.46642],[-18.79152,65.465],[-18.80333,65.46403],[-18.81033,65.46368],[-18.81743,65.46256],[-18.82427,65.46188],[-18.82655,65.46195],[-18.83026,65.4624],[-18.83728,65.46263],[-18.84848,65.46329],[-18.86093,65.46427],[-18.86668,65.46442],[-18.87427,65.46412],[-18.9005,65.46165],[-18.90482,65.46167],[-18.91231,65.46228],[-18.91816,65.46198],[-18.92425,65.46108],[-18.93301,65.45918],[-18.94295,65.45802],[-18.95051,65.45671],[-18.95658,65.45613],[-18.96299,65.45477],[-18.97504,65.45386],[-18.97979,65.45309],[-18.98564,65.45134],[-18.99175,65.44835],[-18.9951,65.44726],[-19.00299,65.44605],[-19.01151,65.44354],[-19.02124,65.44226],[-19.0265,65.44119],[-19.02995,65.44016],[-19.03499,65.43818],[-19.04446,65.43553],[-19.05104,65.43285],[-19.05429,65.43177],[-19.06835,65.42822],[-19.07159,65.42762],[-19.07541,65.42723],[-19.07893,65.42713],[-19.08835,65.42733],[-19.0999,65.42718],[-19.10796,65.42755],[-19.11338,65.42812],[-19.12555,65.43001],[-19.13274,65.43092],[-19.1564,65.43283],[-19.17786,65.4362],[-19.18389,65.43751],[-19.19034,65.43919],[-19.19925,65.44208],[-19.20361,65.44379],[-19.21786,65.45014],[-19.23306,65.45571],[-19.24001,65.45861],[-19.24529,65.46124],[-19.25669,65.46756],[-19.27157,65.47426],[-19.27588,65.47674],[-19.27949,65.47938],[-19.28297,65.48276],[-19.28535,65.4862],[-19.28662,65.48937],[-19.28709,65.49555],[-19.28797,65.49776],[-19.29283,65.50332],[-19.29444,65.50896],[-19.29934,65.51448],[-19.30747,65.52256],[-19.31114,65.52543],[-19.31928,65.53309],[-19.32063,65.534],[-19.32507,65.53614],[-19.32691,65.53736],[-19.33964,65.54899],[-19.34175,65.55011],[-19.34389,65.55093],[-19.34613,65.55151],[-19.34907,65.55197],[-19.3526,65.55217],[-19.35616,65.55202],[-19.38701,65.54847],[-19.39102,65.54816],[-19.39553,65.54812],[-19.39919,65.54832],[-19.40424,65.54899],[-19.42863,65.55404],[-19.43244,65.55434],[-19.436,65.55423],[-19.44374,65.55365],[-19.44538,65.55339],[-19.44094,65.54864],[-19.44091,65.548],[-19.44174,65.54705],[-19.44355,65.54622],[-19.44524,65.5458],[-19.44808,65.54543],[-19.46651,65.54416],[-19.46919,65.54429],[-19.47175,65.54477],[-19.474,65.54575],[-19.47766,65.54796],[-19.48002,65.54872],[-19.48324,65.54912],[-19.487,65.54894],[-19.48915,65.54846],[-19.49094,65.54773],[-19.5085,65.53702],[-19.51037,65.53551],[-19.51337,65.53189],[-19.51453,65.53105],[-19.51591,65.53046],[-19.51889,65.52962],[-19.52994,65.52727],[-19.53881,65.52457],[-19.54266,65.5239],[-19.55009,65.52313],[-19.5545,65.52242],[-19.56044,65.52117],[-19.5711,65.51833],[-19.57336,65.51789],[-19.5864,65.51544],[-19.59072,65.51517],[-19.59529,65.51548],[-19.59972,65.51609],[-19.60554,65.51744],[-19.61199,65.51942],[-19.6151,65.51998],[-19.6179,65.52022],[-19.6275,65.5201],[-19.65641,65.51861],[-19.65922,65.51862],[-19.66575,65.51899],[-19.67032,65.51887],[-19.67577,65.51807],[-19.67991,65.51685],[-19.68374,65.51478],[-19.6869,65.51157],[-19.68809,65.51071],[-19.69122,65.50958],[-19.69513,65.5091],[-19.69872,65.50925],[-19.70393,65.51022],[-19.70628,65.51047],[-19.74097,65.51213],[-19.74567,65.51184],[-19.75044,65.51085],[-19.75283,65.51052],[-19.75508,65.51042],[-19.75804,65.51066],[-19.76118,65.51144],[-19.76431,65.51302],[-19.76756,65.51424],[-19.77378,65.51569],[-19.77654,65.51652],[-19.79571,65.52416],[-19.79903,65.52479],[-19.8016,65.5248],[-19.80823,65.52399],[-19.82341,65.52314],[-19.82977,65.52306],[-19.83546,65.52261],[-19.84165,65.52298],[-19.84714,65.5221],[-19.85296,65.52221],[-19.85888,65.52179],[-19.86241,65.52225],[-19.86691,65.5238],[-19.86934,65.5228],[-19.87016,65.52207],[-19.86948,65.50909],[-19.86813,65.50706],[-19.86652,65.50543],[-19.85645,65.49816],[-19.85287,65.49511],[-19.85149,65.49124],[-19.85258,65.49061],[-19.85578,65.4904],[-19.85741,65.49055],[-19.86147,65.49205],[-19.86539,65.49296],[-19.86883,65.4933],[-19.87792,65.49371],[-19.88253,65.49442],[-19.91199,65.50171],[-19.92794,65.50391],[-19.92975,65.50447],[-19.94296,65.50982],[-19.95701,65.50155],[-19.95768,65.50136],[-19.99829,65.50939],[-20.0087,65.51222],[-20.01006,65.51243],[-20.01659,65.51253],[-20.01812,65.51241],[-20.02992,65.5089],[-20.04633,65.50653],[-20.04783,65.5056],[-20.05012,65.50328],[-20.05103,65.50287],[-20.05224,65.50265],[-20.06836,65.50107],[-20.09696,65.49942],[-20.10451,65.509],[-20.10467,65.50981],[-20.10391,65.51281],[-20.10745,65.51969],[-20.11061,65.52172],[-20.12824,65.52807],[-20.14005,65.53077],[-20.14472,65.53122],[-20.15223,65.53222],[-20.17,65.53631],[-20.17485,65.53816],[-20.26246,65.54276],[-20.26719,65.54314],[-20.27006,65.54365],[-20.29246,65.5487],[-20.30252,65.55032],[-20.31398,65.55307],[-20.32125,65.55511],[-20.32612,65.55786],[-20.32913,65.5588],[-20.33175,65.55909],[-20.33375,65.55904],[-20.33571,65.55877],[-20.33862,65.55797],[-20.34096,65.55769],[-20.34107,65.55637],[-20.34261,65.5526],[-20.34504,65.54946],[-20.34533,65.54843],[-20.34499,65.54742],[-20.3417,65.54362],[-20.34041,65.54097],[-20.3404,65.53937],[-20.34298,65.53226],[-20.34137,65.52904],[-20.34083,65.52693],[-20.33856,65.52466],[-20.33785,65.52344],[-20.33786,65.52087],[-20.33661,65.51852],[-20.3362,65.51572],[-20.33653,65.51461],[-20.33767,65.51353],[-20.34082,65.51226],[-20.37075,65.50445],[-20.37322,65.50407],[-20.37559,65.50398],[-20.38388,65.50453],[-20.38687,65.50424],[-20.38993,65.50347],[-20.39917,65.5007],[-20.40107,65.4998],[-20.40748,65.49554],[-20.40941,65.49457],[-20.42628,65.48886],[-20.43069,65.48689],[-20.43543,65.48434],[-20.43902,65.4829],[-20.44182,65.48222],[-20.45414,65.48065],[-20.45939,65.47964],[-20.46174,65.47893],[-20.46474,65.4777],[-20.47045,65.47449],[-20.47277,65.47362],[-20.47494,65.47307],[-20.47862,65.47251],[-20.50861,65.46906],[-20.51281,65.46834],[-20.5179,65.46715],[-20.55532,65.45545],[-20.55923,65.45382],[-20.57276,65.44748],[-20.57658,65.44558],[-20.57908,65.44406],[-20.58624,65.43944],[-20.58885,65.43738],[-20.5907,65.43542],[-20.5917,65.43384],[-20.59294,65.42984],[-20.59419,65.42829],[-20.59615,65.42679],[-20.59981,65.42521],[-20.6071,65.42301],[-20.60975,65.42196],[-20.62626,65.41285],[-20.6292,65.41101],[-20.63627,65.40242],[-20.63918,65.39664],[-20.64492,65.39105],[-20.64553,65.39005],[-20.64602,65.38802],[-20.64442,65.3829],[-20.64373,65.37607],[-20.64388,65.3737],[-20.64496,65.37124],[-20.64657,65.3693],[-20.64948,65.36698],[-20.65542,65.36378],[-20.65864,65.36244],[-20.66448,65.36073],[-20.68058,65.35758],[-20.72254,65.35245],[-20.72718,65.3521],[-20.73373,65.35206],[-20.73829,65.35235],[-20.7485,65.35359],[-20.75068,65.35361],[-20.75281,65.35341],[-20.75612,65.35259],[-20.77679,65.34591],[-20.782,65.34495],[-20.78645,65.34458],[-20.80861,65.3442],[-20.81396,65.34434],[-20.85247,65.34924],[-20.87137,65.35333],[-20.87359,65.35356],[-20.87647,65.3536],[-20.87979,65.35331],[-20.88211,65.35289],[-20.88569,65.35193],[-20.89017,65.35022],[-20.89339,65.34844],[-20.89537,65.34683],[-20.89709,65.34459],[-20.89778,65.34255],[-20.89759,65.34029],[-20.89606,65.33554],[-20.89666,65.33366],[-20.89778,65.33263],[-20.90831,65.3253],[-20.91316,65.32281],[-20.91801,65.32117],[-20.92508,65.31946],[-20.92949,65.31818],[-20.94007,65.3144],[-20.95404,65.31024],[-20.96834,65.30531],[-20.98562,65.30058],[-20.99618,65.29646],[-21.00119,65.29489],[-21.00757,65.29346],[-21.02821,65.28974],[-21.04078,65.28684],[-21.04384,65.28572],[-21.04837,65.28338],[-21.05492,65.28138],[-21.05963,65.27946],[-21.06285,65.27857],[-21.06888,65.27745],[-21.07185,65.27651],[-21.07545,65.27481],[-21.08612,65.26913],[-21.08827,65.26766],[-21.0896,65.26638],[-21.09078,65.26392],[-21.09062,65.26217],[-21.08919,65.25834],[-21.08829,65.25312],[-21.08832,65.25134],[-21.0895,65.24689],[-21.08937,65.2447],[-21.08853,65.24257],[-21.08704,65.24054],[-21.07432,65.22934],[-21.07295,65.2278],[-21.07234,65.22645],[-21.07083,65.21899],[-21.06976,65.21599],[-21.06563,65.20755],[-21.06104,65.20217],[-21.05958,65.19942],[-21.05881,65.19084],[-21.05977,65.18346],[-21.05715,65.17566],[-21.05765,65.1663],[-21.05742,65.16088],[-21.05881,65.15557],[-21.05996,65.15384],[-21.06192,65.1521],[-21.06408,65.15079],[-21.0675,65.14933],[-21.07854,65.14588],[-21.08164,65.14461],[-21.08405,65.14324],[-21.0854,65.14218],[-21.08723,65.13995],[-21.0878,65.1375],[-21.08691,65.13193],[-21.08782,65.12776],[-21.09221,65.11959],[-21.09401,65.11374],[-21.09704,65.11068],[-21.09776,65.10903],[-21.0975,65.10741],[-21.09466,65.10326],[-21.09355,65.09887],[-21.09064,65.09528],[-21.08955,65.09322],[-21.08893,65.08975],[-21.08937,65.0859],[-21.09084,65.08356],[-21.09333,65.08158],[-21.09772,65.07952],[-21.1043,65.07745],[-21.10653,65.07615],[-21.10854,65.073],[-21.1114,65.06653],[-21.11044,65.06482],[-21.10367,65.06057],[-21.10166,65.0588],[-21.10069,65.0575],[-21.09983,65.05577],[-21.09934,65.05234],[-21.09853,65.04988],[-21.09322,65.03629],[-21.09205,65.03432],[-21.08655,65.02842],[-21.07347,65.01958],[-21.07144,65.01784],[-21.06963,65.01566],[-21.06871,65.01405],[-21.06585,65.00587],[-21.0661,65.00416],[-21.06853,65.00031],[-21.0685,64.99908],[-21.06792,64.99799],[-21.06653,64.99673],[-21.05666,64.98964],[-21.05492,64.98768],[-21.05474,64.9863],[-21.05528,64.98513],[-21.05696,64.98349],[-21.06486,64.97766],[-21.06681,64.97474],[-21.06778,64.97225],[-21.06762,64.97046],[-21.06672,64.96888],[-21.06234,64.96473],[-21.06097,64.96299],[-21.06021,64.95779],[-21.05573,64.95024],[-21.05613,64.94857],[-21.06217,64.93902],[-21.06385,64.93781],[-21.06655,64.93654],[-21.0785,64.93271],[-21.08607,64.93132],[-21.09179,64.9298],[-21.09979,64.92819],[-21.10243,64.92744],[-21.10641,64.92577],[-21.10862,64.92509],[-21.11644,64.92368],[-21.11889,64.92303],[-21.12212,64.92169],[-21.12746,64.9188],[-21.12997,64.91799],[-21.13574,64.9168],[-21.13874,64.91593],[-21.14417,64.91315],[-21.14768,64.91183],[-21.15155,64.91091],[-21.15995,64.90974],[-21.16576,64.90842],[-21.1757,64.90753],[-21.17873,64.90679],[-21.18102,64.90576],[-21.1825,64.90464],[-21.1839,64.90165],[-21.18653,64.8992],[-21.18816,64.8969],[-21.18969,64.89327],[-21.19043,64.8889],[-21.1913,64.88693],[-21.19459,64.88323],[-21.19634,64.88057],[-21.19975,64.87704],[-21.20252,64.87202],[-21.20636,64.86849],[-21.20775,64.86665],[-21.20853,64.86489],[-21.20903,64.86151],[-21.20971,64.86021],[-21.21129,64.85877],[-21.21511,64.85654],[-21.21736,64.85468],[-21.21922,64.85373],[-21.22385,64.85203],[-21.23103,64.85024],[-21.23487,64.8487],[-21.24406,64.84682],[-21.25247,64.84361],[-21.25686,64.84266],[-21.26062,64.84245],[-21.27484,64.84299],[-21.27872,64.84348],[-21.28569,64.8448],[-21.28835,64.84506],[-21.29155,64.84504],[-21.29531,64.84456],[-21.30077,64.84284],[-21.30392,64.84211],[-21.30934,64.84153],[-21.32083,64.84121],[-21.32469,64.84091],[-21.32793,64.84041],[-21.3373,64.83813],[-21.34137,64.83753],[-21.34839,64.83683],[-21.35205,64.83613],[-21.35683,64.83487],[-21.36323,64.83266],[-21.37485,64.82928],[-21.3777,64.82807],[-21.38921,64.8221],[-21.39246,64.8207],[-21.40076,64.81773],[-21.40687,64.81633],[-21.40965,64.81542],[-21.41243,64.81397],[-21.41613,64.81087],[-21.4186,64.80922],[-21.4218,64.80755],[-21.42491,64.80635],[-21.42686,64.80583],[-21.4299,64.80535],[-21.45112,64.80402],[-21.45312,64.80385],[-21.45717,64.80315],[-21.48239,64.79608],[-21.49269,64.7926],[-21.49862,64.78983],[-21.50218,64.78865],[-21.50391,64.78771],[-21.50489,64.78666],[-21.50611,64.78197],[-21.50824,64.78009],[-21.51111,64.77904],[-21.51503,64.77832],[-21.51775,64.77759],[-21.52294,64.7746],[-21.52874,64.77235],[-21.53244,64.77027],[-21.53461,64.76936],[-21.53788,64.76851],[-21.54347,64.76772],[-21.54596,64.76722],[-21.55012,64.76584],[-21.55246,64.76458],[-21.55357,64.76363],[-21.5548,64.76079],[-21.55627,64.75925],[-21.56668,64.75429],[-21.57572,64.74969],[-21.57694,64.74885],[-21.57913,64.74664],[-21.58151,64.74198],[-21.5826,64.7407],[-21.58981,64.73594],[-21.59246,64.73388],[-21.59555,64.73093],[-21.59775,64.72822],[-21.60024,64.72358],[-21.6041,64.71962],[-21.60623,64.71787],[-21.61218,64.71401],[-21.6139,64.7132],[-21.61968,64.7112],[-21.6221,64.70965],[-21.62445,64.7071],[-21.62785,64.70457],[-21.63012,64.70049],[-21.63188,64.69867],[-21.63552,64.69597],[-21.63748,64.69484],[-21.64284,64.6926],[-21.64481,64.69156],[-21.6492,64.68747],[-21.65849,64.68137],[-21.66696,64.6744],[-21.66835,64.67352],[-21.67036,64.67266],[-21.67325,64.67181],[-21.69737,64.66769],[-21.70022,64.66698],[-21.70446,64.66512],[-21.71074,64.66005],[-21.71306,64.65899],[-21.71722,64.65803],[-21.72014,64.6578],[-21.72551,64.6578],[-21.72781,64.65754],[-21.72998,64.65701],[-21.73193,64.65613],[-21.73634,64.65338],[-21.74388,64.64922],[-21.74668,64.64683],[-21.74846,64.64589],[-21.75156,64.6451],[-21.75832,64.64441],[-21.76031,64.64392],[-21.76258,64.64305],[-21.76484,64.64139],[-21.77197,64.62987],[-21.77302,64.62874],[-21.77524,64.62732],[-21.78346,64.6236],[-21.7884,64.61968],[-21.79051,64.61833],[-21.79354,64.6169],[-21.797,64.61562],[-21.81008,64.61184],[-21.81644,64.60952],[-21.8203,64.60787],[-21.82292,64.60632],[-21.82379,64.60546],[-21.8245,64.60458],[-21.8254,64.60114],[-21.82612,64.59988],[-21.82774,64.5982],[-21.82989,64.59682],[-21.84169,64.59167],[-21.85015,64.58904],[-21.85516,64.58724],[-21.87068,64.58117],[-21.87488,64.57932],[-21.88315,64.57506],[-21.89097,64.56943],[-21.89678,64.56262],[-21.89797,64.5602],[-21.89788,64.55936],[-21.89923,64.55844],[-21.90085,64.55672],[-21.90423,64.55478],[-21.91012,64.54937],[-21.91078,64.54821],[-21.90997,64.54621],[-21.91035,64.54494],[-21.91494,64.54184],[-21.91859,64.54021],[-21.92084,64.53837]],"type":"LineString"}},{"type":"Feature","properties":{"name":"Borgarnes, Iceland → Reykjavik, Iceland"},"geometry":{"coordinates":[[-21.92084,64.53837],[-21.91859,64.54021],[-21.91494,64.54184],[-21.91109,64.54429],[-21.91027,64.54445],[-21.90858,64.544],[-21.90789,64.54338],[-21.90796,64.54199],[-21.90754,64.54075],[-21.90575,64.53906],[-21.90225,64.53731],[-21.89479,64.53466],[-21.89091,64.53307],[-21.88594,64.5305],[-21.88392,64.52826],[-21.88386,64.5257],[-21.88611,64.52248],[-21.88725,64.51828],[-21.88834,64.5169],[-21.89022,64.51548],[-21.89304,64.5143],[-21.89634,64.51332],[-21.9123,64.51099],[-21.91605,64.51002],[-21.919,64.50852],[-21.94139,64.49511],[-21.94508,64.49223],[-21.96427,64.47171],[-21.965,64.47008],[-21.96487,64.46828],[-21.96222,64.46141],[-21.96039,64.45382],[-21.95642,64.42864],[-21.95574,64.42724],[-21.95443,64.42596],[-21.95111,64.42433],[-21.94465,64.42247],[-21.93813,64.41996],[-21.93066,64.41825],[-21.92697,64.41718],[-21.92225,64.41524],[-21.92019,64.41406],[-21.91756,64.412],[-21.91453,64.40791],[-21.913,64.40634],[-21.90868,64.40306],[-21.90582,64.40179],[-21.89575,64.39951],[-21.89258,64.39894],[-21.87344,64.39738],[-21.86943,64.39691],[-21.8567,64.39472],[-21.85436,64.39413],[-21.85255,64.39336],[-21.85081,64.39213],[-21.84949,64.38989],[-21.84705,64.38765],[-21.84655,64.38648],[-21.8471,64.38494],[-21.85016,64.38266],[-21.85162,64.38083],[-21.85173,64.37903],[-21.85044,64.3773],[-21.84772,64.37578],[-21.84083,64.37349],[-21.83723,64.37204],[-21.82598,64.36636],[-21.81646,64.36281],[-21.81118,64.36049],[-21.80878,64.35921],[-21.80746,64.35822],[-21.80645,64.35699],[-21.80614,64.35577],[-21.80697,64.35376],[-21.81119,64.35039],[-21.81562,64.34523],[-21.81843,64.34303],[-21.82286,64.3407],[-21.82676,64.3392],[-21.83498,64.33651],[-21.84556,64.33213],[-21.85394,64.32954],[-21.85862,64.32777],[-21.8622,64.32681],[-21.86784,64.32579],[-21.8708,64.32488],[-21.87908,64.32185],[-21.88128,64.32085],[-21.88318,64.31965],[-21.887,64.3166],[-21.88981,64.31518],[-21.89353,64.31391],[-21.90361,64.31201],[-21.90751,64.31096],[-21.91111,64.30957],[-21.91258,64.30825],[-21.91101,64.30798],[-21.90928,64.30798],[-21.90768,64.3082],[-21.906,64.30868],[-21.90448,64.30935],[-21.8971,64.31374],[-21.89567,64.31427],[-21.89393,64.31463],[-21.89198,64.31478],[-21.89001,64.3147],[-21.87938,64.31321],[-21.87768,64.31258],[-21.87653,64.31177],[-21.87359,64.30753],[-21.87243,64.30658],[-21.83464,64.28828],[-21.83381,64.28727],[-21.83393,64.28594],[-21.83573,64.28423],[-21.8387,64.2828],[-21.84,64.28185],[-21.84068,64.27714],[-21.83976,64.27521],[-21.836,64.27212],[-21.83493,64.26994],[-21.83372,64.26564],[-21.83255,64.25857],[-21.82981,64.25315],[-21.82952,64.24304],[-21.82803,64.24112],[-21.82319,64.2378],[-21.82022,64.23537],[-21.81792,64.23267],[-21.81371,64.22673],[-21.81168,64.22497],[-21.80963,64.22365],[-21.8056,64.22178],[-21.80148,64.22038],[-21.78278,64.21524],[-21.7819,64.21476],[-21.77832,64.21402],[-21.77335,64.21262],[-21.75915,64.20709],[-21.75675,64.20634],[-21.75439,64.20584],[-21.75051,64.20549],[-21.74743,64.20556],[-21.74122,64.20647],[-21.72034,64.20862],[-21.71589,64.20844],[-21.7138,64.20804],[-21.7117,64.20739],[-21.70933,64.20609],[-21.70823,64.20481],[-21.70796,64.20367],[-21.70847,64.20083],[-21.70784,64.1995],[-21.70648,64.19823],[-21.70338,64.19651],[-21.6984,64.19451],[-21.69808,64.19416],[-21.69415,64.19301],[-21.69031,64.19141],[-21.68887,64.19059],[-21.68623,64.18867],[-21.68389,64.186],[-21.68041,64.18321],[-21.67928,64.18188],[-21.67779,64.17864],[-21.67706,64.17655],[-21.67749,64.17599],[-21.67682,64.17532],[-21.67662,64.17396],[-21.67701,64.1728],[-21.67814,64.17149],[-21.68279,64.16844],[-21.68405,64.1682],[-21.68497,64.16782],[-21.68775,64.16762],[-21.68976,64.16725],[-21.69492,64.165],[-21.69704,64.16464],[-21.69889,64.16454],[-21.70512,64.16484],[-21.7064,64.16514],[-21.71021,64.16503],[-21.71278,64.16458],[-21.71679,64.16327],[-21.72093,64.16018],[-21.72422,64.15903],[-21.72504,64.15897],[-21.73297,64.15586],[-21.73681,64.15396],[-21.73782,64.15373],[-21.73877,64.15271],[-21.74348,64.14967],[-21.75304,64.14489],[-21.75485,64.1436],[-21.75677,64.14173],[-21.75825,64.13931],[-21.7588,64.13904],[-21.75929,64.13764],[-21.76146,64.13491],[-21.76297,64.13351],[-21.76519,64.13198],[-21.76844,64.13047],[-21.7784,64.12668],[-21.78234,64.12563],[-21.78796,64.12476],[-21.79185,64.12452],[-21.83095,64.12396],[-21.83615,64.124],[-21.84158,64.1243],[-21.84992,64.1253],[-21.88358,64.13098],[-21.91593,64.13594],[-21.92007,64.13633],[-21.92699,64.1359],[-21.93011,64.13591],[-21.93164,64.13606],[-21.93437,64.13658],[-21.93646,64.13729],[-21.94183,64.13961],[-21.94773,64.14266],[-21.94754,64.14332],[-21.94625,64.14323],[-21.94414,64.14546],[-21.94312,64.14592]],"type":"LineString"}},{"type":"Feature","properties":{"name":"Reykjavik, Iceland"},"geometry":{"type":"Point","coordinates":[-21.94224,64.14598]}},{"type":"Feature","properties":{"name":"Vik, Iceland"},"geometry":{"type":"Point","coordinates":[-19.00547,63.41882]}},{"type":"Feature","properties":{"name":"Hofn, Iceland"},"geometry":{"type":"Point","coordinates":[-15.20804,64.25326]}},{"type":"Feature","properties":{"name":"Egilsstadir, Iceland"},"geometry":{"type":"Point","coordinates":[-14.40353,65.26204]}},{"type":"Feature","properties":{"name":"Akureyri, Iceland"},"geometry":{"type":"Point","coordinates":[-18.11218,65.6839]}},{"type":"Feature","properties":{"name":"Borgarnes, Iceland"},"geometry":{"type":"Point","coordinates":[-21.92021,64.53833]}},{"type":"Feature","properties":{"name":"Reykjavik, Iceland"},"geometry":{"type":"Point","coordinates":[-21.94224,64.14598]}}]}