{"type":"FeatureCollection","features":[{"type":"Feature","properties":{"name":"Tokyo, Japan → Hakone, Japan"},"geometry":{"coordinates":[[139.76311,35.67703],[139.76306,35.67688],[139.76068,35.67739],[139.76,35.67546],[139.75958,35.6749],[139.75866,35.6755],[139.75338,35.67768],[139.75094,35.67712],[139.74947,35.67709],[139.74726,35.67925],[139.7462,35.67963],[139.74526,35.67967],[139.74006,35.6787],[139.737,35.67841],[139.73112,35.6748],[139.72934,35.6744],[139.72412,35.67273],[139.71706,35.67009],[139.7166,35.66977],[139.71501,35.66779],[139.71073,35.66314],[139.70607,35.66014],[139.70435,35.65807],[139.7029,35.65791],[139.69856,35.65644],[139.69495,35.65549],[139.69324,35.65385],[139.68681,35.65169],[139.67108,35.64335],[139.66977,35.64187],[139.66553,35.63616],[139.66461,35.63535],[139.6612,35.63309],[139.65808,35.63139],[139.65381,35.63032],[139.64498,35.62721],[139.63125,35.62105],[139.62875,35.62254],[139.62789,35.62324],[139.62741,35.62407],[139.62661,35.62658],[139.62619,35.6272],[139.61616,35.6285],[139.61402,35.62853],[139.61196,35.62815],[139.60778,35.62643],[139.60317,35.62533],[139.60075,35.62411],[139.599,35.62252],[139.59625,35.61855],[139.59519,35.61731],[139.59341,35.61561],[139.58895,35.61216],[139.58685,35.61006],[139.58528,35.60793],[139.58218,35.60268],[139.58021,35.60009],[139.5778,35.5978],[139.57163,35.59252],[139.56943,35.58994],[139.56735,35.58669],[139.5661,35.58397],[139.56491,35.57973],[139.56428,35.57452],[139.56378,35.57195],[139.56313,35.5701],[139.5617,35.56741],[139.56051,35.56579],[139.55906,35.56423],[139.55313,35.55909],[139.55184,35.55759],[139.54686,35.55045],[139.54041,35.54409],[139.53637,35.53896],[139.53389,35.53644],[139.53128,35.53451],[139.52799,35.5328],[139.51638,35.52905],[139.5127,35.52745],[139.50951,35.52566],[139.50816,35.52471],[139.50168,35.51932],[139.49904,35.5175],[139.49677,35.51634],[139.49049,35.51385],[139.48789,35.51223],[139.48576,35.51008],[139.48192,35.50525],[139.47808,35.50164],[139.47607,35.49947],[139.47404,35.49648],[139.47104,35.49064],[139.46885,35.48808],[139.46744,35.48692],[139.46552,35.48566],[139.4584,35.4821],[139.45541,35.48029],[139.45269,35.47821],[139.44776,35.47348],[139.44552,35.47158],[139.43896,35.46728],[139.43654,35.46551],[139.43407,35.46328],[139.43234,35.46138],[139.42779,35.45494],[139.42526,35.45221],[139.42192,35.44957],[139.41257,35.44438],[139.4088,35.44168],[139.40589,35.43872],[139.40258,35.43424],[139.40063,35.43193],[139.39884,35.4302],[139.39585,35.42794],[139.39261,35.42608],[139.38979,35.42483],[139.38595,35.4236],[139.38258,35.42289],[139.3789,35.42247],[139.37555,35.4224],[139.37192,35.42258],[139.36482,35.42333],[139.36357,35.42322],[139.36316,35.42277],[139.36229,35.42049],[139.36157,35.41973],[139.3584,35.41886],[139.35556,35.41917],[139.35443,35.41911],[139.35334,35.4188],[139.35236,35.41825],[139.35083,35.41674],[139.34654,35.41098],[139.34525,35.40966],[139.34364,35.40853],[139.33795,35.4053],[139.33657,35.40432],[139.33579,35.40336],[139.33529,35.40206],[139.33458,35.39512],[139.33412,35.39314],[139.32954,35.38106],[139.32868,35.37925],[139.32694,35.37717],[139.32482,35.37577],[139.32208,35.37474],[139.31638,35.37304],[139.31487,35.3724],[139.31386,35.37178],[139.31185,35.36979],[139.30296,35.35902],[139.30014,35.35477],[139.29809,35.35002],[139.29723,35.34668],[139.2964,35.34097],[139.29547,35.33665],[139.29238,35.33184],[139.29147,35.33071],[139.29004,35.32937],[139.2882,35.32815],[139.28308,35.3257],[139.28196,35.32493],[139.27969,35.32281],[139.27838,35.32188],[139.27645,35.32096],[139.27127,35.319],[139.26675,35.31606],[139.26424,35.31488],[139.25342,35.3119],[139.24982,35.31112],[139.24671,35.31085],[139.2457,35.31061],[139.24144,35.3085],[139.24018,35.30829],[139.23638,35.30817],[139.23344,35.3077],[139.22876,35.30642],[139.22514,35.30508],[139.22149,35.30337],[139.22024,35.30259],[139.2187,35.30123],[139.21651,35.29839],[139.21525,35.29739],[139.20658,35.29298],[139.20018,35.29005],[139.19807,35.28974],[139.19498,35.29018],[139.18922,35.2901],[139.18213,35.29051],[139.17916,35.29035],[139.17681,35.28958],[139.17379,35.28788],[139.16728,35.28516],[139.16377,35.28426],[139.15643,35.28296],[139.1543,35.28215],[139.15274,35.2809],[139.15174,35.27928],[139.15044,35.2742],[139.15042,35.26971],[139.1499,35.26856],[139.14824,35.2663],[139.1468,35.26455],[139.14542,35.26337],[139.14329,35.26213],[139.13836,35.25989],[139.13695,35.25885],[139.13603,35.2577],[139.13286,35.24776],[139.13287,35.24666],[139.13331,35.24519],[139.13308,35.24453],[139.13243,35.24424],[139.13179,35.24466],[139.13124,35.24473],[139.12951,35.24462],[139.12853,35.24434],[139.12447,35.24183],[139.12269,35.23965],[139.12128,35.23834],[139.12004,35.23742],[139.11766,35.23607],[139.11452,35.23521],[139.11179,35.23399],[139.1102,35.23365],[139.10883,35.23377],[139.10861,35.2333],[139.10767,35.23335],[139.10748,35.23278],[139.10618,35.2327],[139.10688,35.23254]],"type":"LineString"}},{"type":"Feature","properties":{"name":"Hakone, Japan → Nagoya, Japan"},"geometry":{"coordinates":[[139.10688,35.23254],[139.10618,35.2327],[139.10748,35.23278],[139.10767,35.23335],[139.10861,35.2333],[139.10883,35.23377],[139.1102,35.23365],[139.11179,35.23399],[139.11437,35.23521],[139.1142,35.23469],[139.11235,35.23222],[139.11146,35.23172],[139.10956,35.23139],[139.10641,35.22927],[139.09771,35.22732],[139.09444,35.22637],[139.09366,35.22595],[139.09325,35.22466],[139.09289,35.22434],[139.0904,35.22441],[139.08904,35.2236],[139.08619,35.22251],[139.08419,35.22252],[139.08299,35.22224],[139.07424,35.21924],[139.07386,35.21889],[139.07334,35.21757],[139.073,35.21717],[139.07046,35.21599],[139.06974,35.21498],[139.06836,35.21466],[139.06817,35.21433],[139.06806,35.21328],[139.06471,35.21167],[139.06319,35.20942],[139.06269,35.2091],[139.06231,35.20912],[139.06202,35.20935],[139.06136,35.21242],[139.06195,35.21424],[139.06168,35.21447],[139.06124,35.2144],[139.06097,35.21271],[139.05977,35.21052],[139.05988,35.20975],[139.06057,35.20864],[139.06033,35.20848],[139.06003,35.20856],[139.05938,35.21008],[139.05912,35.21024],[139.05879,35.21017],[139.05868,35.2099],[139.05902,35.20921],[139.05899,35.20889],[139.05816,35.20809],[139.05791,35.20705],[139.05662,35.20473],[139.05489,35.20309],[139.05446,35.20243],[139.05347,35.19959],[139.05277,35.19821],[139.05239,35.19597],[139.05052,35.19427],[139.04884,35.19327],[139.04743,35.19182],[139.04686,35.19165],[139.04583,35.19168],[139.04528,35.19146],[139.04417,35.18969],[139.04371,35.18929],[139.04145,35.18881],[139.04052,35.18817],[139.03937,35.18799],[139.03778,35.18722],[139.03461,35.18681],[139.0323,35.18531],[139.02957,35.18465],[139.02853,35.18322],[139.02791,35.18289],[139.02723,35.18294],[139.02634,35.18341],[139.02493,35.18471],[139.0244,35.18491],[139.01947,35.1839],[139.01769,35.18431],[139.01615,35.18381],[139.0145,35.18374],[139.01415,35.18315],[139.01366,35.17918],[139.01391,35.17868],[139.01525,35.17763],[139.01541,35.17721],[139.0153,35.17669],[139.01427,35.1758],[139.01379,35.17468],[139.01345,35.17434],[139.01298,35.17427],[139.01203,35.17447],[139.01099,35.1743],[139.0102,35.1749],[139.00966,35.17495],[139.00935,35.17469],[139.00934,35.17383],[139.00901,35.17325],[139.00748,35.17282],[139.00713,35.17247],[139.00721,35.17209],[139.0077,35.17189],[139.00939,35.17199],[139.01208,35.17188],[139.01252,35.17161],[139.01232,35.17105],[139.01136,35.17019],[139.00915,35.16935],[139.00737,35.16763],[139.00714,35.16698],[139.00682,35.16671],[139.0056,35.16632],[139.00354,35.16637],[139.00309,35.16619],[139.00289,35.16519],[139.00343,35.16433],[139.00344,35.16394],[139.00302,35.16348],[139.0017,35.16281],[139.00108,35.16216],[139.00048,35.16191],[138.99908,35.16183],[138.99817,35.16046],[138.9967,35.15995],[138.99606,35.15898],[138.99556,35.15857],[138.99211,35.1576],[138.9909,35.15677],[138.99042,35.15607],[138.99023,35.1554],[138.99023,35.1543],[138.98995,35.15314],[138.99028,35.1511],[138.99018,35.14984],[138.98988,35.14936],[138.9892,35.14913],[138.98873,35.1492],[138.98826,35.1495],[138.98804,35.15006],[138.98824,35.15143],[138.98792,35.15201],[138.98739,35.1524],[138.98477,35.15302],[138.98422,35.15297],[138.9837,35.15259],[138.9836,35.15181],[138.98508,35.15022],[138.9856,35.14768],[138.98628,35.14644],[138.98623,35.14581],[138.98584,35.14542],[138.98507,35.14529],[138.98441,35.14562],[138.98417,35.14621],[138.98454,35.14718],[138.98447,35.14768],[138.98393,35.14814],[138.98302,35.14816],[138.98244,35.14777],[138.98086,35.14576],[138.9775,35.14357],[138.97656,35.14196],[138.97575,35.1417],[138.97404,35.1419],[138.97343,35.1417],[138.97303,35.14126],[138.97247,35.14006],[138.97187,35.13941],[138.97033,35.13869],[138.96917,35.13737],[138.96747,35.13654],[138.96571,35.13519],[138.96485,35.13501],[138.96301,35.13545],[138.96225,35.13541],[138.96138,35.13493],[138.96074,35.13421],[138.95984,35.13396],[138.95915,35.13417],[138.95871,35.13464],[138.95878,35.13625],[138.95823,35.13683],[138.95728,35.13686],[138.9561,35.13594],[138.95551,35.13579],[138.95499,35.13583],[138.95375,35.13642],[138.95312,35.13641],[138.95228,35.13598],[138.95143,35.13463],[138.94738,35.1322],[138.94623,35.13172],[138.94422,35.13148],[138.9434,35.13097],[138.94241,35.1323],[138.94152,35.13263],[138.93952,35.13605],[138.9389,35.13756],[138.93736,35.14315],[138.93671,35.14469],[138.93581,35.14618],[138.93429,35.14786],[138.93235,35.14935],[138.92978,35.15067],[138.92775,35.15131],[138.92483,35.15176],[138.92184,35.15172],[138.91845,35.15129],[138.91268,35.15006],[138.91036,35.14975],[138.9007,35.14943],[138.89858,35.1495],[138.89642,35.14986],[138.89443,35.15061],[138.89294,35.15142],[138.88938,35.15393],[138.88798,35.15435],[138.88629,35.15443],[138.88493,35.15418],[138.88325,35.15336],[138.87827,35.15022],[138.87649,35.14858],[138.87607,35.14844],[138.87551,35.14863],[138.87502,35.14974],[138.87241,35.15206],[138.86815,35.15531],[138.86679,35.15583],[138.86566,35.15569],[138.86205,35.15437],[138.85734,35.153],[138.85292,35.15222],[138.84891,35.15196],[138.84615,35.15201],[138.84297,35.15231],[138.8337,35.15417],[138.8293,35.15467],[138.8239,35.15459],[138.81468,35.15335],[138.81019,35.15317],[138.80452,35.15349],[138.7948,35.15473],[138.78754,35.15614],[138.77725,35.15878],[138.76718,35.16084],[138.76439,35.16163],[138.75922,35.1636],[138.75643,35.16495],[138.75344,35.16666],[138.74522,35.17221],[138.73719,35.17626],[138.73447,35.1778],[138.7323,35.17923],[138.72316,35.18596],[138.71726,35.18951],[138.71336,35.19145],[138.70805,35.19365],[138.69753,35.19731],[138.68865,35.19984],[138.68376,35.20091],[138.67749,35.20187],[138.67068,35.20243],[138.66393,35.20253],[138.65907,35.20225],[138.65376,35.20138],[138.64845,35.19986],[138.62429,35.18965],[138.61938,35.18718],[138.61608,35.18507],[138.61269,35.18241],[138.61005,35.17988],[138.60498,35.17441],[138.60238,35.17215],[138.59864,35.16957],[138.59417,35.16732],[138.58981,35.16582],[138.58628,35.16491],[138.55105,35.15801],[138.54516,35.15672],[138.53968,35.15514],[138.53508,35.15353],[138.5302,35.1515],[138.52727,35.14997],[138.52326,35.1472],[138.52055,35.14469],[138.51841,35.14215],[138.51337,35.13548],[138.50929,35.13141],[138.50519,35.12835],[138.49989,35.12523],[138.49624,35.12282],[138.49255,35.11985],[138.4889,35.11615],[138.48649,35.11306],[138.48469,35.11002],[138.4833,35.10735],[138.47967,35.09887],[138.47799,35.09595],[138.47575,35.09264],[138.47282,35.08909],[138.46816,35.08439],[138.46592,35.08187],[138.46107,35.07532],[138.45904,35.07293],[138.45578,35.06991],[138.45281,35.06776],[138.44983,35.06592],[138.4463,35.06413],[138.44161,35.06228],[138.43414,35.05965],[138.42936,35.0576],[138.42526,35.05548],[138.4137,35.04852],[138.41019,35.04677],[138.40655,35.04533],[138.40206,35.04398],[138.39767,35.0431],[138.39306,35.0427],[138.38584,35.04265],[138.38109,35.04214],[138.37641,35.04105],[138.37283,35.03977],[138.36867,35.03768],[138.36496,35.03516],[138.36297,35.03343],[138.35653,35.02695],[138.35341,35.02453],[138.35062,35.02284],[138.34566,35.02035],[138.33923,35.01756],[138.32357,35.0122],[138.31994,35.01079],[138.31514,35.00832],[138.311,35.00552],[138.30692,35.00195],[138.30434,34.99903],[138.30125,34.99467],[138.29719,34.98746],[138.29616,34.98516],[138.29504,34.98179],[138.2925,34.9697],[138.29105,34.96509],[138.2811,34.94451],[138.27583,34.93227],[138.27447,34.92954],[138.2729,34.92701],[138.2697,34.92288],[138.26647,34.9197],[138.26385,34.91756],[138.25527,34.91116],[138.246,34.90202],[138.24254,34.89908],[138.23874,34.89643],[138.23505,34.89422],[138.22874,34.8912],[138.22198,34.88842],[138.21515,34.8863],[138.19784,34.88206],[138.19178,34.88031],[138.18697,34.87869],[138.17078,34.87266],[138.1647,34.87008],[138.16165,34.86852],[138.15781,34.86634],[138.15071,34.86187],[138.1441,34.85849],[138.13961,34.85666],[138.12858,34.8529],[138.11778,34.84825],[138.11158,34.84644],[138.108,34.84575],[138.10342,34.84525],[138.09908,34.84515],[138.09211,34.84553],[138.08646,34.84547],[138.06317,34.84399],[138.05503,34.84294],[138.04245,34.84037],[138.03952,34.84002],[138.03606,34.83984],[138.03157,34.83994],[138.02855,34.84026],[138.02471,34.84092],[138.01633,34.84288],[138.01226,34.84354],[138.00635,34.84391],[138.00342,34.84387],[138.0002,34.84354],[137.99707,34.84298],[137.99367,34.84208],[137.98312,34.83793],[137.96335,34.83229],[137.94281,34.82507],[137.93823,34.8239],[137.93444,34.82321],[137.93069,34.82273],[137.92602,34.82243],[137.91955,34.8226],[137.91327,34.82334],[137.90694,34.82476],[137.89704,34.82779],[137.89357,34.82848],[137.88967,34.82889],[137.88567,34.82888],[137.88221,34.82855],[137.87879,34.82791],[137.87127,34.82605],[137.86649,34.82528],[137.86105,34.82502],[137.85691,34.82524],[137.85246,34.82591],[137.8485,34.82689],[137.84597,34.8277],[137.83946,34.83022],[137.83528,34.83149],[137.83147,34.83219],[137.81822,34.83371],[137.814,34.83437],[137.80975,34.83534],[137.80121,34.83776],[137.79708,34.83856],[137.79283,34.83904],[137.78775,34.83913],[137.78335,34.83884],[137.77482,34.83777],[137.7707,34.83761],[137.7661,34.83795],[137.76126,34.83889],[137.71078,34.85253],[137.69664,34.85683],[137.69259,34.8583],[137.68724,34.8605],[137.6845,34.86182],[137.68039,34.86416],[137.67504,34.86787],[137.66954,34.8727],[137.66002,34.8821],[137.65776,34.88392],[137.65471,34.88595],[137.65134,34.88772],[137.64825,34.88895],[137.6351,34.89241],[137.63199,34.8935],[137.62951,34.89462],[137.62647,34.89631],[137.62268,34.89893],[137.61164,34.90733],[137.60826,34.90926],[137.60531,34.91054],[137.59922,34.91252],[137.59436,34.91367],[137.56212,34.91929],[137.55691,34.92065],[137.54946,34.92318],[137.54532,34.92422],[137.52951,34.92667],[137.52439,34.92714],[137.51962,34.92714],[137.51529,34.9268],[137.51075,34.92606],[137.50726,34.92523],[137.50301,34.92386],[137.49397,34.91979],[137.48958,34.91826],[137.48229,34.91642],[137.47162,34.91463],[137.46696,34.91333],[137.46154,34.91118],[137.45659,34.90845],[137.45345,34.90625],[137.44158,34.89667],[137.43952,34.89518],[137.43561,34.89273],[137.43068,34.89031],[137.42428,34.88803],[137.41329,34.88548],[137.40457,34.88394],[137.3927,34.88249],[137.38516,34.88221],[137.37839,34.88254],[137.3721,34.88334],[137.36553,34.88474],[137.36009,34.88635],[137.34387,34.89196],[137.33191,34.89582],[137.3045,34.90528],[137.29951,34.90731],[137.28571,34.91375],[137.28058,34.91659],[137.27642,34.91955],[137.27237,34.92297],[137.26713,34.92837],[137.26388,34.93242],[137.26254,34.93445],[137.26009,34.93883],[137.2576,34.94393],[137.25581,34.94822],[137.25448,34.95296],[137.25347,34.96009],[137.25226,34.96419],[137.25057,34.96801],[137.2491,34.97057],[137.24711,34.97338],[137.24113,34.98013],[137.23807,34.98406],[137.23595,34.98743],[137.23399,34.99141],[137.23246,34.99567],[137.23067,35.00214],[137.22781,35.01001],[137.22684,35.01415],[137.22579,35.02194],[137.22499,35.02471],[137.22379,35.02748],[137.22157,35.03106],[137.22024,35.03271],[137.21814,35.03486],[137.21485,35.03752],[137.21037,35.04018],[137.20725,35.04153],[137.20304,35.04285],[137.19926,35.04361],[137.19508,35.04397],[137.19111,35.04393],[137.18705,35.04347],[137.18361,35.04276],[137.17906,35.04153],[137.17271,35.03935],[137.16866,35.03727],[137.16522,35.03484],[137.16336,35.03309],[137.16007,35.02951],[137.15718,35.02715],[137.14734,35.02095],[137.13956,35.01736],[137.13679,35.01648],[137.12495,35.01377],[137.12088,35.0132],[137.11422,35.01291],[137.11173,35.01253],[137.10941,35.0117],[137.10359,35.0083],[137.10132,35.00777],[137.09875,35.00783],[137.09737,35.00816],[137.09563,35.00885],[137.07891,35.01742],[137.04656,35.03986],[137.04493,35.04077],[137.0432,35.04145],[137.04121,35.04193],[137.03953,35.04214],[137.03493,35.04209],[137.03262,35.04232],[137.0299,35.04315],[137.02602,35.04497],[137.02454,35.04535],[137.02253,35.04546],[137.02085,35.04521],[137.01932,35.04468],[137.0179,35.04385],[137.01437,35.04122],[137.01273,35.04049],[137.01095,35.03997],[137.00667,35.03939],[137.00509,35.03899],[136.99897,35.04055],[137.00104,35.04278],[137.00104,35.04416],[137.00009,35.04457],[137.00071,35.04655],[137.00263,35.0488],[136.99759,35.0534],[136.99426,35.05528],[136.99178,35.05751],[136.9882,35.05966],[136.98557,35.06083],[136.98397,35.06111],[136.98172,35.06081],[136.98071,35.06091],[136.97578,35.06265],[136.97318,35.06399],[136.96915,35.06544],[136.96364,35.06909],[136.95589,35.07179],[136.94826,35.07685],[136.93985,35.08055],[136.93773,35.08255],[136.93431,35.0847],[136.92346,35.10488],[136.92184,35.11506],[136.91861,35.11631],[136.91445,35.11757],[136.91346,35.11818],[136.91138,35.12025],[136.90716,35.12202],[136.90705,35.12532],[136.90648,35.128],[136.89979,35.13733],[136.89901,35.14011],[136.89899,35.14772],[136.89806,35.16209],[136.89603,35.18113],[136.89614,35.18127],[136.90398,35.18183],[136.90519,35.1821],[136.90464,35.1856],[136.90429,35.18551],[136.90445,35.1838],[136.90348,35.18397],[136.90313,35.18359],[136.90118,35.18345]],"type":"LineString"}},{"type":"Feature","properties":{"name":"Nagoya, Japan → Kyoto, Japan"},"geometry":{"coordinates":[[136.90118,35.18345],[136.90313,35.18359],[136.90348,35.18397],[136.90403,35.18377],[136.90486,35.18389],[136.90453,35.18653],[136.90474,35.18648],[136.90545,35.182],[136.90365,35.18162],[136.89621,35.1811],[136.8983,35.16205],[136.89926,35.14727],[136.89927,35.13991],[136.89999,35.13739],[136.9067,35.12804],[136.90727,35.12527],[136.90749,35.11833],[136.9084,35.11236],[136.91057,35.10617],[136.9121,35.09808],[136.91385,35.09236],[136.91001,35.06945],[136.91029,35.06721],[136.91185,35.06373],[136.90653,35.06218],[136.90542,35.06135],[136.902,35.05577],[136.90083,35.05141],[136.88477,35.05218],[136.87498,35.05414],[136.87193,35.05435],[136.84127,35.0517],[136.83016,35.05163],[136.80575,35.05184],[136.79502,35.05166],[136.792,35.0513],[136.78661,35.05019],[136.76143,35.04688],[136.75915,35.04642],[136.75712,35.04565],[136.75015,35.0416],[136.74806,35.04061],[136.69712,35.02139],[136.69462,35.02067],[136.69138,35.02017],[136.68832,35.02031],[136.68563,35.02105],[136.68325,35.02227],[136.67816,35.02574],[136.67568,35.02722],[136.6722,35.02867],[136.66907,35.02946],[136.66679,35.02962],[136.66497,35.02937],[136.66321,35.02873],[136.6602,35.02703],[136.65805,35.02644],[136.65606,35.02632],[136.65249,35.02644],[136.64963,35.02689],[136.64799,35.02758],[136.6466,35.02858],[136.64559,35.02972],[136.64308,35.03332],[136.64229,35.03406],[136.64104,35.03486],[136.63857,35.03569],[136.63178,35.03678],[136.62853,35.03787],[136.62567,35.03933],[136.61757,35.045],[136.61432,35.04692],[136.61241,35.04775],[136.60984,35.04857],[136.60818,35.04896],[136.60506,35.04937],[136.60007,35.0494],[136.59167,35.04892],[136.58726,35.04842],[136.58374,35.04779],[136.5772,35.04609],[136.56534,35.04166],[136.55948,35.03979],[136.5527,35.03825],[136.53187,35.03441],[136.52388,35.03248],[136.51904,35.03105],[136.51262,35.02883],[136.49461,35.02191],[136.49118,35.02025],[136.48797,35.01836],[136.48517,35.01637],[136.48254,35.01415],[136.48039,35.01203],[136.47751,35.00852],[136.4754,35.00522],[136.47393,35.00211],[136.47264,34.99764],[136.46997,34.98024],[136.46781,34.97169],[136.46592,34.96664],[136.46428,34.96328],[136.46139,34.95862],[136.45899,34.95554],[136.45479,34.95127],[136.44899,34.9461],[136.42795,34.92873],[136.42342,34.92541],[136.4182,34.92231],[136.41264,34.91985],[136.40529,34.91739],[136.39728,34.91562],[136.39373,34.9152],[136.39028,34.91511],[136.35427,34.91574],[136.33094,34.91648],[136.32332,34.91622],[136.30828,34.91516],[136.30269,34.91515],[136.29702,34.91544],[136.29185,34.91597],[136.28789,34.91656],[136.28009,34.91818],[136.27322,34.92011],[136.26154,34.92421],[136.25462,34.92592],[136.24787,34.92695],[136.24438,34.92725],[136.23977,34.92732],[136.23653,34.92711],[136.23221,34.92646],[136.22901,34.92568],[136.22541,34.92448],[136.22086,34.92239],[136.2132,34.91758],[136.21044,34.91609],[136.20724,34.91473],[136.20251,34.91333],[136.19763,34.91255],[136.18816,34.91175],[136.17709,34.91003],[136.17272,34.90986],[136.16762,34.91028],[136.16391,34.91098],[136.15714,34.91287],[136.15214,34.91463],[136.14104,34.91918],[136.13758,34.92022],[136.13412,34.92102],[136.127,34.92195],[136.11878,34.92259],[136.11265,34.92282],[136.10071,34.92282],[136.09454,34.92339],[136.09048,34.92409],[136.07988,34.92642],[136.07557,34.9271],[136.06689,34.92814],[136.06029,34.92924],[136.05323,34.93083],[136.04428,34.93347],[136.0397,34.9355],[136.0369,34.93718],[136.03522,34.9384],[136.03127,34.94201],[136.02488,34.94906],[136.02219,34.95141],[136.01986,34.95316],[136.01456,34.95629],[136.00906,34.95865],[136.00456,34.96003],[136.00017,34.96094],[135.99537,34.96151],[135.99219,34.96157],[135.98776,34.96125],[135.98327,34.96038],[135.98094,34.95962],[135.9782,34.95805],[135.97679,34.95755],[135.97527,34.95749],[135.97347,34.95801],[135.97264,34.95858],[135.97043,34.96108],[135.96943,34.96197],[135.96792,34.96296],[135.96394,34.96503],[135.96236,34.96619],[135.9613,34.96733],[135.96049,34.96888],[135.96021,34.97044],[135.96042,34.97207],[135.96151,34.9751],[135.96159,34.97631],[135.96138,34.97754],[135.96078,34.97871],[135.95963,34.97995],[135.95803,34.98114],[135.9571,34.98153],[135.95571,34.98164],[135.95432,34.9812],[135.95124,34.97938],[135.94308,34.974],[135.9406,34.97269],[135.93877,34.97214],[135.92273,34.96866],[135.92041,34.96837],[135.91825,34.96835],[135.89291,34.9705],[135.89012,34.97118],[135.88758,34.97229],[135.88515,34.97398],[135.88341,34.97582],[135.88193,34.97845],[135.87844,34.98881],[135.87744,34.9906],[135.8758,34.9926],[135.87447,34.99379],[135.87265,34.99503],[135.8656,34.99843],[135.8642,34.99868],[135.86266,34.99855],[135.85709,34.99699],[135.8542,34.9957],[135.84873,34.99224],[135.84085,34.99016],[135.83775,34.98861],[135.83706,34.98843],[135.83371,34.98857],[135.82556,34.98961],[135.81027,34.98991],[135.80951,34.99034],[135.80444,34.99473],[135.79797,34.99777],[135.79578,34.99819],[135.79355,34.99935],[135.79317,35.00066],[135.79178,35.00291],[135.79083,35.0039],[135.79105,35.00579],[135.79035,35.00705],[135.79011,35.00832],[135.78944,35.00945],[135.78764,35.01172],[135.78474,35.01184],[135.7847,35.01361],[135.77353,35.01367],[135.77254,35.01323],[135.76897,35.01322],[135.76897,35.0121],[135.76818,35.0121]],"type":"LineString"}},{"type":"Feature","properties":{"name":"Kyoto, Japan → Hiroshima, Japan"},"geometry":{"coordinates":[[135.76818,35.0121],[135.76502,35.01219],[135.76502,35.01075],[135.75971,35.01075],[135.75972,35.00366],[135.75514,35.00369],[135.75518,34.99333],[135.7531,34.99322],[135.75306,34.99277],[135.75317,34.98695],[135.75379,34.98409],[135.75382,34.98188],[135.75341,34.96782],[135.75309,34.96441],[135.74582,34.96465],[135.74562,34.95379],[135.74582,34.9534],[135.74613,34.95332],[135.7478,34.95392],[135.74777,34.95427],[135.74738,34.95438],[135.7457,34.95393],[135.72691,34.94681],[135.72343,34.94508],[135.72062,34.94305],[135.71796,34.94024],[135.71692,34.93876],[135.71588,34.93682],[135.7071,34.91374],[135.70596,34.91133],[135.70459,34.9094],[135.70267,34.90778],[135.70015,34.90654],[135.68723,34.90318],[135.68504,34.9024],[135.66602,34.89134],[135.66431,34.88978],[135.66228,34.88731],[135.6563,34.87724],[135.64955,34.86745],[135.6481,34.8661],[135.64617,34.86487],[135.64416,34.86402],[135.64157,34.86336],[135.63737,34.86306],[135.63431,34.86347],[135.63097,34.86445],[135.6271,34.86646],[135.6267,34.86702],[135.62666,34.86774],[135.62821,34.86983],[135.62852,34.87079],[135.62855,34.87161],[135.62568,34.88373],[135.62524,34.88452],[135.62444,34.88492],[135.62351,34.88493],[135.62293,34.88471],[135.62169,34.8838],[135.62058,34.8837],[135.61634,34.88607],[135.61306,34.88828],[135.61046,34.89061],[135.60872,34.89269],[135.60622,34.89668],[135.60466,34.89874],[135.60257,34.90091],[135.60027,34.90277],[135.59742,34.90457],[135.59335,34.90641],[135.58904,34.90764],[135.58519,34.90822],[135.58205,34.90834],[135.5796,34.90823],[135.57649,34.90784],[135.57408,34.90731],[135.56977,34.90587],[135.5626,34.90248],[135.55239,34.89691],[135.54508,34.89226],[135.53803,34.88708],[135.52637,34.8773],[135.52288,34.87484],[135.51993,34.87332],[135.51644,34.87201],[135.51339,34.87124],[135.50969,34.8707],[135.50536,34.87064],[135.50169,34.87099],[135.47368,34.87629],[135.47035,34.87678],[135.4677,34.87697],[135.46469,34.87697],[135.46027,34.87669],[135.44728,34.87528],[135.44038,34.87476],[135.42965,34.8742],[135.4246,34.87447],[135.42017,34.87534],[135.4155,34.87699],[135.41237,34.87864],[135.40725,34.88197],[135.40517,34.88306],[135.40307,34.8839],[135.39984,34.8848],[135.392,34.88622],[135.38255,34.8886],[135.37876,34.88913],[135.37414,34.88927],[135.36452,34.88851],[135.35931,34.88846],[135.35563,34.88822],[135.35227,34.88765],[135.34995,34.88702],[135.34392,34.88474],[135.33925,34.88243],[135.3324,34.87749],[135.32835,34.87513],[135.32557,34.87394],[135.31799,34.87114],[135.30905,34.86688],[135.3045,34.86526],[135.29966,34.8642],[135.29479,34.86375],[135.29009,34.86384],[135.26987,34.86484],[135.26724,34.86477],[135.26482,34.86447],[135.26169,34.86372],[135.25847,34.86248],[135.25558,34.86084],[135.25007,34.85694],[135.24736,34.85562],[135.2435,34.85426],[135.23999,34.85341],[135.23492,34.85246],[135.22349,34.84981],[135.22065,34.84947],[135.21528,34.84938],[135.21253,34.84876],[135.21032,34.8478],[135.20756,34.84624],[135.20228,34.84241],[135.19962,34.84069],[135.19403,34.83826],[135.19145,34.83693],[135.18995,34.83587],[135.18865,34.83466],[135.18589,34.83121],[135.18429,34.82956],[135.182,34.8279],[135.17995,34.82706],[135.17718,34.82667],[135.17473,34.82693],[135.1726,34.82764],[135.16795,34.82999],[135.16539,34.83095],[135.16173,34.83167],[135.1584,34.83173],[135.15527,34.83103],[135.15249,34.82971],[135.14998,34.8279],[135.14628,34.82408],[135.14459,34.82273],[135.14215,34.8215],[135.13963,34.82081],[135.13777,34.82062],[135.13575,34.82068],[135.12968,34.82184],[135.12638,34.82203],[135.12392,34.82175],[135.11858,34.82064],[135.11645,34.82046],[135.1134,34.82059],[135.10795,34.82127],[135.10511,34.82127],[135.10208,34.82083],[135.09755,34.81963],[135.09563,34.8193],[135.09392,34.81922],[135.08911,34.81943],[135.08648,34.81899],[135.08426,34.81814],[135.08172,34.81672],[135.07961,34.81527],[135.0773,34.8134],[135.07366,34.80979],[135.06797,34.80314],[135.06482,34.80027],[135.06324,34.79931],[135.06127,34.79853],[135.05929,34.79811],[135.0572,34.798],[135.05525,34.79819],[135.0525,34.79875],[135.04459,34.80104],[135.03636,34.80282],[135.03319,34.80387],[135.03077,34.80494],[135.02812,34.80644],[135.02234,34.81071],[135.01993,34.81212],[135.013,34.81555],[135.0059,34.81941],[135.00362,34.82031],[135.00149,34.82071],[134.99924,34.8207],[134.99687,34.82021],[134.99533,34.81959],[134.99218,34.81783],[134.98953,34.81706],[134.98379,34.81702],[134.97757,34.81622],[134.97094,34.81673],[134.96898,34.81664],[134.96755,34.81638],[134.96404,34.81526],[134.95932,34.8133],[134.955,34.81104],[134.95046,34.80809],[134.94857,34.80713],[134.9471,34.80669],[134.94578,34.80651],[134.94289,34.80666],[134.94095,34.80725],[134.937,34.80913],[134.9309,34.81169],[134.92078,34.81764],[134.91714,34.81945],[134.9147,34.82043],[134.91173,34.82126],[134.90936,34.82165],[134.90287,34.82202],[134.90049,34.82234],[134.89753,34.82308],[134.89432,34.82438],[134.88868,34.82732],[134.88601,34.82912],[134.88441,34.83081],[134.88238,34.83402],[134.88134,34.83527],[134.87979,34.83654],[134.87767,34.83766],[134.87619,34.83814],[134.87446,34.83847],[134.8681,34.83851],[134.86544,34.83881],[134.85963,34.84057],[134.85531,34.8415],[134.85309,34.84231],[134.85118,34.84339],[134.84986,34.84443],[134.84695,34.84806],[134.84562,34.84932],[134.84369,34.85043],[134.84185,34.85099],[134.83952,34.85121],[134.83707,34.85099],[134.83522,34.85047],[134.8318,34.84905],[134.82977,34.84841],[134.82701,34.84788],[134.82293,34.84747],[134.81918,34.84737],[134.81477,34.84762],[134.81251,34.84815],[134.80886,34.84954],[134.80665,34.84987],[134.80408,34.84968],[134.79996,34.84858],[134.79758,34.84849],[134.79605,34.8487],[134.79402,34.84935],[134.78821,34.85274],[134.78573,34.85392],[134.78347,34.85452],[134.78133,34.85471],[134.77911,34.85453],[134.77421,34.85339],[134.77093,34.85282],[134.76288,34.85199],[134.76111,34.85146],[134.75815,34.84999],[134.75677,34.84949],[134.75424,34.84911],[134.75248,34.84921],[134.74645,34.85037],[134.73495,34.85223],[134.7318,34.85315],[134.72895,34.85475],[134.72469,34.85813],[134.72242,34.85961],[134.71516,34.86258],[134.70375,34.8685],[134.69849,34.87103],[134.69314,34.87334],[134.6889,34.87472],[134.67926,34.87638],[134.65633,34.87941],[134.65019,34.87958],[134.63234,34.87918],[134.63046,34.87903],[134.62811,34.87839],[134.62602,34.87729],[134.62436,34.87579],[134.62189,34.87236],[134.62063,34.8711],[134.61827,34.86948],[134.61579,34.86844],[134.61287,34.8679],[134.60663,34.8681],[134.60406,34.86785],[134.60178,34.86724],[134.59738,34.8652],[134.59523,34.86454],[134.59337,34.86429],[134.58773,34.86417],[134.58361,34.86332],[134.57942,34.86205],[134.57594,34.86077],[134.56437,34.85575],[134.56004,34.85402],[134.55268,34.85199],[134.55068,34.85172],[134.54872,34.85169],[134.54291,34.85235],[134.54039,34.85242],[134.5381,34.85217],[134.53563,34.85158],[134.53355,34.85074],[134.53014,34.84874],[134.52791,34.84766],[134.52147,34.8458],[134.51883,34.84455],[134.51647,34.84305],[134.51412,34.84125],[134.50842,34.83569],[134.50671,34.83451],[134.50498,34.83366],[134.50188,34.83272],[134.47489,34.82661],[134.46427,34.82354],[134.46214,34.82235],[134.46061,34.8208],[134.45872,34.81759],[134.45601,34.81173],[134.4553,34.81069],[134.45399,34.80935],[134.45277,34.80847],[134.45065,34.80748],[134.44872,34.80697],[134.44336,34.80613],[134.44168,34.80555],[134.43998,34.80464],[134.43871,34.80369],[134.43744,34.80234],[134.43462,34.79804],[134.43335,34.7965],[134.43207,34.79534],[134.42995,34.79395],[134.42716,34.79274],[134.42411,34.79191],[134.42035,34.7914],[134.4113,34.79095],[134.40799,34.79041],[134.40526,34.78963],[134.4021,34.78822],[134.39984,34.78671],[134.39856,34.78522],[134.39712,34.78214],[134.39627,34.78087],[134.39513,34.77976],[134.39356,34.77878],[134.39084,34.77787],[134.37598,34.77429],[134.37262,34.77371],[134.36966,34.77347],[134.36645,34.77344],[134.36348,34.77373],[134.36128,34.77424],[134.35685,34.7758],[134.35485,34.77635],[134.35011,34.77689],[134.34827,34.77728],[134.34674,34.77796],[134.3436,34.78019],[134.34249,34.7806],[134.341,34.78089],[134.33946,34.7809],[134.33822,34.78072],[134.33236,34.77913],[134.3304,34.77894],[134.32858,34.77895],[134.32467,34.77946],[134.31841,34.78106],[134.31571,34.7815],[134.31081,34.78156],[134.30348,34.78065],[134.3008,34.78056],[134.29877,34.78078],[134.29413,34.78166],[134.28944,34.78162],[134.2878,34.78176],[134.28174,34.78337],[134.27823,34.78377],[134.27241,34.78356],[134.2668,34.78372],[134.26338,34.78341],[134.25895,34.78228],[134.25205,34.77975],[134.24847,34.7789],[134.24621,34.77877],[134.24173,34.77893],[134.2371,34.77855],[134.23429,34.77871],[134.23009,34.77955],[134.2261,34.78078],[134.22273,34.78213],[134.21947,34.78382],[134.21801,34.78484],[134.21656,34.78617],[134.21367,34.78995],[134.21211,34.79167],[134.21067,34.79281],[134.20799,34.79427],[134.20588,34.79501],[134.20366,34.7955],[134.19962,34.79595],[134.19522,34.79677],[134.19225,34.79693],[134.18922,34.79652],[134.18525,34.79533],[134.18063,34.79424],[134.17605,34.79222],[134.17115,34.79085],[134.16554,34.78809],[134.16242,34.78724],[134.15963,34.78693],[134.15671,34.78697],[134.1466,34.78798],[134.14441,34.78784],[134.14236,34.78744],[134.13941,34.78623],[134.13336,34.7823],[134.13086,34.78104],[134.12798,34.77999],[134.12019,34.77772],[134.11017,34.77339],[134.10736,34.77243],[134.1047,34.77198],[134.10125,34.77194],[134.09948,34.77218],[134.09425,34.77334],[134.09237,34.77346],[134.09078,34.77336],[134.08731,34.7726],[134.08169,34.77016],[134.07903,34.76937],[134.07661,34.76908],[134.07096,34.76901],[134.06752,34.76836],[134.06525,34.76745],[134.06212,34.76555],[134.05954,34.76338],[134.05577,34.75973],[134.05375,34.75816],[134.05241,34.75743],[134.05036,34.75662],[134.04216,34.75455],[134.03864,34.75329],[134.03636,34.75208],[134.03436,34.75076],[134.02864,34.74587],[134.02634,34.7442],[134.02152,34.74154],[134.01771,34.73995],[134.01171,34.73817],[134.00509,34.73705],[134.00125,34.73686],[133.99336,34.73726],[133.99089,34.73706],[133.98883,34.7366],[133.985,34.73503],[133.98085,34.73247],[133.97906,34.73157],[133.97243,34.72931],[133.96993,34.72823],[133.96763,34.72686],[133.96264,34.72325],[133.9604,34.72206],[133.95865,34.72141],[133.95508,34.72059],[133.94044,34.71917],[133.93546,34.71828],[133.92986,34.71651],[133.91857,34.71147],[133.9148,34.71],[133.91034,34.709],[133.90402,34.70826],[133.90106,34.70771],[133.89801,34.70689],[133.89495,34.70582],[133.89089,34.70402],[133.88786,34.70235],[133.88109,34.69732],[133.87804,34.69544],[133.87402,34.6939],[133.86621,34.69197],[133.86295,34.69059],[133.86063,34.68911],[133.85427,34.68419],[133.85246,34.68311],[133.84859,34.68149],[133.84567,34.68075],[133.84173,34.68029],[133.8387,34.6802],[133.83142,34.6804],[133.82849,34.68023],[133.82483,34.67961],[133.82171,34.67856],[133.81939,34.67723],[133.81724,34.67542],[133.81563,34.67352],[133.81442,34.67139],[133.81402,34.67026],[133.81367,34.66827],[133.81395,34.66316],[133.8137,34.66044],[133.81288,34.65815],[133.8099,34.65326],[133.80889,34.65088],[133.80835,34.64815],[133.80788,34.64206],[133.80692,34.63836],[133.80586,34.63605],[133.8042,34.63342],[133.80272,34.63173],[133.80061,34.62998],[133.79797,34.62849],[133.79496,34.62742],[133.78891,34.62591],[133.78335,34.62483],[133.78061,34.62467],[133.77904,34.62476],[133.77285,34.62587],[133.77003,34.62621],[133.76746,34.62618],[133.7645,34.62581],[133.76172,34.62524],[133.7582,34.62427],[133.7482,34.62133],[133.74547,34.6203],[133.74288,34.61891],[133.74108,34.6175],[133.73665,34.61274],[133.73439,34.61074],[133.72913,34.60708],[133.72661,34.60563],[133.72446,34.60484],[133.72221,34.60442],[133.72022,34.60436],[133.71469,34.60476],[133.71125,34.60441],[133.70807,34.60332],[133.7043,34.60118],[133.70099,34.59896],[133.6984,34.59671],[133.69686,34.59478],[133.69376,34.58971],[133.69233,34.5881],[133.69053,34.58653],[133.68771,34.58475],[133.681,34.58186],[133.67812,34.58031],[133.67546,34.57842],[133.67037,34.57384],[133.66843,34.5723],[133.66472,34.56998],[133.66075,34.56814],[133.65845,34.56735],[133.65614,34.56678],[133.65368,34.56642],[133.65151,34.56629],[133.64706,34.5666],[133.64078,34.56796],[133.6384,34.56832],[133.63553,34.56836],[133.63312,34.56804],[133.63063,34.56735],[133.62767,34.56594],[133.62451,34.56376],[133.62013,34.56],[133.61679,34.55754],[133.6138,34.55586],[133.61089,34.55477],[133.6055,34.55358],[133.59362,34.55196],[133.58775,34.55168],[133.57993,34.55193],[133.57821,34.55178],[133.57662,34.55144],[133.57414,34.55046],[133.57162,34.54874],[133.57015,34.5471],[133.56758,34.54298],[133.56669,34.54186],[133.56458,34.53985],[133.5623,34.53835],[133.55882,34.53673],[133.55431,34.53511],[133.54917,34.5336],[133.5436,34.53236],[133.54038,34.53188],[133.53703,34.5316],[133.53416,34.53159],[133.532,34.53179],[133.52798,34.53264],[133.52094,34.53498],[133.51675,34.53561],[133.51216,34.5355],[133.50422,34.53472],[133.50163,34.53471],[133.4981,34.53497],[133.49467,34.53553],[133.491,34.53648],[133.48215,34.54],[133.4796,34.54077],[133.47582,34.54135],[133.47198,34.54126],[133.46915,34.54077],[133.46688,34.54014],[133.46199,34.53826],[133.45717,34.53564],[133.45011,34.53065],[133.44667,34.52872],[133.4431,34.5273],[133.43062,34.5234],[133.42821,34.5225],[133.42476,34.52063],[133.41999,34.51711],[133.41804,34.51591],[133.4147,34.51442],[133.41149,34.5135],[133.40866,34.51305],[133.40595,34.51292],[133.39695,34.51339],[133.39345,34.51408],[133.38885,34.51579],[133.38583,34.51659],[133.38117,34.51698],[133.37597,34.51702],[133.37239,34.51679],[133.36898,34.51627],[133.36586,34.51552],[133.35916,34.51349],[133.35575,34.51284],[133.35195,34.51254],[133.34484,34.51249],[133.34127,34.51192],[133.33917,34.51124],[133.3376,34.51052],[133.33311,34.50777],[133.32698,34.50352],[133.32001,34.49793],[133.31783,34.49556],[133.31602,34.49285],[133.31364,34.4872],[133.3121,34.48462],[133.30994,34.48252],[133.30685,34.48061],[133.30329,34.47905],[133.29837,34.47735],[133.29463,34.47636],[133.29066,34.47566],[133.2877,34.47537],[133.28372,34.47532],[133.27487,34.47591],[133.27025,34.47599],[133.26647,34.47566],[133.26281,34.47487],[133.25977,34.47382],[133.2559,34.47191],[133.2468,34.46591],[133.24286,34.46366],[133.23812,34.46151],[133.23452,34.46044],[133.23042,34.45995],[133.22622,34.46018],[133.22246,34.46098],[133.21654,34.46285],[133.21401,34.46315],[133.21191,34.46295],[133.20933,34.4624],[133.20665,34.46164],[133.20104,34.45963],[133.19893,34.45911],[133.19668,34.45881],[133.19442,34.45887],[133.1921,34.45924],[133.18886,34.46011],[133.18244,34.46215],[133.17962,34.46257],[133.17764,34.46256],[133.17579,34.46231],[133.1687,34.46044],[133.16691,34.4603],[133.16506,34.46042],[133.16235,34.4611],[133.15999,34.46228],[133.15877,34.46322],[133.15433,34.46728],[133.15161,34.46909],[133.15012,34.46973],[133.14827,34.47022],[133.14402,34.47077],[133.1418,34.47131],[133.13992,34.47213],[133.13591,34.47446],[133.13412,34.47515],[133.13247,34.47557],[133.11618,34.47702],[133.11171,34.47722],[133.10967,34.47705],[133.1079,34.47655],[133.10434,34.47494],[133.10236,34.47424],[133.10033,34.47392],[133.09863,34.47387],[133.09579,34.47405],[133.09281,34.47459],[133.08631,34.4768],[133.08421,34.47731],[133.08192,34.47746],[133.07967,34.47721],[133.07706,34.47639],[133.07428,34.47477],[133.07224,34.47321],[133.0677,34.4691],[133.06585,34.4678],[133.06436,34.467],[133.06085,34.46564],[133.05662,34.46439],[133.05327,34.4636],[133.05124,34.46334],[133.04909,34.46341],[133.0469,34.46385],[133.04482,34.46469],[133.04,34.46716],[133.03842,34.46761],[133.0339,34.46846],[133.03035,34.4694],[133.02777,34.47031],[133.02225,34.4726],[133.01994,34.47302],[133.01769,34.47296],[133.01607,34.47265],[133.01464,34.47215],[133.01296,34.47125],[133.01105,34.46991],[133.00844,34.46761],[133.00316,34.46214],[133.00113,34.46061],[132.99982,34.46002],[132.99811,34.45955],[132.98551,34.4576],[132.98228,34.45673],[132.97983,34.45532],[132.97619,34.45151],[132.97449,34.45021],[132.97239,34.4492],[132.96768,34.44765],[132.96579,34.4466],[132.96461,34.44559],[132.96355,34.44427],[132.95803,34.43494],[132.95503,34.43061],[132.95188,34.42693],[132.95053,34.42574],[132.94945,34.42505],[132.94706,34.42406],[132.94451,34.42356],[132.94234,34.4235],[132.93693,34.42376],[132.93487,34.42357],[132.92735,34.42134],[132.92534,34.421],[132.92328,34.42089],[132.92026,34.42116],[132.91797,34.42171],[132.90741,34.42597],[132.90581,34.42642],[132.90325,34.42684],[132.90008,34.42695],[132.8909,34.42671],[132.88638,34.4268],[132.88204,34.4273],[132.87487,34.42883],[132.8718,34.42913],[132.86408,34.42903],[132.85718,34.42942],[132.85521,34.42925],[132.84944,34.42819],[132.84606,34.42811],[132.84256,34.42862],[132.84019,34.42938],[132.83562,34.4312],[132.8337,34.43168],[132.8312,34.43201],[132.82896,34.43202],[132.82723,34.43185],[132.82095,34.43036],[132.81878,34.43012],[132.81743,34.43019],[132.81154,34.43105],[132.8034,34.43063],[132.80078,34.43079],[132.79864,34.43112],[132.79539,34.43199],[132.78836,34.43478],[132.78486,34.43571],[132.7781,34.43658],[132.77242,34.43837],[132.75868,34.44098],[132.75468,34.44151],[132.7479,34.44206],[132.74545,34.44253],[132.74288,34.44325],[132.73831,34.44502],[132.73487,34.44682],[132.73093,34.44939],[132.72604,34.45307],[132.72123,34.45523],[132.71684,34.45823],[132.71547,34.45892],[132.71226,34.45991],[132.70912,34.46051],[132.70687,34.46059],[132.70271,34.46019],[132.6998,34.46053],[132.69836,34.46105],[132.6913,34.46441],[132.68616,34.46639],[132.68138,34.46775],[132.67776,34.46833],[132.67511,34.46845],[132.67266,34.46831],[132.66987,34.46792],[132.66516,34.46687],[132.65753,34.46468],[132.6466,34.46084],[132.63993,34.4588],[132.63113,34.45671],[132.62801,34.4562],[132.62567,34.45606],[132.62343,34.45621],[132.62163,34.45655],[132.61972,34.45712],[132.61782,34.458],[132.61491,34.45996],[132.60965,34.46502],[132.60767,34.46632],[132.60612,34.46706],[132.60398,34.4678],[132.60133,34.46836],[132.59884,34.46852],[132.59594,34.46835],[132.59324,34.46781],[132.58692,34.46584],[132.58194,34.46534],[132.58015,34.465],[132.57767,34.46394],[132.57468,34.46171],[132.57283,34.46071],[132.57121,34.46022],[132.56684,34.45969],[132.56504,34.45917],[132.56354,34.45844],[132.56253,34.4577],[132.55856,34.45359],[132.556,34.45174],[132.55434,34.45092],[132.55272,34.45035],[132.55096,34.44998],[132.54908,34.44984],[132.54754,34.4499],[132.54569,34.4502],[132.54296,34.45113],[132.54079,34.45235],[132.53551,34.4566],[132.53228,34.45858],[132.52853,34.46031],[132.52273,34.46211],[132.51979,34.46259],[132.51786,34.46269],[132.51605,34.4626],[132.51136,34.46196],[132.50891,34.46198],[132.50631,34.46242],[132.50104,34.4644],[132.49849,34.46498],[132.48872,34.46551],[132.48296,34.46564],[132.4809,34.46551],[132.48034,34.46538],[132.47995,34.46508],[132.4795,34.46393],[132.47947,34.46285],[132.47995,34.4606],[132.47993,34.45963],[132.47928,34.45748],[132.47742,34.45294],[132.47533,34.44534],[132.47412,34.43983],[132.47301,34.43776],[132.46983,34.4338],[132.46937,34.43294],[132.46931,34.43205],[132.47029,34.42765],[132.46714,34.42472],[132.46573,34.42252],[132.4653,34.42097],[132.46525,34.41866],[132.46242,34.40965],[132.4621,34.40911],[132.45908,34.40615],[132.45676,34.39991],[132.45914,34.3993],[132.45918,34.39916],[132.45586,34.38979],[132.45103,34.39105],[132.45113,34.39142],[132.45132,34.39136]],"type":"LineString"}},{"type":"Feature","properties":{"name":"Tokyo, Japan"},"geometry":{"type":"Point","coordinates":[139.76389,35.67686]}},{"type":"Feature","properties":{"name":"Hakone, Japan"},"geometry":{"type":"Point","coordinates":[139.10688,35.23237]}},{"type":"Feature","properties":{"name":"Nagoya, Japan"},"geometry":{"type":"Point","coordinates":[136.89984,35.1851]}},{"type":"Feature","properties":{"name":"Kyoto, Japan"},"geometry":{"type":"Point","coordinates":[135.76814,35.01158]}},{"type":"Feature","properties":{"name":"Hiroshima, Japan"},"geometry":{"type":"Point","coordinates":[132.45176,34.39172]}}]}