{"type":"FeatureCollection","features":[{"type":"Feature","properties":{"name":"Bangkok, Thailand → Chiang Mai, Thailand"},"geometry":{"coordinates":[[100.49351,13.75247],[100.49278,13.75246],[100.49358,13.7531],[100.49467,13.75705],[100.49504,13.75744],[100.49585,13.7579],[100.49644,13.7579],[100.50126,13.75692],[100.50191,13.75704],[100.50247,13.75668],[100.50532,13.75614],[100.50919,13.75806],[100.51555,13.76172],[100.52088,13.75725],[100.52347,13.7562],[100.53152,13.7534],[100.53184,13.75353],[100.53756,13.76377],[100.53783,13.76509],[100.53813,13.76546],[100.53868,13.76541],[100.53934,13.76453],[100.54299,13.76282],[100.54754,13.76413],[100.54781,13.7644],[100.54916,13.76683],[100.55133,13.77017],[100.56056,13.78666],[100.56139,13.78912],[100.56152,13.79068],[100.56123,13.79436],[100.55714,13.83411],[100.55712,13.83599],[100.55737,13.83831],[100.55832,13.84155],[100.57563,13.87383],[100.58499,13.89024],[100.59262,13.90433],[100.61983,13.95283],[100.62072,13.95526],[100.62088,13.95687],[100.62074,13.95877],[100.61477,13.99273],[100.61468,13.99423],[100.61482,14.00313],[100.6186,14.10044],[100.61792,14.16918],[100.61767,14.17081],[100.61166,14.18815],[100.60997,14.19391],[100.60929,14.19736],[100.60886,14.20083],[100.60854,14.20715],[100.60919,14.21391],[100.61274,14.24007],[100.61326,14.24817],[100.613,14.3531],[100.61264,14.35954],[100.61151,14.36622],[100.61072,14.36924],[100.60901,14.37431],[100.60784,14.37713],[100.60578,14.3812],[100.60392,14.38434],[100.60209,14.38699],[100.60023,14.38947],[100.59707,14.39312],[100.59364,14.39646],[100.57286,14.41489],[100.56928,14.41774],[100.54656,14.43448],[100.54512,14.43587],[100.54374,14.43776],[100.54313,14.43887],[100.54226,14.44129],[100.53831,14.46194],[100.53751,14.4646],[100.53155,14.47781],[100.52412,14.49366],[100.51984,14.5053],[100.51867,14.50789],[100.5174,14.51016],[100.5158,14.51245],[100.51114,14.51797],[100.50957,14.52018],[100.50681,14.52546],[100.50541,14.52941],[100.49897,14.55176],[100.49685,14.55785],[100.49478,14.56275],[100.49252,14.56738],[100.49009,14.57169],[100.48078,14.5855],[100.47837,14.58943],[100.47241,14.59838],[100.4708,14.60107],[100.46972,14.60377],[100.46933,14.60524],[100.46898,14.60818],[100.46916,14.61154],[100.47441,14.64015],[100.47462,14.64527],[100.4744,14.64936],[100.47074,14.67129],[100.46957,14.67522],[100.46856,14.67766],[100.4675,14.67967],[100.45835,14.69396],[100.45712,14.69665],[100.45626,14.69928],[100.45565,14.70205],[100.45537,14.70518],[100.45547,14.71672],[100.45344,14.75247],[100.45285,14.7567],[100.45065,14.76848],[100.45076,14.77173],[100.4515,14.77515],[100.45219,14.77681],[100.45665,14.78561],[100.45725,14.78728],[100.45797,14.79049],[100.45792,14.79454],[100.45732,14.7975],[100.45592,14.80094],[100.45479,14.80275],[100.44906,14.81012],[100.44798,14.81213],[100.44685,14.81548],[100.44657,14.81697],[100.44639,14.81966],[100.44676,14.82668],[100.44745,14.83474],[100.4473,14.83894],[100.44701,14.84112],[100.43948,14.86729],[100.43759,14.87238],[100.43623,14.87501],[100.43332,14.8795],[100.42327,14.89441],[100.42157,14.89661],[100.41824,14.89963],[100.40985,14.90558],[100.40717,14.90841],[100.40605,14.91008],[100.39397,14.93314],[100.39143,14.93748],[100.36402,14.97241],[100.35965,14.97813],[100.35858,14.97979],[100.34533,15.00449],[100.34067,15.01354],[100.3393,15.01748],[100.33626,15.0335],[100.33539,15.03711],[100.33471,15.03909],[100.33322,15.0424],[100.32136,15.06514],[100.31952,15.06821],[100.3172,15.07118],[100.30777,15.08112],[100.30645,15.08275],[100.29144,15.1045],[100.28893,15.10747],[100.28584,15.11001],[100.27054,15.12007],[100.26834,15.12187],[100.2665,15.12397],[100.26517,15.12605],[100.25261,15.1509],[100.2491,15.15737],[100.24489,15.16343],[100.2333,15.17932],[100.23152,15.18205],[100.21606,15.20909],[100.21452,15.21219],[100.21262,15.21661],[100.21063,15.22269],[100.20709,15.23608],[100.20586,15.2412],[100.20302,15.25519],[100.20115,15.2623],[100.19434,15.28776],[100.19233,15.29439],[100.19106,15.29789],[100.18895,15.30274],[100.18791,15.30475],[100.1638,15.34826],[100.16179,15.3523],[100.15951,15.35787],[100.14763,15.39304],[100.14686,15.39808],[100.14703,15.41569],[100.14691,15.4182],[100.14623,15.42055],[100.14242,15.43083],[100.14206,15.43291],[100.14221,15.43417],[100.14606,15.4499],[100.14634,15.45256],[100.14611,15.45551],[100.14171,15.47331],[100.14126,15.4746],[100.1398,15.47745],[100.1335,15.48506],[100.13201,15.48734],[100.13083,15.49],[100.12567,15.50311],[100.12515,15.5052],[100.12507,15.50855],[100.12705,15.52351],[100.12673,15.52588],[100.12486,15.53104],[100.12461,15.53333],[100.12497,15.5357],[100.12775,15.54413],[100.12801,15.54642],[100.12113,15.61228],[100.12101,15.6148],[100.12069,15.61595],[100.12038,15.6164],[100.10918,15.62633],[100.06415,15.66487],[100.06165,15.66748],[100.05953,15.67039],[100.05829,15.67257],[100.05694,15.67578],[100.05618,15.67848],[100.05564,15.68254],[100.0558,15.70783],[100.05607,15.71041],[100.05752,15.71553],[100.05731,15.71756],[100.05699,15.71826],[100.05626,15.71882],[100.04868,15.72266],[100.04384,15.72542],[100.01544,15.7401],[100.01287,15.74156],[100.01145,15.74264],[99.97885,15.77687],[99.94754,15.81051],[99.94426,15.81429],[99.94283,15.8162],[99.94146,15.81846],[99.89398,15.90123],[99.88955,15.90783],[99.8832,15.91563],[99.87688,15.9231],[99.86151,15.94017],[99.8422,15.96109],[99.81946,15.98482],[99.79279,16.01122],[99.76267,16.03975],[99.74307,16.05762],[99.73688,16.0634],[99.73585,16.06463],[99.73405,16.06803],[99.71944,16.10246],[99.71891,16.10437],[99.71877,16.10661],[99.72022,16.13419],[99.72115,16.15675],[99.72114,16.15799],[99.72079,16.16027],[99.7086,16.19642],[99.68744,16.25808],[99.68136,16.27852],[99.68066,16.28043],[99.65521,16.31839],[99.65392,16.31968],[99.65276,16.3204],[99.61163,16.33821],[99.60283,16.34081],[99.60175,16.34132],[99.5941,16.34655],[99.58432,16.35131],[99.57282,16.35722],[99.55201,16.36865],[99.52418,16.3857],[99.52274,16.38693],[99.5218,16.38853],[99.52141,16.39063],[99.5213,16.41106],[99.52144,16.42169],[99.52108,16.42384],[99.52018,16.42544],[99.49978,16.44968],[99.49564,16.45489],[99.49522,16.45626],[99.49517,16.4573],[99.49597,16.46847],[99.49647,16.47685],[99.4964,16.47787],[99.49597,16.47915],[99.49502,16.48036],[99.48992,16.48386],[99.48273,16.49088],[99.4819,16.49218],[99.48144,16.49364],[99.4815,16.49525],[99.4837,16.50338],[99.48377,16.50565],[99.47557,16.52977],[99.47449,16.5314],[99.45028,16.5562],[99.44891,16.55776],[99.44811,16.55923],[99.44705,16.56172],[99.43879,16.58206],[99.43739,16.58472],[99.43596,16.58602],[99.43477,16.58666],[99.37209,16.61321],[99.36808,16.61512],[99.33138,16.64296],[99.30183,16.672],[99.30083,16.67264],[99.29948,16.67311],[99.29827,16.67323],[99.28525,16.67112],[99.28316,16.67104],[99.28182,16.67117],[99.27608,16.67247],[99.27093,16.67277],[99.2696,16.67316],[99.2687,16.67375],[99.26757,16.67502],[99.25956,16.68597],[99.237,16.71305],[99.21244,16.74152],[99.19174,16.76495],[99.18865,16.76818],[99.16697,16.78845],[99.15783,16.79525],[99.15087,16.7992],[99.14859,16.80097],[99.11816,16.83389],[99.11656,16.83601],[99.1136,16.84161],[99.11174,16.84556],[99.11151,16.84708],[99.11186,16.84893],[99.1126,16.85027],[99.11396,16.85138],[99.13777,16.86328],[99.13799,16.86356],[99.13798,16.8638],[99.12749,16.88049],[99.12701,16.88148],[99.12669,16.88321],[99.12679,16.88428],[99.12875,16.89108],[99.12905,16.8931],[99.12893,16.8941],[99.12747,16.89934],[99.12673,16.90097],[99.1215,16.90838],[99.11999,16.91078],[99.11621,16.9175],[99.11565,16.91965],[99.11571,16.92093],[99.11615,16.92252],[99.13116,16.96062],[99.13141,16.96306],[99.1304,16.97312],[99.13001,16.97442],[99.12895,16.97577],[99.1236,16.97893],[99.12239,16.98008],[99.11761,16.98895],[99.11308,16.99671],[99.1089,17.007],[99.10807,17.00867],[99.07779,17.04827],[99.07516,17.05284],[99.06635,17.06924],[99.0658,17.07049],[99.06544,17.07186],[99.06542,17.07339],[99.06557,17.07421],[99.06583,17.07505],[99.07253,17.08978],[99.07291,17.09128],[99.07477,17.10373],[99.07512,17.105],[99.07587,17.10634],[99.07684,17.10743],[99.07804,17.10834],[99.08531,17.11138],[99.08991,17.11398],[99.0911,17.1148],[99.09255,17.11631],[99.09843,17.1257],[99.10479,17.13304],[99.10613,17.13433],[99.12645,17.1467],[99.12816,17.14802],[99.12911,17.14964],[99.13234,17.15969],[99.13805,17.17537],[99.1382,17.1768],[99.13812,17.1781],[99.13755,17.18019],[99.12481,17.20249],[99.1243,17.20347],[99.12353,17.2058],[99.12323,17.20757],[99.12301,17.21482],[99.12266,17.23695],[99.12319,17.23878],[99.1338,17.26037],[99.14108,17.28316],[99.14269,17.29501],[99.14292,17.29572],[99.14697,17.30286],[99.14731,17.30378],[99.1539,17.33155],[99.15398,17.33347],[99.15348,17.3353],[99.15034,17.34026],[99.14951,17.34213],[99.14934,17.34389],[99.14946,17.35185],[99.14657,17.36353],[99.14662,17.36445],[99.14892,17.37372],[99.14903,17.37484],[99.14897,17.37699],[99.1479,17.38109],[99.14779,17.38337],[99.1494,17.39907],[99.1492,17.40662],[99.14954,17.40811],[99.1503,17.41007],[99.15605,17.41705],[99.15674,17.41816],[99.15706,17.41921],[99.16103,17.4687],[99.16139,17.4708],[99.16728,17.48937],[99.17802,17.5032],[99.1833,17.51027],[99.18371,17.51153],[99.18428,17.51657],[99.18467,17.51784],[99.20324,17.55946],[99.20348,17.5606],[99.20347,17.56176],[99.20186,17.57098],[99.2019,17.57205],[99.20239,17.57349],[99.20303,17.57448],[99.20387,17.57527],[99.21759,17.58445],[99.21878,17.58551],[99.2196,17.58669],[99.22003,17.58768],[99.22195,17.59446],[99.22979,17.61368],[99.23121,17.61602],[99.23555,17.62107],[99.23666,17.62293],[99.23744,17.62521],[99.23816,17.62831],[99.23947,17.63943],[99.24002,17.6412],[99.24269,17.64607],[99.24373,17.64751],[99.24496,17.64848],[99.24875,17.6509],[99.24959,17.65162],[99.25055,17.65307],[99.25095,17.65453],[99.25084,17.65628],[99.25047,17.65745],[99.25002,17.65818],[99.24905,17.65924],[99.24528,17.6623],[99.24449,17.66375],[99.24437,17.66527],[99.24504,17.66839],[99.24497,17.66982],[99.23914,17.68578],[99.23881,17.6864],[99.23785,17.68748],[99.23368,17.69006],[99.23287,17.6911],[99.23248,17.69213],[99.23243,17.69324],[99.23308,17.69588],[99.23315,17.697],[99.22951,17.70972],[99.22869,17.72089],[99.22966,17.72665],[99.23008,17.72793],[99.23273,17.73385],[99.23342,17.73715],[99.23348,17.73829],[99.23302,17.73983],[99.23103,17.74248],[99.23051,17.74339],[99.23034,17.7443],[99.23045,17.74536],[99.23116,17.7468],[99.23331,17.74919],[99.23364,17.74982],[99.23413,17.75155],[99.23476,17.75265],[99.23681,17.75444],[99.23993,17.75685],[99.24102,17.75802],[99.24185,17.75972],[99.24286,17.76346],[99.24351,17.76458],[99.24708,17.76774],[99.24766,17.76842],[99.24973,17.77536],[99.25035,17.77662],[99.25112,17.77743],[99.2588,17.78348],[99.26011,17.78482],[99.26687,17.80072],[99.26709,17.80231],[99.26629,17.80603],[99.26642,17.80691],[99.26683,17.80783],[99.27064,17.81245],[99.27136,17.81307],[99.27209,17.8135],[99.27385,17.81417],[99.28066,17.81644],[99.28164,17.81701],[99.28221,17.81762],[99.28253,17.81819],[99.28276,17.81922],[99.28272,17.82541],[99.28307,17.82667],[99.28366,17.82756],[99.28456,17.82825],[99.2856,17.82864],[99.28816,17.82924],[99.28939,17.83016],[99.29006,17.83161],[99.2901,17.83456],[99.29034,17.83564],[99.29086,17.83656],[99.29249,17.8385],[99.29339,17.84048],[99.29354,17.84191],[99.29342,17.84294],[99.29206,17.84889],[99.29231,17.85047],[99.29272,17.85134],[99.29329,17.85204],[99.29439,17.85286],[99.29532,17.85325],[99.30217,17.85411],[99.30318,17.8544],[99.30456,17.8554],[99.30869,17.85957],[99.31053,17.86049],[99.31566,17.86179],[99.32774,17.86244],[99.32936,17.86285],[99.33167,17.86413],[99.3333,17.86534],[99.33607,17.86762],[99.33692,17.86898],[99.3371,17.8701],[99.33695,17.87609],[99.34096,17.89935],[99.3418,17.91279],[99.34248,17.91455],[99.34408,17.91699],[99.34454,17.91804],[99.34839,17.93887],[99.35096,17.94342],[99.35162,17.94516],[99.35162,17.94674],[99.35068,17.95141],[99.35064,17.95288],[99.35086,17.95392],[99.35186,17.95568],[99.35399,17.95839],[99.35452,17.95983],[99.35437,17.96167],[99.35249,17.96754],[99.35238,17.96834],[99.35252,17.96945],[99.35283,17.9703],[99.35365,17.97146],[99.3552,17.97311],[99.35567,17.97403],[99.3559,17.97494],[99.35553,17.98083],[99.35693,17.98877],[99.35681,17.99006],[99.35529,17.99679],[99.355,17.99884],[99.3563,18.01018],[99.357,18.01188],[99.3585,18.01343],[99.37197,18.02172],[99.37285,18.02259],[99.37359,18.02395],[99.37381,18.02482],[99.37442,18.03223],[99.37496,18.03417],[99.37572,18.03599],[99.37679,18.03766],[99.38047,18.04262],[99.38292,18.04545],[99.38576,18.05129],[99.38837,18.05464],[99.38925,18.05642],[99.39053,18.06623],[99.39841,18.09906],[99.39863,18.10133],[99.39837,18.103],[99.3907,18.12967],[99.39047,18.1318],[99.39058,18.14095],[99.39081,18.14194],[99.39149,18.1433],[99.39199,18.144],[99.393,18.14487],[99.39491,18.14581],[99.39954,18.14692],[99.40072,18.14763],[99.4014,18.14847],[99.40172,18.14939],[99.40336,18.15869],[99.40887,18.17905],[99.40902,18.18074],[99.40692,18.18906],[99.40656,18.19016],[99.40614,18.19072],[99.40076,18.19332],[99.40035,18.19249],[99.4,18.19223],[99.39449,18.19109],[99.39341,18.19476],[99.39206,18.19671],[99.39098,18.19883],[99.39061,18.2008],[99.38972,18.20362],[99.38973,18.2065],[99.39006,18.20781],[99.38977,18.20837],[99.3898,18.2166],[99.38964,18.21816],[99.38983,18.21941],[99.38972,18.22018],[99.39001,18.23008],[99.39022,18.23055],[99.38983,18.23205],[99.389,18.24714],[99.38821,18.24992],[99.38803,18.25124],[99.38811,18.26299],[99.38877,18.26469],[99.3894,18.26492],[99.38937,18.2654],[99.389,18.26646],[99.38326,18.27799],[99.37292,18.29814],[99.3689,18.30414],[99.3658,18.30667],[99.36484,18.30811],[99.36451,18.30904],[99.36383,18.30958],[99.36333,18.31029],[99.36231,18.31246],[99.36227,18.31349],[99.36197,18.31441],[99.35987,18.31783],[99.34237,18.32061],[99.33765,18.32114],[99.33422,18.32108],[99.31574,18.31928],[99.31143,18.31928],[99.30699,18.32007],[99.28207,18.32687],[99.28064,18.32683],[99.27779,18.32577],[99.27656,18.32562],[99.27557,18.3258],[99.27344,18.32668],[99.27234,18.32677],[99.27093,18.32645],[99.26838,18.3253],[99.2667,18.32527],[99.26583,18.32557],[99.26481,18.32642],[99.26259,18.33018],[99.26199,18.33083],[99.26119,18.33123],[99.26006,18.33132],[99.25921,18.33105],[99.25742,18.32935],[99.25647,18.3289],[99.25534,18.32895],[99.25471,18.32926],[99.25435,18.32953],[99.25308,18.33127],[99.25136,18.33231],[99.25014,18.3344],[99.24787,18.33638],[99.24704,18.3376],[99.24668,18.33905],[99.24687,18.34165],[99.24669,18.34277],[99.24591,18.34434],[99.24395,18.3465],[99.24359,18.34744],[99.24361,18.34932],[99.2432,18.3518],[99.24308,18.35418],[99.2419,18.35612],[99.24101,18.35844],[99.24051,18.35894],[99.23865,18.36004],[99.23818,18.36048],[99.23776,18.36119],[99.23748,18.36509],[99.23646,18.36826],[99.23569,18.37154],[99.23442,18.37385],[99.23386,18.37571],[99.23217,18.37755],[99.23162,18.37786],[99.23078,18.37774],[99.2294,18.37684],[99.22834,18.37677],[99.22649,18.37782],[99.22485,18.37849],[99.22396,18.37919],[99.2231,18.38031],[99.22214,18.38218],[99.21886,18.38731],[99.21672,18.39184],[99.21564,18.39437],[99.21518,18.39687],[99.21424,18.3986],[99.21412,18.40062],[99.21272,18.40275],[99.21246,18.40515],[99.21138,18.40692],[99.20971,18.41023],[99.20963,18.41099],[99.20978,18.41235],[99.2094,18.41334],[99.20936,18.41494],[99.20881,18.41718],[99.2093,18.41938],[99.20931,18.42393],[99.20845,18.42572],[99.20799,18.42788],[99.20733,18.42941],[99.20694,18.432],[99.20599,18.43379],[99.20571,18.43465],[99.20522,18.43793],[99.20517,18.43953],[99.20471,18.44168],[99.20494,18.44423],[99.20482,18.44528],[99.20388,18.44756],[99.2027,18.45151],[99.20209,18.45246],[99.20079,18.45338],[99.19748,18.45392],[99.18707,18.45769],[99.18335,18.45956],[99.18055,18.46047],[99.17833,18.46144],[99.17278,18.46229],[99.17162,18.46222],[99.16914,18.46144],[99.16789,18.46126],[99.16664,18.46136],[99.16357,18.46215],[99.1603,18.4621],[99.15919,18.46242],[99.15834,18.46291],[99.15556,18.46539],[99.15365,18.46602],[99.14941,18.46578],[99.14599,18.46709],[99.14495,18.4672],[99.14361,18.4671],[99.14227,18.46661],[99.13844,18.46426],[99.13592,18.46336],[99.13422,18.46244],[99.1336,18.46226],[99.13237,18.46243],[99.13081,18.4635],[99.12907,18.46419],[99.12812,18.46511],[99.12766,18.46638],[99.12714,18.47605],[99.12724,18.47834],[99.12776,18.48022],[99.13186,18.49048],[99.13272,18.49156],[99.13453,18.4926],[99.13504,18.49341],[99.13512,18.49573],[99.13573,18.49787],[99.13533,18.49925],[99.1329,18.50234],[99.13035,18.50666],[99.12822,18.50981],[99.1274,18.51045],[99.12657,18.51073],[99.12504,18.51064],[99.11975,18.50692],[99.11874,18.50643],[99.11733,18.5062],[99.10084,18.50835],[99.09972,18.50861],[99.0989,18.509],[99.09755,18.51004],[99.09089,18.51724],[99.08358,18.5252],[99.07454,18.53564],[99.07291,18.53725],[99.05106,18.55029],[99.04903,18.55191],[99.04774,18.55336],[99.04654,18.55566],[99.04596,18.55761],[99.04242,18.58195],[99.04209,18.58651],[99.04328,18.60538],[99.04375,18.60916],[99.05265,18.64054],[99.05314,18.64272],[99.0533,18.64434],[99.05322,18.64762],[99.04943,18.6922],[99.04889,18.69761],[99.04858,18.69905],[99.03014,18.75912],[99.02783,18.77412],[99.02656,18.78353],[99.0052,18.78767],[99.00251,18.78757],[98.9989,18.78833],[98.99387,18.78793],[98.99347,18.78673],[98.99334,18.78518],[98.9931,18.78514],[98.99315,18.78778],[98.98588,18.78829]],"type":"LineString"}},{"type":"Feature","properties":{"name":"Luang Prabang, Laos → Vientiane, Laos"},"geometry":{"coordinates":[[102.13641,19.88824],[102.13649,19.88797],[102.13786,19.88907],[102.14154,19.88467],[102.14203,19.8835],[102.14238,19.8811],[102.14318,19.87954],[102.14418,19.87988],[102.14516,19.88106],[102.14555,19.88127],[102.15133,19.88197],[102.15185,19.88232],[102.15323,19.8828],[102.15382,19.88325],[102.15467,19.88294],[102.15592,19.88328],[102.15619,19.88359],[102.15643,19.8845],[102.15662,19.88465],[102.16063,19.88514],[102.16131,19.88473],[102.16179,19.88369],[102.16259,19.88316],[102.16324,19.88221],[102.16423,19.88161],[102.16644,19.88165],[102.16706,19.88061],[102.16774,19.88023],[102.16923,19.88046],[102.17042,19.88022],[102.17214,19.88026],[102.17402,19.87953],[102.1751,19.88015],[102.17633,19.88047],[102.17736,19.88185],[102.17776,19.88216],[102.1798,19.88309],[102.18303,19.88402],[102.18513,19.88422],[102.18619,19.88406],[102.18729,19.88345],[102.18881,19.8834],[102.18965,19.88352],[102.19093,19.88406],[102.19123,19.88372],[102.1914,19.881],[102.19161,19.88057],[102.19218,19.88028],[102.19376,19.88024],[102.19466,19.87989],[102.19781,19.88011],[102.20106,19.88232],[102.20163,19.88255],[102.20206,19.88239],[102.20289,19.88155],[102.2049,19.88048],[102.20619,19.87901],[102.20745,19.87852],[102.20777,19.87763],[102.20801,19.87741],[102.20905,19.87739],[102.21027,19.87804],[102.21076,19.8781],[102.21286,19.878],[102.21473,19.87751],[102.21486,19.87717],[102.21464,19.87625],[102.21469,19.87557],[102.21571,19.87305],[102.21601,19.87097],[102.21768,19.86467],[102.21762,19.86288],[102.21669,19.86205],[102.21646,19.86003],[102.21507,19.85695],[102.21366,19.85609],[102.21194,19.85472],[102.21074,19.85262],[102.21015,19.85116],[102.20839,19.84963],[102.20673,19.84644],[102.20583,19.84198],[102.20421,19.83916],[102.20383,19.83899],[102.20378,19.83838],[102.20312,19.83728],[102.201,19.83568],[102.19981,19.83532],[102.19776,19.83438],[102.19724,19.83377],[102.19694,19.83133],[102.1965,19.82994],[102.19697,19.82475],[102.19752,19.82252],[102.19766,19.81818],[102.19831,19.81632],[102.19907,19.81514],[102.20074,19.81336],[102.2012,19.81233],[102.20124,19.8116],[102.20073,19.80874],[102.19922,19.80675],[102.19429,19.80214],[102.19214,19.80078],[102.19195,19.7999],[102.19281,19.79702],[102.19274,19.79575],[102.19231,19.79483],[102.18899,19.79102],[102.18785,19.78914],[102.18617,19.78807],[102.18524,19.78782],[102.18208,19.78549],[102.17916,19.78223],[102.17887,19.78132],[102.17806,19.7803],[102.17789,19.77968],[102.18003,19.77335],[102.1802,19.77094],[102.17981,19.76897],[102.17901,19.76803],[102.17876,19.76748],[102.17869,19.76668],[102.17889,19.7658],[102.17755,19.76497],[102.16773,19.76222],[102.16696,19.76133],[102.16611,19.75987],[102.16545,19.75753],[102.16294,19.75304],[102.1621,19.74928],[102.16216,19.74879],[102.16258,19.74844],[102.1643,19.74781],[102.16458,19.74757],[102.16482,19.74685],[102.16474,19.74633],[102.16215,19.74275],[102.16057,19.74113],[102.15912,19.73759],[102.15696,19.73543],[102.15615,19.73416],[102.15409,19.7298],[102.15351,19.72902],[102.15224,19.72788],[102.15207,19.72709],[102.15222,19.72562],[102.15187,19.72483],[102.15061,19.72397],[102.14982,19.72219],[102.14718,19.71945],[102.14638,19.71792],[102.14633,19.71628],[102.14598,19.71536],[102.14463,19.71366],[102.1431,19.71262],[102.14278,19.71224],[102.14178,19.71011],[102.14031,19.70857],[102.13961,19.70695],[102.13673,19.70378],[102.13431,19.70183],[102.13293,19.70092],[102.13124,19.69855],[102.13018,19.69782],[102.12907,19.69753],[102.12886,19.69733],[102.12775,19.69554],[102.12728,19.69264],[102.12596,19.69062],[102.12443,19.68906],[102.12271,19.6877],[102.12161,19.68593],[102.11914,19.68464],[102.11728,19.68138],[102.11607,19.68067],[102.11447,19.67793],[102.11332,19.67693],[102.10871,19.67149],[102.10696,19.66838],[102.10664,19.66799],[102.10548,19.66726],[102.10352,19.66368],[102.10048,19.66138],[102.09796,19.65819],[102.09702,19.65732],[102.09564,19.65642],[102.09478,19.65493],[102.09311,19.65429],[102.09191,19.65291],[102.09126,19.65254],[102.09032,19.65232],[102.08843,19.6522],[102.08812,19.6518],[102.08787,19.64984],[102.08754,19.64949],[102.08633,19.64891],[102.08573,19.64817],[102.08474,19.64734],[102.08352,19.6452],[102.08327,19.64391],[102.08287,19.64331],[102.0804,19.64185],[102.07722,19.63941],[102.07641,19.63799],[102.07476,19.63738],[102.07244,19.6353],[102.0718,19.63492],[102.07051,19.63452],[102.06673,19.63105],[102.06509,19.63049],[102.06276,19.62901],[102.06177,19.62778],[102.06166,19.62688],[102.06143,19.62662],[102.06024,19.62588],[102.05524,19.62192],[102.055,19.62165],[102.05483,19.62074],[102.05372,19.61968],[102.05348,19.61902],[102.05194,19.61814],[102.05018,19.61677],[102.04937,19.61635],[102.04925,19.61535],[102.04803,19.61439],[102.04732,19.61291],[102.04687,19.61241],[102.04436,19.61093],[102.04285,19.60969],[102.0401,19.60645],[102.03809,19.6052],[102.03742,19.60444],[102.03548,19.60358],[102.0346,19.60292],[102.03339,19.60165],[102.03253,19.60154],[102.03211,19.60125],[102.03105,19.60001],[102.02975,19.59967],[102.02957,19.59951],[102.02951,19.5987],[102.02798,19.59606],[102.02667,19.59538],[102.02556,19.59536],[102.0251,19.59505],[102.0249,19.59447],[102.02498,19.59352],[102.0244,19.59302],[102.02402,19.59244],[102.0238,19.59172],[102.02378,19.59055],[102.02352,19.58991],[102.02309,19.5894],[102.02178,19.58846],[102.02127,19.5876],[102.02049,19.58726],[102.01924,19.58564],[102.01757,19.58466],[102.01748,19.58377],[102.01509,19.58233],[102.01461,19.58115],[102.01378,19.58069],[102.01305,19.57979],[102.01106,19.57844],[102.00956,19.57651],[102.00908,19.5764],[102.00813,19.57688],[102.00682,19.57706],[102.00636,19.57678],[102.00447,19.57483],[102.00408,19.57426],[102.0037,19.57326],[102.00409,19.57117],[102.00331,19.56943],[102.00267,19.5675],[102.00201,19.56676],[102.00038,19.56598],[101.99726,19.5625],[101.99693,19.56185],[101.99711,19.56015],[101.99757,19.5591],[101.99785,19.55685],[101.99779,19.5557],[101.99716,19.55284],[101.99777,19.54778],[101.99746,19.54615],[101.996,19.54459],[101.99364,19.54288],[101.99315,19.54149],[101.99158,19.54003],[101.99138,19.53865],[101.98865,19.53681],[101.98682,19.53478],[101.98651,19.53405],[101.98561,19.53317],[101.98561,19.53226],[101.98542,19.53186],[101.98363,19.53162],[101.98233,19.53035],[101.98215,19.52996],[101.98244,19.5288],[101.98164,19.52795],[101.9814,19.52513],[101.9809,19.52425],[101.98242,19.52266],[101.983,19.52121],[101.98376,19.52088],[101.98409,19.52049],[101.9847,19.51903],[101.98567,19.51815],[101.98644,19.51689],[101.98664,19.51563],[101.98639,19.51446],[101.9871,19.51357],[101.98829,19.51318],[101.9891,19.51336],[101.99036,19.51326],[101.99262,19.51361],[101.99313,19.51328],[101.99364,19.51231],[101.99462,19.51196],[101.99616,19.51223],[101.99747,19.51323],[101.99852,19.51347],[101.99895,19.51114],[102.00028,19.5106],[102.00184,19.50966],[102.00374,19.50891],[102.00362,19.50784],[102.00373,19.50751],[102.00428,19.50642],[102.00481,19.50597],[102.00537,19.50595],[102.00719,19.50649],[102.00903,19.50567],[102.00995,19.50559],[102.01058,19.50604],[102.01204,19.50759],[102.01437,19.50783],[102.01471,19.50772],[102.01523,19.5071],[102.0167,19.5071],[102.01786,19.50644],[102.01909,19.50641],[102.02377,19.50529],[102.02637,19.50492],[102.02727,19.5046],[102.02868,19.50443],[102.02961,19.50415],[102.03087,19.50417],[102.03228,19.50364],[102.03382,19.50389],[102.03524,19.50323],[102.03671,19.50062],[102.03824,19.49918],[102.04006,19.49949],[102.04094,19.49943],[102.04134,19.49984],[102.04211,19.50014],[102.04446,19.5002],[102.04467,19.49992],[102.04469,19.49917],[102.04578,19.4987],[102.04672,19.49782],[102.04657,19.49756],[102.0451,19.4965],[102.04376,19.49598],[102.04371,19.49513],[102.04474,19.49418],[102.04637,19.4938],[102.04648,19.49162],[102.04671,19.49121],[102.04716,19.4909],[102.04919,19.49034],[102.0505,19.4912],[102.05084,19.49113],[102.05269,19.48956],[102.05484,19.48859],[102.0559,19.48716],[102.05767,19.48693],[102.05817,19.48622],[102.05826,19.48522],[102.05914,19.48502],[102.0596,19.4846],[102.05952,19.4835],[102.05919,19.48242],[102.05857,19.48189],[102.05782,19.48063],[102.05544,19.47815],[102.05413,19.47704],[102.05422,19.476],[102.0535,19.47479],[102.05285,19.47429],[102.05298,19.47358],[102.0535,19.47326],[102.05507,19.47309],[102.05626,19.47237],[102.05688,19.47158],[102.05718,19.47163],[102.0578,19.47224],[102.05805,19.47221],[102.05829,19.47076],[102.05888,19.46995],[102.05923,19.46994],[102.05979,19.47035],[102.06048,19.4697],[102.06269,19.46961],[102.06332,19.46897],[102.06343,19.46789],[102.06387,19.46726],[102.06417,19.46702],[102.06503,19.46703],[102.06532,19.46673],[102.06562,19.46613],[102.06561,19.46525],[102.06638,19.46413],[102.06676,19.46411],[102.06739,19.46452],[102.06815,19.46458],[102.06929,19.46415],[102.07061,19.46412],[102.07153,19.46389],[102.07188,19.46359],[102.07209,19.46242],[102.07248,19.46223],[102.07476,19.46327],[102.07612,19.46315],[102.07763,19.46352],[102.07824,19.46347],[102.0795,19.46285],[102.0799,19.46282],[102.08089,19.46375],[102.08185,19.46385],[102.08223,19.46404],[102.08279,19.46451],[102.08356,19.46578],[102.08416,19.46602],[102.08564,19.46602],[102.08649,19.46491],[102.08718,19.46462],[102.08811,19.4646],[102.08966,19.46503],[102.09064,19.46494],[102.09148,19.46528],[102.09307,19.46553],[102.09532,19.4652],[102.09676,19.46461],[102.09766,19.46345],[102.09919,19.46222],[102.10139,19.46126],[102.10257,19.46008],[102.10468,19.45906],[102.10609,19.45779],[102.1075,19.4562],[102.10898,19.45576],[102.10976,19.455],[102.11336,19.45361],[102.11442,19.45219],[102.11499,19.45182],[102.11488,19.45106],[102.11575,19.45028],[102.11539,19.44927],[102.11541,19.44878],[102.11645,19.44626],[102.1166,19.4451],[102.11707,19.44396],[102.11738,19.44365],[102.11864,19.44335],[102.1195,19.44268],[102.12112,19.44211],[102.12258,19.44197],[102.12348,19.44235],[102.12446,19.4425],[102.12492,19.44315],[102.12522,19.44328],[102.12599,19.44273],[102.12653,19.44198],[102.12772,19.44151],[102.12921,19.44244],[102.13222,19.44245],[102.1344,19.44095],[102.13552,19.43988],[102.13617,19.43741],[102.13567,19.43518],[102.13715,19.43292],[102.13676,19.4306],[102.13683,19.43018],[102.13831,19.42829],[102.13838,19.42683],[102.13856,19.4263],[102.14181,19.42206],[102.1417,19.42181],[102.14043,19.42154],[102.13995,19.42125],[102.13961,19.42017],[102.1397,19.41962],[102.14041,19.41908],[102.14062,19.41846],[102.14084,19.41833],[102.14107,19.41838],[102.14154,19.4191],[102.14184,19.41908],[102.14263,19.41676],[102.14287,19.41647],[102.14389,19.41664],[102.14496,19.4164],[102.14525,19.41531],[102.14556,19.41499],[102.14688,19.41521],[102.14685,19.41297],[102.1471,19.41274],[102.14869,19.41263],[102.14903,19.41127],[102.14881,19.41027],[102.1473,19.40965],[102.14752,19.40905],[102.14749,19.40863],[102.14679,19.40774],[102.1475,19.40723],[102.14721,19.4059],[102.14668,19.40565],[102.14348,19.40576],[102.14307,19.40515],[102.14299,19.40422],[102.14193,19.40312],[102.14258,19.40172],[102.14357,19.40159],[102.14375,19.40144],[102.14384,19.40078],[102.14358,19.39954],[102.14378,19.39895],[102.14412,19.39867],[102.14487,19.39848],[102.14565,19.39776],[102.14584,19.39737],[102.14531,19.39584],[102.14456,19.39545],[102.14418,19.39458],[102.1433,19.39399],[102.14302,19.39351],[102.14315,19.39258],[102.14413,19.39158],[102.14423,19.39037],[102.1437,19.38989],[102.14334,19.38978],[102.1425,19.39046],[102.14153,19.39054],[102.14092,19.39099],[102.14014,19.39076],[102.13761,19.39055],[102.1363,19.39072],[102.13577,19.39055],[102.13493,19.38989],[102.1349,19.38966],[102.13526,19.38944],[102.13653,19.39011],[102.13774,19.38983],[102.13804,19.38966],[102.13864,19.38877],[102.13967,19.38873],[102.14063,19.3882],[102.14103,19.38721],[102.14169,19.38639],[102.14191,19.38465],[102.14251,19.38314],[102.14291,19.38274],[102.14413,19.38224],[102.14487,19.38236],[102.14556,19.38305],[102.14585,19.38367],[102.14616,19.38556],[102.14673,19.38575],[102.14717,19.38567],[102.14829,19.38456],[102.14874,19.38443],[102.14896,19.38464],[102.14895,19.38552],[102.14983,19.38596],[102.15007,19.38697],[102.15031,19.38712],[102.15089,19.38705],[102.15185,19.38552],[102.15201,19.38448],[102.1533,19.38268],[102.15404,19.38181],[102.15452,19.38153],[102.15529,19.38005],[102.15596,19.37984],[102.15632,19.37932],[102.15683,19.37896],[102.15703,19.37813],[102.15824,19.37726],[102.15879,19.37622],[102.15874,19.376],[102.15852,19.37602],[102.15807,19.37661],[102.15728,19.37697],[102.15687,19.37681],[102.1568,19.37638],[102.15766,19.37583],[102.15801,19.37484],[102.159,19.37398],[102.15932,19.3723],[102.15999,19.37184],[102.16007,19.37105],[102.16101,19.37048],[102.16108,19.3696],[102.16087,19.36887],[102.161,19.36848],[102.16054,19.36782],[102.16053,19.36748],[102.16104,19.36719],[102.16188,19.36736],[102.1621,19.36701],[102.16183,19.36647],[102.16127,19.36615],[102.16092,19.36677],[102.1602,19.36679],[102.15967,19.36711],[102.1594,19.36708],[102.15969,19.36588],[102.15945,19.36562],[102.15815,19.36698],[102.15787,19.36696],[102.15774,19.36659],[102.15791,19.36603],[102.15895,19.36458],[102.15929,19.36238],[102.15916,19.36165],[102.15794,19.36147],[102.15773,19.36124],[102.15796,19.3596],[102.15892,19.35471],[102.16021,19.35147],[102.16121,19.34961],[102.16103,19.34847],[102.16293,19.34689],[102.16337,19.34625],[102.16497,19.3428],[102.16545,19.34043],[102.16648,19.33728],[102.16884,19.33235],[102.17102,19.33045],[102.17279,19.32787],[102.17418,19.32755],[102.17729,19.32428],[102.17754,19.32373],[102.17723,19.32058],[102.17724,19.31902],[102.17847,19.31457],[102.17792,19.31309],[102.17777,19.31061],[102.17694,19.30852],[102.1732,19.3051],[102.17203,19.3035],[102.17113,19.29626],[102.16857,19.29441],[102.16578,19.29316],[102.16486,19.29259],[102.16396,19.29154],[102.16306,19.28979],[102.1629,19.28741],[102.16353,19.28488],[102.16365,19.28156],[102.16481,19.28075],[102.16518,19.28021],[102.16814,19.27726],[102.17178,19.27449],[102.17284,19.27338],[102.17398,19.27183],[102.17518,19.27128],[102.17717,19.27077],[102.17883,19.2709],[102.18387,19.27048],[102.18626,19.27051],[102.18848,19.27024],[102.18956,19.27101],[102.19031,19.27092],[102.19074,19.27105],[102.19187,19.27191],[102.19215,19.27258],[102.19253,19.27291],[102.1939,19.2731],[102.19646,19.27422],[102.19818,19.27554],[102.1994,19.27575],[102.20019,19.27667],[102.20075,19.2753],[102.20116,19.27524],[102.20213,19.27551],[102.20287,19.27478],[102.20326,19.27397],[102.203,19.27279],[102.20374,19.27193],[102.2044,19.27175],[102.20596,19.27172],[102.20611,19.27201],[102.20578,19.27316],[102.2059,19.27328],[102.20629,19.27323],[102.20681,19.27279],[102.20692,19.27186],[102.20713,19.27146],[102.21062,19.27111],[102.21185,19.2705],[102.21229,19.27051],[102.21368,19.27121],[102.21503,19.27091],[102.21584,19.2713],[102.21617,19.27177],[102.21701,19.2739],[102.2171,19.27527],[102.21749,19.27553],[102.2205,19.27521],[102.22342,19.27398],[102.22701,19.27058],[102.22888,19.26783],[102.23113,19.26532],[102.23181,19.26297],[102.23346,19.2613],[102.23359,19.25697],[102.23501,19.25368],[102.23951,19.25191],[102.24164,19.25285],[102.24418,19.25269],[102.24546,19.25293],[102.24726,19.25156],[102.25046,19.23969],[102.25325,19.23697],[102.25319,19.23608],[102.25246,19.23375],[102.25289,19.23179],[102.25198,19.22656],[102.25202,19.22628],[102.25253,19.22575],[102.25191,19.2235],[102.24778,19.21481],[102.24726,19.2142],[102.24513,19.21263],[102.24453,19.20963],[102.24116,19.20682],[102.24,19.20543],[102.23967,19.20459],[102.23714,19.19332],[102.23778,19.18611],[102.2357,19.18059],[102.23533,19.17997],[102.23339,19.17801],[102.23204,19.17427],[102.23181,19.17299],[102.23056,19.17099],[102.22974,19.17044],[102.22677,19.16959],[102.2255,19.16867],[102.22386,19.16348],[102.22348,19.16292],[102.22201,19.1615],[102.22181,19.16067],[102.22108,19.15943],[102.22109,19.15806],[102.22075,19.15755],[102.22021,19.15701],[102.21769,19.15559],[102.21496,19.15461],[102.21279,19.15148],[102.21267,19.14803],[102.21315,19.14731],[102.21456,19.14602],[102.21527,19.14407],[102.21742,19.14239],[102.21877,19.13835],[102.22069,19.13356],[102.22152,19.13212],[102.22243,19.13189],[102.22773,19.13165],[102.2317,19.13178],[102.23466,19.13122],[102.23518,19.13105],[102.23679,19.12983],[102.23747,19.12954],[102.23833,19.12855],[102.24087,19.12748],[102.25094,19.12533],[102.25412,19.1238],[102.25919,19.12362],[102.25977,19.12377],[102.26024,19.1241],[102.26092,19.12546],[102.26102,19.12645],[102.26202,19.12751],[102.26257,19.12785],[102.28541,19.13354],[102.28591,19.13384],[102.2883,19.1363],[102.29042,19.13755],[102.29082,19.13885],[102.29138,19.13989],[102.29112,19.14103],[102.29121,19.14135],[102.29151,19.14125],[102.29182,19.14068],[102.29203,19.14015],[102.29194,19.13927],[102.2922,19.13895],[102.29276,19.13871],[102.2935,19.1388],[102.29438,19.13857],[102.29578,19.13884],[102.30187,19.13941],[102.30429,19.14004],[102.30494,19.13991],[102.30624,19.13906],[102.30749,19.13894],[102.31104,19.14078],[102.31205,19.14176],[102.31418,19.14134],[102.31594,19.14164],[102.31714,19.14158],[102.31755,19.14132],[102.3179,19.13998],[102.31817,19.13965],[102.32113,19.13944],[102.32176,19.13903],[102.32242,19.1377],[102.32511,19.13706],[102.32586,19.13675],[102.32985,19.1326],[102.33221,19.13244],[102.3347,19.13154],[102.3353,19.1312],[102.33566,19.13045],[102.33592,19.13023],[102.33739,19.13055],[102.33794,19.13052],[102.34085,19.12899],[102.34307,19.12694],[102.34716,19.12495],[102.34786,19.12491],[102.34834,19.12508],[102.3506,19.12664],[102.35226,19.12714],[102.3562,19.12937],[102.35671,19.1295],[102.35717,19.12938],[102.35776,19.12851],[102.35865,19.12577],[102.35879,19.1246],[102.35861,19.12262],[102.35875,19.12201],[102.36313,19.11824],[102.36423,19.11777],[102.36793,19.11706],[102.36881,19.11674],[102.37053,19.11502],[102.37172,19.11427],[102.37265,19.11334],[102.37387,19.11143],[102.37531,19.11039],[102.37598,19.1101],[102.37687,19.10986],[102.37772,19.10984],[102.38718,19.11029],[102.38836,19.11014],[102.38931,19.10978],[102.398,19.105],[102.40276,19.10066],[102.40315,19.10011],[102.40348,19.09945],[102.40446,19.09573],[102.40483,19.09489],[102.40881,19.08817],[102.41032,19.08637],[102.41247,19.08488],[102.41564,19.08315],[102.41758,19.08252],[102.41927,19.08219],[102.422,19.08118],[102.42319,19.08038],[102.42468,19.07881],[102.42626,19.07789],[102.42713,19.0778],[102.42821,19.078],[102.42885,19.07787],[102.43019,19.07686],[102.43044,19.0764],[102.43026,19.07182],[102.42908,19.06684],[102.42915,19.0656],[102.43001,19.06277],[102.43019,19.06051],[102.42967,19.05752],[102.42989,19.0538],[102.43058,19.05232],[102.43528,19.04413],[102.4358,19.04337],[102.43763,19.04143],[102.43816,19.03971],[102.43825,19.03788],[102.43857,19.03686],[102.44183,19.03056],[102.44556,19.02656],[102.44652,19.02317],[102.44655,19.02061],[102.44694,19.01975],[102.44653,19.01749],[102.44655,19.01611],[102.44612,19.01265],[102.44643,19.01022],[102.44868,19.00369],[102.44875,18.99756],[102.44776,18.9944],[102.44636,18.99294],[102.44534,18.99002],[102.44513,18.98603],[102.4453,18.98537],[102.44579,18.98464],[102.44871,18.98122],[102.45042,18.97646],[102.44836,18.96726],[102.44853,18.96415],[102.44757,18.96116],[102.44784,18.95839],[102.44798,18.95247],[102.44858,18.94994],[102.44808,18.94461],[102.44873,18.93499],[102.44886,18.93424],[102.44993,18.93159],[102.45105,18.93095],[102.45138,18.93032],[102.45167,18.92711],[102.45076,18.91939],[102.45088,18.91868],[102.45802,18.90847],[102.45454,18.90624],[102.45735,18.90312],[102.45763,18.9022],[102.45759,18.90086],[102.45713,18.89941],[102.45565,18.89671],[102.45362,18.89362],[102.45136,18.89108],[102.4472,18.88723],[102.43954,18.8811],[102.43264,18.87532],[102.43116,18.87404],[102.42963,18.87242],[102.42795,18.87037],[102.42317,18.86337],[102.42241,18.86137],[102.4215,18.85824],[102.42064,18.85699],[102.41703,18.85362],[102.41248,18.84994],[102.41065,18.84784],[102.40939,18.84583],[102.4087,18.84451],[102.40791,18.84149],[102.40679,18.81977],[102.40688,18.81619],[102.4073,18.81156],[102.40882,18.80351],[102.40877,18.79639],[102.40777,18.79208],[102.40515,18.78527],[102.40472,18.78353],[102.40405,18.77912],[102.40361,18.77747],[102.4029,18.77583],[102.40176,18.77385],[102.39294,18.76308],[102.38935,18.75711],[102.37929,18.73879],[102.37722,18.73552],[102.3754,18.73307],[102.37248,18.7297],[102.36059,18.71863],[102.3574,18.71487],[102.35444,18.70978],[102.35346,18.70756],[102.35137,18.70138],[102.35,18.69844],[102.34745,18.69446],[102.34467,18.69117],[102.34223,18.6886],[102.34022,18.68589],[102.33849,18.68244],[102.3377,18.68023],[102.33448,18.66854],[102.33297,18.66381],[102.33152,18.66072],[102.32831,18.65572],[102.32577,18.65053],[102.32476,18.64741],[102.32172,18.6357],[102.32108,18.63156],[102.321,18.62717],[102.32138,18.62287],[102.32577,18.60136],[102.32629,18.59807],[102.32657,18.59419],[102.32671,18.58128],[102.3271,18.57731],[102.32792,18.57383],[102.32915,18.57074],[102.33075,18.56764],[102.33269,18.56475],[102.33602,18.56116],[102.33749,18.5599],[102.34025,18.55793],[102.34402,18.55578],[102.36305,18.54596],[102.36533,18.54461],[102.36708,18.54332],[102.3689,18.54172],[102.37065,18.53989],[102.37282,18.53694],[102.37486,18.53302],[102.38357,18.51241],[102.38507,18.50923],[102.38853,18.50374],[102.39388,18.49748],[102.39527,18.49537],[102.39732,18.49196],[102.39911,18.48795],[102.4002,18.48463],[102.4007,18.48245],[102.40124,18.47842],[102.40131,18.47495],[102.40079,18.46533],[102.4008,18.45803],[102.4013,18.45423],[102.40326,18.44678],[102.40402,18.44167],[102.40436,18.42513],[102.40498,18.41882],[102.40613,18.41392],[102.40688,18.4116],[102.41426,18.39163],[102.41565,18.38683],[102.41646,18.38221],[102.41662,18.37817],[102.41647,18.37341],[102.4155,18.36249],[102.41516,18.35519],[102.41526,18.35309],[102.41614,18.3492],[102.41693,18.34704],[102.41832,18.34426],[102.42116,18.34057],[102.42249,18.33925],[102.44131,18.32288],[102.44513,18.31893],[102.44818,18.31492],[102.45122,18.30976],[102.45334,18.30477],[102.45606,18.2975],[102.45801,18.29281],[102.4623,18.28541],[102.46356,18.28295],[102.46734,18.27306],[102.46962,18.26877],[102.47172,18.26536],[102.47423,18.25959],[102.47514,18.25598],[102.47739,18.2449],[102.47792,18.24307],[102.47921,18.24021],[102.48109,18.23774],[102.48218,18.23594],[102.48298,18.23344],[102.4831,18.23143],[102.48262,18.2288],[102.48054,18.22467],[102.47952,18.22188],[102.47932,18.2201],[102.47939,18.21727],[102.47971,18.21567],[102.48593,18.19452],[102.48681,18.19072],[102.48746,18.18568],[102.48756,18.17901],[102.48812,18.17446],[102.48907,18.1711],[102.49233,18.1635],[102.49309,18.16116],[102.49405,18.15693],[102.49492,18.14904],[102.49543,18.14637],[102.49612,18.14382],[102.5001,18.1326],[102.50141,18.12719],[102.50224,18.12095],[102.50232,18.11746],[102.50204,18.10359],[102.50221,18.10088],[102.50262,18.09829],[102.5044,18.09361],[102.51255,18.07836],[102.51382,18.07534],[102.51612,18.0684],[102.51702,18.06631],[102.52105,18.05958],[102.52304,18.0559],[102.52987,18.038],[102.53133,18.03528],[102.53276,18.03359],[102.53436,18.03217],[102.53577,18.03118],[102.53797,18.0301],[102.54071,18.02932],[102.5421,18.02914],[102.54727,18.0291],[102.54763,18.02888],[102.54657,18.01866],[102.54421,18.00234],[102.54425,18.0015],[102.54454,18.0005],[102.55334,17.98249],[102.55709,17.97524],[102.55757,17.97482],[102.57378,17.96958],[102.58485,17.96926],[102.5943,17.96837],[102.60148,17.96716],[102.60217,17.96699],[102.604,17.96614],[102.6106,17.96288],[102.61308,17.96527],[102.61358,17.96483],[102.61311,17.96441],[102.61329,17.9642]],"type":"LineString"}},{"type":"Feature","properties":{"name":"Siem Reap, Cambodia → Phnom Penh, Cambodia"},"geometry":{"coordinates":[[103.85857,13.36234],[103.85873,13.3627],[103.86005,13.36259],[103.85981,13.36164],[103.86292,13.36041],[103.86948,13.36106],[103.91544,13.35427],[103.91673,13.35389],[103.91708,13.35396],[103.92099,13.35345],[103.95672,13.34814],[103.99111,13.34786],[103.99521,13.34767],[103.99648,13.34735],[103.99759,13.34653],[103.99905,13.34388],[104.0009,13.34199],[104.00361,13.33996],[104.0366,13.31253],[104.03896,13.31078],[104.05721,13.29417],[104.06649,13.28613],[104.07522,13.27887],[104.10084,13.25828],[104.1036,13.25653],[104.10825,13.25321],[104.12755,13.24251],[104.13412,13.23926],[104.13523,13.23889],[104.1399,13.23839],[104.14149,13.23793],[104.15082,13.2338],[104.15232,13.23339],[104.1735,13.22512],[104.1854,13.2203],[104.20394,13.20737],[104.21352,13.20004],[104.21739,13.19688],[104.21924,13.19584],[104.24089,13.18176],[104.24256,13.18041],[104.24639,13.17818],[104.2486,13.17654],[104.25014,13.17568],[104.28538,13.15276],[104.29506,13.14623],[104.29681,13.14491],[104.29916,13.14355],[104.30378,13.14045],[104.31437,13.13655],[104.31803,13.13497],[104.33203,13.12997],[104.33295,13.12936],[104.33563,13.12665],[104.33681,13.12576],[104.33878,13.12477],[104.34153,13.12403],[104.3425,13.12356],[104.35367,13.11263],[104.37321,13.09248],[104.37475,13.09119],[104.37621,13.09069],[104.40553,13.09027],[104.40664,13.08997],[104.4077,13.08939],[104.44957,13.05868],[104.47692,13.03798],[104.4781,13.03774],[104.50893,13.03765],[104.51263,13.03731],[104.54143,13.01889],[104.55187,13.01038],[104.56177,13.00201],[104.56306,13.00075],[104.56337,13.00019],[104.56362,12.99922],[104.56382,12.99532],[104.56484,12.96692],[104.56528,12.96504],[104.56643,12.96245],[104.56821,12.96019],[104.57176,12.95727],[104.57949,12.95163],[104.5801,12.95114],[104.58082,12.95019],[104.58195,12.94673],[104.58335,12.9436],[104.58364,12.94206],[104.58356,12.94078],[104.58174,12.92944],[104.58213,12.92782],[104.58255,12.92712],[104.59116,12.91671],[104.60607,12.88975],[104.6212,12.86723],[104.6273,12.85885],[104.64198,12.83949],[104.64776,12.83256],[104.65691,12.82211],[104.65779,12.8216],[104.65865,12.82137],[104.73706,12.80802],[104.75062,12.80723],[104.80127,12.78854],[104.81407,12.7895],[104.81821,12.78965],[104.82225,12.79241],[104.82765,12.79393],[104.82834,12.79392],[104.8443,12.79105],[104.8451,12.79072],[104.90404,12.75524],[104.90503,12.75449],[104.90583,12.7533],[104.90606,12.75221],[104.90586,12.75065],[104.90048,12.74051],[104.89761,12.73464],[104.89647,12.73321],[104.88809,12.72717],[104.88738,12.72612],[104.8858,12.72306],[104.88827,12.71349],[104.88867,12.71129],[104.88918,12.71032],[104.89279,12.69972],[104.90136,12.6822],[104.90137,12.68165],[104.9019,12.6812],[104.90543,12.67403],[104.90638,12.67043],[104.90662,12.66971],[104.90709,12.66905],[104.92554,12.65419],[104.92629,12.65375],[104.92703,12.65355],[104.92811,12.65351],[104.93256,12.65481],[104.94276,12.6557],[104.94872,12.65591],[104.95665,12.65519],[104.9584,12.65469],[104.95974,12.65409],[104.97526,12.64612],[104.97611,12.64535],[104.97738,12.64379],[105.02165,12.58923],[105.03813,12.57322],[105.03986,12.57245],[105.04548,12.5719],[105.04682,12.57142],[105.04744,12.57102],[105.0529,12.56494],[105.05369,12.56365],[105.05595,12.559],[105.05694,12.55791],[105.05793,12.55725],[105.07985,12.55004],[105.08226,12.54882],[105.08414,12.54706],[105.0852,12.54575],[105.08938,12.53935],[105.09898,12.52552],[105.11509,12.51186],[105.11581,12.511],[105.11624,12.5096],[105.11602,12.50492],[105.11621,12.50327],[105.11692,12.50201],[105.12187,12.49557],[105.12224,12.49443],[105.12216,12.49359],[105.1214,12.49186],[105.12127,12.49117],[105.12037,12.47559],[105.11581,12.46304],[105.08919,12.42509],[105.08846,12.42379],[105.08573,12.41582],[105.08454,12.41123],[105.08387,12.40669],[105.08315,12.3937],[105.0834,12.39266],[105.10354,12.33764],[105.12201,12.28904],[105.12237,12.28771],[105.1229,12.27569],[105.12376,12.24534],[105.12466,12.19998],[105.12507,12.19398],[105.12716,12.18413],[105.12743,12.18156],[105.12738,12.17792],[105.1271,12.17612],[105.12659,12.17441],[105.12516,12.17119],[105.12484,12.16988],[105.12451,12.16725],[105.12405,12.16571],[105.11602,12.15109],[105.10453,12.14135],[105.08684,12.12467],[105.08439,12.12174],[105.08165,12.11808],[105.07514,12.1093],[105.07149,12.10401],[105.07112,12.10279],[105.07116,12.10141],[105.07156,12.10045],[105.07348,12.09758],[105.07394,12.09652],[105.07439,12.09138],[105.07567,12.08482],[105.0757,12.08267],[105.07519,12.07953],[105.07496,12.07615],[105.074,12.06907],[105.07335,12.06749],[105.07252,12.06668],[105.07184,12.06633],[105.06837,12.06524],[105.06775,12.06487],[105.06693,12.06404],[105.06633,12.06272],[105.06471,12.05621],[105.06447,12.05558],[105.064,12.05501],[105.06321,12.05449],[104.99223,12.04399],[104.9912,12.04347],[104.97285,12.03017],[104.97218,12.02934],[104.97187,12.02865],[104.97117,12.02539],[104.9704,12.02328],[104.96925,12.02158],[104.96824,12.02057],[104.96708,12.01976],[104.96581,12.01913],[104.95822,12.01666],[104.95731,12.01612],[104.95647,12.01532],[104.95398,12.01092],[104.94803,11.99875],[104.94722,11.99788],[104.94419,11.99574],[104.94365,11.995],[104.94343,11.99437],[104.94081,11.98239],[104.94399,11.95371],[104.94393,11.95274],[104.93784,11.93259],[104.93039,11.91889],[104.92812,11.91516],[104.92261,11.89311],[104.92199,11.89197],[104.92106,11.89127],[104.92015,11.89099],[104.89806,11.88742],[104.84755,11.86612],[104.84691,11.86561],[104.82093,11.83572],[104.81985,11.83494],[104.8157,11.83363],[104.81494,11.83305],[104.81455,11.83225],[104.81403,11.82723],[104.81156,11.82026],[104.81095,11.81681],[104.81011,11.81611],[104.80408,11.81314],[104.80363,11.81272],[104.80367,11.81227],[104.80393,11.81204],[104.80481,11.81215],[104.80507,11.81204],[104.80782,11.80605],[104.81331,11.79803],[104.81598,11.79547],[104.81868,11.79161],[104.822,11.78525],[104.82213,11.78256],[104.82558,11.77117],[104.8259,11.76669],[104.82649,11.76331],[104.82693,11.75858],[104.82744,11.74759],[104.82859,11.73982],[104.83111,11.73265],[104.83374,11.72641],[104.83452,11.72367],[104.8367,11.71859],[104.83707,11.71489],[104.83763,11.71199],[104.83774,11.70838],[104.83808,11.70525],[104.83876,11.70285],[104.84127,11.69718],[104.84537,11.68919],[104.84856,11.68206],[104.8496,11.6801],[104.85676,11.66931],[104.85998,11.66522],[104.86332,11.65891],[104.8655,11.65634],[104.8526,11.64723],[104.85727,11.62241],[104.858,11.62128],[104.85876,11.6206],[104.86877,11.61475],[104.86976,11.61353],[104.8701,11.61223],[104.8692,11.59767],[104.85326,11.5961],[104.8536,11.59407],[104.85337,11.59369],[104.85333,11.59167],[104.85347,11.57805],[104.85394,11.57347],[104.85734,11.57405],[104.85754,11.57299]],"type":"LineString"}},{"type":"Feature","properties":{"name":"Bangkok, Thailand"},"geometry":{"type":"Point","coordinates":[100.49351,13.75249]}},{"type":"Feature","properties":{"name":"Chiang Mai, Thailand"},"geometry":{"type":"Point","coordinates":[98.98588,18.78828]}},{"type":"Feature","properties":{"name":"Luang Prabang, Laos"},"geometry":{"type":"Point","coordinates":[102.1359,19.88874]}},{"type":"Feature","properties":{"name":"Vientiane, Laos"},"geometry":{"type":"Point","coordinates":[102.61337,17.9641]}},{"type":"Feature","properties":{"name":"Siem Reap, Cambodia"},"geometry":{"type":"Point","coordinates":[103.85903,13.36176]}},{"type":"Feature","properties":{"name":"Phnom Penh, Cambodia"},"geometry":{"type":"Point","coordinates":[104.85781,11.57304]}}]}