{"type":"FeatureCollection","features":[{"type":"Feature","properties":{"name":"Marrakesh, Morocco → Ouarzazate, Morocco"},"geometry":{"coordinates":[[-7.98953,31.62595],[-7.98989,31.62484],[-7.9906,31.62363],[-7.99116,31.62413],[-7.99185,31.62379],[-7.99166,31.62236],[-7.98982,31.62237],[-7.9882,31.62105],[-7.98546,31.61986],[-7.98465,31.62039],[-7.98455,31.62066],[-7.9829,31.62108],[-7.9828,31.62097],[-7.98198,31.62118],[-7.98148,31.6205],[-7.97464,31.62395],[-7.97441,31.62366],[-7.9716,31.62293],[-7.97084,31.62252],[-7.96871,31.62232],[-7.96631,31.62088],[-7.96456,31.62061],[-7.95813,31.61862],[-7.95625,31.61748],[-7.95434,31.61665],[-7.95373,31.6166],[-7.95098,31.61568],[-7.94645,31.61292],[-7.94591,31.6124],[-7.94408,31.61218],[-7.93991,31.61058],[-7.93676,31.6084],[-7.93434,31.60734],[-7.93167,31.60593],[-7.92922,31.60498],[-7.92667,31.60299],[-7.92356,31.6009],[-7.91916,31.59874],[-7.91835,31.59851],[-7.91631,31.59841],[-7.91401,31.59781],[-7.91054,31.59643],[-7.90533,31.59471],[-7.90127,31.59254],[-7.8989,31.59174],[-7.89485,31.5889],[-7.89401,31.58847],[-7.89165,31.58771],[-7.88992,31.58693],[-7.88832,31.58712],[-7.88754,31.58669],[-7.88086,31.5842],[-7.87751,31.5834],[-7.8742,31.58285],[-7.8696,31.58069],[-7.86344,31.57815],[-7.85262,31.57714],[-7.85066,31.5767],[-7.84655,31.5752],[-7.84525,31.57492],[-7.84351,31.57505],[-7.83186,31.57706],[-7.82111,31.57747],[-7.81866,31.57713],[-7.81372,31.57601],[-7.81332,31.57637],[-7.81148,31.57716],[-7.80873,31.57776],[-7.80696,31.57836],[-7.80583,31.57853],[-7.80116,31.57851],[-7.80031,31.57872],[-7.79901,31.57935],[-7.79603,31.58165],[-7.79536,31.5819],[-7.79462,31.58191],[-7.79369,31.58162],[-7.78997,31.57897],[-7.78823,31.57818],[-7.77004,31.57409],[-7.74996,31.56991],[-7.74168,31.56847],[-7.72622,31.56622],[-7.70732,31.56265],[-7.69552,31.56053],[-7.69236,31.56013],[-7.69111,31.55964],[-7.68872,31.55819],[-7.68683,31.5568],[-7.68334,31.55501],[-7.68081,31.5545],[-7.67971,31.55446],[-7.66907,31.55297],[-7.66457,31.55195],[-7.65998,31.54894],[-7.65493,31.54407],[-7.65184,31.54284],[-7.64928,31.54266],[-7.64826,31.543],[-7.64756,31.54394],[-7.64671,31.54663],[-7.64625,31.54702],[-7.64281,31.54741],[-7.63819,31.54848],[-7.63743,31.54821],[-7.63412,31.54534],[-7.63059,31.54442],[-7.62895,31.54319],[-7.62827,31.54316],[-7.62702,31.54375],[-7.62637,31.54383],[-7.62533,31.5436],[-7.62374,31.54357],[-7.62224,31.54304],[-7.6213,31.54304],[-7.62031,31.5434],[-7.61934,31.54397],[-7.61888,31.54441],[-7.6182,31.54555],[-7.61756,31.54602],[-7.61012,31.54832],[-7.60785,31.54856],[-7.60671,31.54887],[-7.60214,31.54841],[-7.59929,31.54873],[-7.59651,31.54877],[-7.59582,31.54908],[-7.59483,31.55036],[-7.59435,31.5507],[-7.58736,31.55217],[-7.58508,31.55127],[-7.57746,31.54959],[-7.57255,31.54598],[-7.57169,31.54556],[-7.56918,31.54544],[-7.56687,31.54572],[-7.56622,31.54603],[-7.56482,31.54747],[-7.56406,31.54775],[-7.56346,31.54774],[-7.55768,31.54507],[-7.55563,31.54442],[-7.5531,31.544],[-7.54961,31.54407],[-7.54633,31.54382],[-7.54448,31.54396],[-7.54156,31.54369],[-7.54025,31.5434],[-7.53682,31.5435],[-7.53495,31.5434],[-7.53077,31.54268],[-7.52815,31.54253],[-7.51914,31.54086],[-7.51257,31.53834],[-7.5103,31.53668],[-7.50937,31.5363],[-7.5065,31.53638],[-7.50448,31.53612],[-7.50286,31.53672],[-7.50216,31.53679],[-7.49998,31.53614],[-7.4982,31.53673],[-7.49741,31.53682],[-7.49695,31.53667],[-7.49597,31.53582],[-7.49319,31.53532],[-7.49225,31.53423],[-7.49171,31.53385],[-7.48813,31.53389],[-7.48747,31.53367],[-7.48625,31.5313],[-7.48509,31.5303],[-7.4832,31.52905],[-7.48047,31.52827],[-7.47819,31.5263],[-7.47397,31.52402],[-7.47336,31.52336],[-7.47274,31.52115],[-7.47291,31.51801],[-7.47247,31.51714],[-7.47224,31.5162],[-7.47291,31.51442],[-7.47204,31.51136],[-7.47163,31.51107],[-7.47089,31.51115],[-7.47057,31.51148],[-7.47029,31.51252],[-7.46989,31.51284],[-7.46936,31.51285],[-7.46889,31.51249],[-7.46858,31.51083],[-7.46692,31.50934],[-7.46558,31.50582],[-7.46425,31.50457],[-7.46392,31.50406],[-7.46387,31.5033],[-7.46438,31.5019],[-7.46432,31.50101],[-7.4635,31.49805],[-7.4623,31.49662],[-7.46124,31.49615],[-7.45886,31.49618],[-7.45573,31.49521],[-7.45381,31.49423],[-7.45269,31.4932],[-7.45142,31.49112],[-7.45103,31.48942],[-7.45118,31.48822],[-7.45091,31.48605],[-7.4515,31.48454],[-7.45124,31.48404],[-7.45057,31.48388],[-7.45012,31.48406],[-7.4489,31.48575],[-7.44759,31.4862],[-7.44667,31.48698],[-7.44485,31.48784],[-7.44378,31.48817],[-7.44156,31.48816],[-7.44095,31.4884],[-7.43927,31.48958],[-7.43818,31.48965],[-7.43731,31.48928],[-7.43428,31.48733],[-7.4325,31.48655],[-7.43188,31.48582],[-7.43179,31.48408],[-7.4315,31.48343],[-7.43161,31.48277],[-7.43256,31.48205],[-7.43332,31.48047],[-7.43459,31.47948],[-7.43471,31.47923],[-7.43383,31.47793],[-7.43405,31.47467],[-7.43372,31.47406],[-7.43326,31.47374],[-7.43245,31.47354],[-7.43176,31.4736],[-7.42895,31.47514],[-7.42793,31.47535],[-7.42459,31.47546],[-7.42188,31.47494],[-7.41961,31.47501],[-7.41877,31.47488],[-7.41654,31.47378],[-7.41285,31.47312],[-7.40875,31.47201],[-7.40725,31.47202],[-7.4057,31.47153],[-7.40193,31.4716],[-7.39889,31.4708],[-7.39841,31.47043],[-7.39839,31.46994],[-7.39856,31.46969],[-7.39998,31.46865],[-7.40219,31.46656],[-7.40462,31.46382],[-7.40617,31.4626],[-7.40714,31.46141],[-7.40722,31.46098],[-7.406,31.45978],[-7.40602,31.45935],[-7.40654,31.45832],[-7.40612,31.45764],[-7.40544,31.45723],[-7.40255,31.45696],[-7.40221,31.45656],[-7.40176,31.45531],[-7.40146,31.45507],[-7.3975,31.45434],[-7.3972,31.45394],[-7.3975,31.45271],[-7.39722,31.45178],[-7.39671,31.45148],[-7.39543,31.45152],[-7.39493,31.45131],[-7.39421,31.44974],[-7.39421,31.44921],[-7.39568,31.44745],[-7.39622,31.44648],[-7.39747,31.44619],[-7.39771,31.446],[-7.39883,31.44411],[-7.39999,31.44364],[-7.40079,31.44284],[-7.40162,31.44235],[-7.40197,31.4415],[-7.40284,31.44123],[-7.40345,31.44024],[-7.4048,31.43986],[-7.40544,31.43862],[-7.40651,31.43843],[-7.40654,31.43804],[-7.40569,31.4375],[-7.40569,31.43638],[-7.40605,31.43617],[-7.40714,31.43616],[-7.40781,31.43593],[-7.40802,31.43569],[-7.4081,31.43488],[-7.40854,31.43391],[-7.40986,31.43265],[-7.41097,31.43251],[-7.41117,31.43234],[-7.41124,31.43196],[-7.411,31.4313],[-7.40936,31.42966],[-7.40872,31.42841],[-7.40894,31.42807],[-7.41063,31.42703],[-7.41112,31.42581],[-7.4108,31.42539],[-7.40962,31.42537],[-7.40927,31.42517],[-7.40803,31.42292],[-7.40772,31.4216],[-7.40631,31.42087],[-7.40618,31.42037],[-7.40647,31.41939],[-7.40587,31.41791],[-7.40395,31.41765],[-7.40368,31.41741],[-7.40322,31.41627],[-7.40099,31.41468],[-7.39955,31.41456],[-7.39883,31.41397],[-7.39696,31.41339],[-7.39609,31.41352],[-7.39513,31.41455],[-7.39388,31.4149],[-7.39273,31.41569],[-7.39195,31.4157],[-7.39154,31.41529],[-7.39157,31.41392],[-7.39108,31.41244],[-7.39216,31.41025],[-7.39168,31.40887],[-7.39253,31.40754],[-7.39302,31.40704],[-7.39384,31.40655],[-7.39572,31.4068],[-7.39633,31.40636],[-7.39637,31.40583],[-7.39544,31.40438],[-7.39558,31.40395],[-7.39615,31.40342],[-7.39622,31.40302],[-7.3953,31.40127],[-7.39526,31.40083],[-7.3979,31.39832],[-7.398,31.39701],[-7.39833,31.39629],[-7.40001,31.39531],[-7.40038,31.39445],[-7.40173,31.39278],[-7.40221,31.39267],[-7.40384,31.393],[-7.40432,31.39286],[-7.40474,31.39233],[-7.40466,31.39139],[-7.4063,31.39106],[-7.40773,31.39045],[-7.40948,31.38897],[-7.40946,31.38845],[-7.40887,31.38778],[-7.4088,31.38745],[-7.40943,31.38649],[-7.40899,31.38496],[-7.40957,31.38379],[-7.40962,31.38329],[-7.40941,31.38277],[-7.40869,31.38199],[-7.40798,31.37941],[-7.40879,31.37751],[-7.4103,31.37629],[-7.41205,31.37519],[-7.41233,31.37488],[-7.41237,31.37435],[-7.41185,31.37281],[-7.41001,31.37251],[-7.40917,31.37143],[-7.40807,31.3711],[-7.40754,31.37111],[-7.40668,31.37145],[-7.40511,31.37098],[-7.40471,31.37099],[-7.40347,31.37155],[-7.40274,31.37245],[-7.40224,31.37254],[-7.39992,31.37168],[-7.39888,31.37152],[-7.39773,31.37021],[-7.39718,31.37024],[-7.39614,31.37103],[-7.39554,31.3711],[-7.39497,31.37062],[-7.39424,31.36956],[-7.39383,31.36936],[-7.39303,31.36938],[-7.3921,31.37043],[-7.39149,31.37067],[-7.39018,31.37004],[-7.38864,31.36964],[-7.38814,31.36927],[-7.38807,31.36881],[-7.38883,31.36793],[-7.39179,31.36751],[-7.39232,31.36699],[-7.39241,31.36617],[-7.39223,31.36487],[-7.39162,31.36397],[-7.39177,31.36246],[-7.39011,31.36132],[-7.38996,31.36071],[-7.3901,31.36022],[-7.39073,31.35971],[-7.39146,31.35854],[-7.3917,31.35714],[-7.39124,31.35611],[-7.39121,31.35547],[-7.39187,31.35466],[-7.39214,31.35369],[-7.39183,31.35196],[-7.39126,31.35114],[-7.39139,31.34871],[-7.39064,31.34616],[-7.39151,31.34476],[-7.39336,31.34344],[-7.39335,31.34255],[-7.39207,31.3413],[-7.39099,31.33991],[-7.39073,31.33901],[-7.38951,31.33782],[-7.38864,31.33744],[-7.38788,31.33677],[-7.38747,31.33684],[-7.38643,31.3376],[-7.38436,31.3369],[-7.38362,31.3359],[-7.38247,31.33559],[-7.38171,31.335],[-7.38166,31.33365],[-7.37918,31.33261],[-7.37883,31.32972],[-7.37864,31.32957],[-7.37792,31.32959],[-7.37751,31.32943],[-7.37694,31.32839],[-7.37704,31.32814],[-7.37729,31.32805],[-7.37801,31.3286],[-7.37845,31.32844],[-7.37911,31.32756],[-7.37915,31.32634],[-7.37935,31.32616],[-7.37964,31.32631],[-7.38002,31.32737],[-7.38058,31.32797],[-7.38057,31.32819],[-7.38014,31.32858],[-7.38055,31.33029],[-7.3814,31.33095],[-7.38371,31.33164],[-7.384,31.33156],[-7.38386,31.33133],[-7.383,31.3311],[-7.38242,31.33074],[-7.38108,31.32938],[-7.3811,31.32895],[-7.3817,31.32835],[-7.38174,31.32763],[-7.38157,31.32658],[-7.38088,31.32473],[-7.38101,31.3227],[-7.38045,31.32153],[-7.38002,31.32135],[-7.37909,31.32139],[-7.37834,31.32299],[-7.37775,31.32355],[-7.37661,31.32404],[-7.37621,31.32387],[-7.37639,31.32308],[-7.37617,31.32074],[-7.37632,31.32062],[-7.37657,31.32069],[-7.37668,31.3225],[-7.37705,31.32315],[-7.37759,31.32271],[-7.37784,31.32135],[-7.37761,31.32022],[-7.37667,31.31972],[-7.37579,31.31903],[-7.37573,31.31875],[-7.37598,31.3187],[-7.37682,31.31944],[-7.37743,31.31956],[-7.37777,31.3194],[-7.3782,31.31847],[-7.37845,31.31838],[-7.37836,31.31964],[-7.37867,31.3197],[-7.37915,31.31895],[-7.37898,31.3184],[-7.3793,31.31759],[-7.37916,31.31643],[-7.37888,31.31614],[-7.37761,31.31578],[-7.37696,31.31497],[-7.37582,31.31561],[-7.37539,31.31562],[-7.37397,31.31355],[-7.37246,31.31351],[-7.37114,31.31299],[-7.37046,31.31252],[-7.37026,31.31218],[-7.37304,31.30985],[-7.37286,31.30864],[-7.37371,31.30698],[-7.37226,31.30402],[-7.372,31.30259],[-7.37116,31.30157],[-7.37148,31.29912],[-7.37249,31.29759],[-7.37548,31.29627],[-7.37782,31.29347],[-7.38286,31.29003],[-7.38288,31.28971],[-7.38219,31.28878],[-7.38221,31.28841],[-7.3832,31.28652],[-7.38428,31.28564],[-7.38419,31.28532],[-7.38356,31.28536],[-7.38298,31.2856],[-7.38175,31.28653],[-7.38128,31.28642],[-7.38109,31.28606],[-7.38139,31.28509],[-7.38288,31.28358],[-7.38295,31.28291],[-7.38245,31.2826],[-7.3807,31.28247],[-7.38018,31.2821],[-7.37981,31.28153],[-7.37888,31.28122],[-7.37844,31.28022],[-7.37857,31.2796],[-7.3773,31.27875],[-7.37662,31.27805],[-7.37589,31.2765],[-7.37657,31.27512],[-7.37892,31.27373],[-7.3795,31.27225],[-7.38089,31.27131],[-7.38104,31.27066],[-7.38055,31.26926],[-7.3806,31.26863],[-7.38186,31.2677],[-7.38354,31.26789],[-7.38417,31.26752],[-7.38431,31.26651],[-7.38367,31.26534],[-7.38361,31.26487],[-7.38394,31.26295],[-7.38422,31.2625],[-7.3888,31.26088],[-7.39006,31.26115],[-7.39191,31.26206],[-7.3937,31.26156],[-7.39493,31.26232],[-7.39574,31.26233],[-7.39619,31.26191],[-7.39611,31.26048],[-7.39743,31.25896],[-7.39819,31.25876],[-7.4011,31.25978],[-7.40322,31.262],[-7.4037,31.26231],[-7.40359,31.26345],[-7.40905,31.26625],[-7.4093,31.2673],[-7.40984,31.26767],[-7.41032,31.26843],[-7.41138,31.26903],[-7.41142,31.27],[-7.41162,31.27031],[-7.4126,31.27088],[-7.41309,31.27079],[-7.41313,31.27046],[-7.41261,31.26883],[-7.413,31.26375],[-7.41223,31.26147],[-7.41223,31.26005],[-7.41169,31.25704],[-7.41021,31.25393],[-7.41004,31.2529],[-7.41108,31.24958],[-7.41114,31.24696],[-7.41213,31.24546],[-7.41285,31.24267],[-7.41443,31.24106],[-7.41476,31.24037],[-7.41462,31.23841],[-7.41521,31.23366],[-7.41618,31.23223],[-7.41769,31.23113],[-7.42026,31.23007],[-7.42135,31.22866],[-7.42168,31.22877],[-7.42167,31.22958],[-7.42192,31.22981],[-7.4232,31.22964],[-7.42407,31.22856],[-7.42442,31.22841],[-7.42497,31.22853],[-7.42581,31.22909],[-7.42608,31.22902],[-7.42558,31.22769],[-7.42567,31.22617],[-7.42479,31.22528],[-7.42471,31.22447],[-7.42514,31.224],[-7.42625,31.22343],[-7.42784,31.22202],[-7.42864,31.22011],[-7.43006,31.21936],[-7.4307,31.21883],[-7.43105,31.21819],[-7.43135,31.21645],[-7.43282,31.21379],[-7.43523,31.21219],[-7.4357,31.21155],[-7.43636,31.20948],[-7.43683,31.20906],[-7.43819,31.20842],[-7.43863,31.20799],[-7.43892,31.2072],[-7.43859,31.20574],[-7.43865,31.20386],[-7.4406,31.20088],[-7.44284,31.1988],[-7.4438,31.19817],[-7.44832,31.19609],[-7.44934,31.19606],[-7.45093,31.19647],[-7.45177,31.19638],[-7.45345,31.19527],[-7.45491,31.19398],[-7.45573,31.19258],[-7.45716,31.18888],[-7.45847,31.18686],[-7.45859,31.18602],[-7.45821,31.18402],[-7.4589,31.18202],[-7.46008,31.18022],[-7.46052,31.17889],[-7.46092,31.17832],[-7.46243,31.17723],[-7.46516,31.17449],[-7.46569,31.17379],[-7.466,31.17301],[-7.46604,31.17106],[-7.46587,31.17018],[-7.46363,31.16542],[-7.46381,31.16473],[-7.46512,31.1635],[-7.46557,31.16269],[-7.46442,31.16116],[-7.46441,31.16006],[-7.46395,31.15926],[-7.46255,31.15801],[-7.46066,31.15679],[-7.45881,31.15487],[-7.4575,31.15421],[-7.45549,31.15369],[-7.45102,31.15334],[-7.44926,31.15254],[-7.44789,31.15159],[-7.44709,31.15136],[-7.44628,31.15135],[-7.44435,31.15177],[-7.44249,31.1515],[-7.44171,31.15117],[-7.43919,31.14954],[-7.4382,31.14923],[-7.43417,31.14878],[-7.43343,31.14895],[-7.4321,31.1497],[-7.4311,31.14973],[-7.43024,31.14929],[-7.42943,31.14802],[-7.42881,31.14742],[-7.42512,31.14531],[-7.42414,31.14531],[-7.42079,31.14671],[-7.42016,31.14683],[-7.41546,31.14562],[-7.41184,31.14614],[-7.41047,31.14609],[-7.40837,31.14573],[-7.40747,31.1454],[-7.40693,31.14478],[-7.40602,31.14428],[-7.40209,31.14318],[-7.39898,31.14256],[-7.39727,31.14197],[-7.39608,31.14126],[-7.39554,31.14126],[-7.3939,31.14173],[-7.39285,31.14139],[-7.39212,31.14149],[-7.39166,31.1407],[-7.39052,31.14017],[-7.38975,31.14028],[-7.38906,31.14075],[-7.38815,31.13948],[-7.38609,31.13761],[-7.38573,31.13693],[-7.38395,31.13522],[-7.3807,31.13472],[-7.37908,31.1336],[-7.37811,31.134],[-7.37709,31.13373],[-7.37506,31.13424],[-7.37457,31.13367],[-7.37322,31.13323],[-7.37191,31.13352],[-7.37135,31.13393],[-7.371,31.13395],[-7.3699,31.13327],[-7.36937,31.1333],[-7.36898,31.13311],[-7.36787,31.13202],[-7.36614,31.12965],[-7.36523,31.12898],[-7.36275,31.12815],[-7.36024,31.12778],[-7.35896,31.12726],[-7.35295,31.12554],[-7.3505,31.12609],[-7.34965,31.12698],[-7.34868,31.12753],[-7.34485,31.12754],[-7.34237,31.1287],[-7.34157,31.12886],[-7.33783,31.1288],[-7.33251,31.12683],[-7.33181,31.1267],[-7.33087,31.12681],[-7.33017,31.12646],[-7.32876,31.12618],[-7.32645,31.12646],[-7.32579,31.12639],[-7.32322,31.12398],[-7.32183,31.12309],[-7.32056,31.12135],[-7.31912,31.1206],[-7.31855,31.11943],[-7.31794,31.11884],[-7.31779,31.11847],[-7.31794,31.11524],[-7.31648,31.11361],[-7.31523,31.11283],[-7.31394,31.1124],[-7.30703,31.11087],[-7.30627,31.11048],[-7.30539,31.10948],[-7.30466,31.10893],[-7.30397,31.10715],[-7.30288,31.1057],[-7.30219,31.10412],[-7.30141,31.10326],[-7.30152,31.10198],[-7.30285,31.10053],[-7.30305,31.09786],[-7.30153,31.0948],[-7.29938,31.09227],[-7.29088,31.08471],[-7.28244,31.08163],[-7.28025,31.0803],[-7.27909,31.07986],[-7.27778,31.07982],[-7.2707,31.08098],[-7.26949,31.0808],[-7.26709,31.07971],[-7.2631,31.0771],[-7.26247,31.07649],[-7.25619,31.06799],[-7.25477,31.06428],[-7.25377,31.06304],[-7.2512,31.06142],[-7.24874,31.05889],[-7.22964,31.04795],[-7.22831,31.04736],[-7.21939,31.04534],[-7.21802,31.04514],[-7.21382,31.04504],[-7.21266,31.04433],[-7.2107,31.04441],[-7.20823,31.04349],[-7.20721,31.04303],[-7.20535,31.04134],[-7.20228,31.03998],[-7.20047,31.03988],[-7.19974,31.03969],[-7.19873,31.03903],[-7.19705,31.03853],[-7.19399,31.03668],[-7.19301,31.03519],[-7.19222,31.03122],[-7.19087,31.02886],[-7.18966,31.02786],[-7.1804,31.02472],[-7.17623,31.02243],[-7.17506,31.02241],[-7.17368,31.02364],[-7.17284,31.02408],[-7.17203,31.02414],[-7.16235,31.0205],[-7.15733,31.017],[-7.15662,31.01609],[-7.15384,31.00173],[-7.15317,31.00065],[-7.13869,30.99022],[-7.13806,30.98953],[-7.13708,30.98917],[-7.11079,30.97478],[-7.10979,30.97441],[-7.10848,30.97438],[-7.09446,30.97573],[-7.09394,30.97552],[-7.09349,30.97507],[-7.09219,30.97189],[-7.09224,30.97102],[-7.09195,30.97071],[-7.09091,30.97053],[-7.08992,30.97007],[-7.08892,30.96986],[-7.08504,30.96828],[-7.08263,30.96808],[-7.08171,30.96828],[-7.08091,30.96826],[-7.07877,30.96802],[-7.07705,30.96832],[-7.07642,30.96903],[-7.07577,30.96884],[-7.07527,30.96891],[-7.07507,30.96922],[-7.07504,30.96999],[-7.07416,30.97166],[-7.0738,30.97174],[-7.07269,30.97119],[-7.07228,30.97123],[-7.06618,30.97621],[-7.06528,30.97635],[-7.06474,30.97612],[-7.06436,30.97573],[-7.06098,30.97133],[-7.06049,30.97114],[-7.05903,30.97113],[-7.05847,30.9709],[-7.04827,30.96296],[-7.04602,30.96098],[-7.04545,30.9601],[-7.04503,30.95734],[-7.04305,30.95433],[-7.03809,30.9499],[-7.03509,30.94832],[-7.03321,30.948],[-7.0111,30.94658],[-7.00357,30.94408],[-6.99684,30.94367],[-6.991,30.94294],[-6.99012,30.94251],[-6.98915,30.94114],[-6.98852,30.94085],[-6.9865,30.94061],[-6.98562,30.94033],[-6.98357,30.94027],[-6.96388,30.93792],[-6.96232,30.93733],[-6.95607,30.93327],[-6.95467,30.93253],[-6.95057,30.93107],[-6.95018,30.93073],[-6.94965,30.9307],[-6.93453,30.92538],[-6.93351,30.92477],[-6.93205,30.9245],[-6.92037,30.92033],[-6.91965,30.92014],[-6.91786,30.92015],[-6.91241,30.9205],[-6.91093,30.92017]],"type":"LineString"}},{"type":"Feature","properties":{"name":"Ouarzazate, Morocco → Merzouga, Morocco"},"geometry":{"coordinates":[[-6.91093,30.92017],[-6.90743,30.91907],[-6.90386,30.919],[-6.90182,30.91873],[-6.90133,30.91902],[-6.90097,30.9195],[-6.90084,30.92047],[-6.89884,30.9205],[-6.89813,30.92083],[-6.89688,30.9229],[-6.89634,30.92339],[-6.89339,30.92426],[-6.89187,30.92449],[-6.89134,30.92483],[-6.89003,30.92602],[-6.88971,30.92679],[-6.88998,30.9342],[-6.88987,30.93507],[-6.88948,30.93581],[-6.87199,30.95162],[-6.86009,30.95782],[-6.84764,30.96251],[-6.84266,30.96549],[-6.83921,30.96914],[-6.83859,30.96961],[-6.83761,30.97004],[-6.80584,30.97749],[-6.79727,30.97981],[-6.79566,30.97974],[-6.79483,30.9794],[-6.79126,30.97672],[-6.79036,30.97637],[-6.78928,30.97625],[-6.78834,30.97629],[-6.77954,30.97856],[-6.7786,30.97846],[-6.7751,30.97702],[-6.77424,30.97686],[-6.73863,30.97518],[-6.7293,30.97427],[-6.72706,30.97432],[-6.726,30.97462],[-6.71744,30.97812],[-6.69445,30.98681],[-6.68396,30.98883],[-6.67727,30.99089],[-6.65255,30.99864],[-6.63265,31.00543],[-6.62761,31.00758],[-6.62572,31.00774],[-6.62014,31.00703],[-6.61925,31.00705],[-6.61808,31.00734],[-6.61696,31.00795],[-6.61621,31.00866],[-6.61321,31.01312],[-6.61008,31.01544],[-6.60932,31.01556],[-6.60857,31.01545],[-6.60038,31.01274],[-6.59962,31.01265],[-6.59881,31.01281],[-6.58862,31.01995],[-6.5823,31.02491],[-6.58183,31.0262],[-6.58114,31.03564],[-6.58038,31.03703],[-6.57662,31.04081],[-6.57426,31.04581],[-6.56737,31.05202],[-6.5647,31.05367],[-6.56311,31.05524],[-6.54724,31.06499],[-6.54544,31.06563],[-6.52831,31.06968],[-6.51969,31.06993],[-6.51893,31.07007],[-6.51151,31.07277],[-6.50766,31.07373],[-6.4952,31.07772],[-6.47085,31.08637],[-6.46637,31.08859],[-6.46421,31.09059],[-6.46296,31.09133],[-6.44788,31.09767],[-6.43683,31.10188],[-6.43532,31.10236],[-6.43307,31.1026],[-6.43213,31.10291],[-6.43116,31.10369],[-6.42998,31.10577],[-6.42886,31.10652],[-6.42778,31.10676],[-6.42156,31.10682],[-6.41697,31.10809],[-6.41627,31.10891],[-6.41554,31.1107],[-6.41564,31.11161],[-6.41547,31.11214],[-6.41514,31.11256],[-6.41466,31.11282],[-6.40828,31.11336],[-6.40423,31.11262],[-6.40309,31.11215],[-6.40049,31.11187],[-6.40005,31.11167],[-6.39925,31.1109],[-6.39859,31.11068],[-6.38993,31.11149],[-6.38905,31.11126],[-6.3803,31.10757],[-6.37899,31.10749],[-6.37702,31.10798],[-6.37618,31.10845],[-6.37564,31.10901],[-6.37254,31.11452],[-6.37181,31.11543],[-6.35787,31.12698],[-6.35482,31.13041],[-6.35076,31.13418],[-6.3499,31.13479],[-6.34873,31.13516],[-6.34767,31.13513],[-6.34405,31.13385],[-6.34231,31.1328],[-6.34154,31.13252],[-6.33629,31.13184],[-6.33474,31.13183],[-6.33321,31.13221],[-6.31615,31.13935],[-6.31453,31.14032],[-6.30802,31.1464],[-6.30436,31.14828],[-6.30068,31.15077],[-6.29006,31.15723],[-6.28532,31.15918],[-6.27981,31.16315],[-6.26531,31.1706],[-6.24725,31.18104],[-6.23874,31.18404],[-6.23714,31.18434],[-6.23619,31.18392],[-6.2336,31.17945],[-6.2329,31.17874],[-6.23206,31.1782],[-6.22679,31.17687],[-6.2253,31.17621],[-6.22118,31.17386],[-6.21873,31.17323],[-6.21783,31.17283],[-6.21703,31.172],[-6.21604,31.17008],[-6.21435,31.16811],[-6.21391,31.16691],[-6.21282,31.16568],[-6.21232,31.16545],[-6.21024,31.16501],[-6.2088,31.16511],[-6.20391,31.16729],[-6.20206,31.16856],[-6.20017,31.16883],[-6.19893,31.16851],[-6.19769,31.16757],[-6.19727,31.16681],[-6.19651,31.16411],[-6.19555,31.163],[-6.19082,31.161],[-6.18806,31.16012],[-6.17944,31.15962],[-6.17479,31.16005],[-6.16816,31.16122],[-6.16269,31.16167],[-6.16137,31.162],[-6.16017,31.16279],[-6.15923,31.16416],[-6.15907,31.16526],[-6.15932,31.16767],[-6.1592,31.16862],[-6.1573,31.17363],[-6.15656,31.1786],[-6.15621,31.17927],[-6.15521,31.18045],[-6.15445,31.18097],[-6.15335,31.18122],[-6.1482,31.18055],[-6.14737,31.18063],[-6.14629,31.18112],[-6.14408,31.18406],[-6.13795,31.18753],[-6.13723,31.18809],[-6.13661,31.18892],[-6.13449,31.19329],[-6.13375,31.19411],[-6.13317,31.19446],[-6.13171,31.19485],[-6.12065,31.19622],[-6.11914,31.19673],[-6.11831,31.19768],[-6.11803,31.19848],[-6.11884,31.20094],[-6.11879,31.20239],[-6.11646,31.2052],[-6.11528,31.20617],[-6.10877,31.20876],[-6.10446,31.21084],[-6.09994,31.21193],[-6.09895,31.21181],[-6.09793,31.21127],[-6.09727,31.21035],[-6.09624,31.20809],[-6.09564,31.20744],[-6.09503,31.20706],[-6.09226,31.20627],[-6.08728,31.20618],[-6.08631,31.20659],[-6.08576,31.20707],[-6.08434,31.20991],[-6.08315,31.211],[-6.079,31.21327],[-6.07764,31.21384],[-6.07644,31.21417],[-6.07361,31.2144],[-6.0726,31.21491],[-6.0721,31.21554],[-6.07194,31.21618],[-6.07244,31.22014],[-6.07226,31.22109],[-6.06881,31.22522],[-6.06821,31.22615],[-6.06775,31.22714],[-6.0659,31.23369],[-6.06469,31.2355],[-6.05992,31.23904],[-6.05731,31.24075],[-6.05543,31.24159],[-6.05141,31.24298],[-6.04986,31.24389],[-6.0486,31.24515],[-6.04604,31.24965],[-6.04472,31.25115],[-6.04352,31.25198],[-6.03245,31.25824],[-6.02341,31.26592],[-6.0224,31.26756],[-6.02203,31.26958],[-6.0224,31.27134],[-6.02383,31.27479],[-6.02381,31.27587],[-6.0234,31.27672],[-6.02173,31.27838],[-6.02084,31.27985],[-6.01676,31.29598],[-6.01624,31.29751],[-6.0149,31.29983],[-6.00101,31.31775],[-5.9992,31.32067],[-5.99056,31.33938],[-5.98766,31.34762],[-5.98583,31.35207],[-5.98223,31.35687],[-5.98316,31.36712],[-5.98304,31.36753],[-5.97142,31.36707],[-5.91069,31.36405],[-5.90818,31.36473],[-5.88612,31.37524],[-5.88454,31.37557],[-5.85565,31.36816],[-5.85418,31.36795],[-5.85301,31.36798],[-5.84589,31.36915],[-5.83549,31.37184],[-5.83425,31.37227],[-5.83189,31.37362],[-5.83006,31.37422],[-5.82474,31.37537],[-5.81671,31.37654],[-5.81532,31.37718],[-5.81054,31.38023],[-5.80674,31.3824],[-5.80592,31.38275],[-5.80513,31.38286],[-5.80401,31.38268],[-5.80303,31.38215],[-5.79995,31.37884],[-5.79912,31.37756],[-5.79808,31.37507],[-5.79746,31.37269],[-5.79643,31.37189],[-5.78951,31.3698],[-5.78375,31.37119],[-5.78057,31.37165],[-5.77794,31.3731],[-5.76976,31.37998],[-5.76597,31.38269],[-5.75362,31.38799],[-5.74641,31.38945],[-5.74549,31.38978],[-5.74446,31.39055],[-5.74034,31.39512],[-5.73648,31.39684],[-5.7345,31.39708],[-5.73378,31.39734],[-5.7303,31.40007],[-5.72655,31.40237],[-5.7258,31.40265],[-5.72024,31.40378],[-5.71934,31.40411],[-5.70677,31.41197],[-5.68789,31.41868],[-5.66976,31.42869],[-5.66002,31.43221],[-5.65573,31.43432],[-5.65382,31.43575],[-5.6515,31.43825],[-5.65044,31.43898],[-5.64873,31.43942],[-5.64326,31.43907],[-5.64096,31.43949],[-5.62008,31.44882],[-5.60866,31.45395],[-5.59282,31.4625],[-5.58622,31.46449],[-5.57399,31.47139],[-5.55413,31.48687],[-5.54803,31.49212],[-5.54718,31.49301],[-5.54595,31.4947],[-5.54576,31.49536],[-5.5428,31.49969],[-5.54064,31.50328],[-5.54021,31.50362],[-5.53945,31.50592],[-5.53858,31.50984],[-5.53863,31.51087],[-5.53933,31.51285],[-5.53905,31.51389],[-5.53369,31.52013],[-5.53081,31.5219],[-5.5292,31.52345],[-5.5292,31.52484],[-5.52999,31.52596],[-5.52871,31.52948],[-5.52886,31.52989],[-5.52997,31.53069],[-5.52973,31.53143],[-5.52924,31.5319],[-5.52547,31.53245],[-5.52432,31.53245],[-5.51971,31.53136],[-5.51851,31.53084],[-5.51756,31.53003],[-5.50933,31.52119],[-5.49281,31.50953],[-5.46665,31.49817],[-5.45983,31.49647],[-5.45233,31.49564],[-5.449,31.49464],[-5.44574,31.49319],[-5.42745,31.48402],[-5.40935,31.47378],[-5.3927,31.46713],[-5.37746,31.46015],[-5.36829,31.45615],[-5.36661,31.45555],[-5.36573,31.45541],[-5.36331,31.45572],[-5.36219,31.45569],[-5.34779,31.45263],[-5.34664,31.45212],[-5.34037,31.44783],[-5.33823,31.44688],[-5.33628,31.44637],[-5.32673,31.4449],[-5.32443,31.44471],[-5.30101,31.44625],[-5.28473,31.44925],[-5.28012,31.44988],[-5.27356,31.45036],[-5.26404,31.45032],[-5.26202,31.45052],[-5.26004,31.45101],[-5.25533,31.45283],[-5.25349,31.45326],[-5.24225,31.4535],[-5.23961,31.45382],[-5.23693,31.45459],[-5.22075,31.46059],[-5.21737,31.4614],[-5.21469,31.46157],[-5.19982,31.46133],[-5.17858,31.46372],[-5.17644,31.46408],[-5.17391,31.46505],[-5.14618,31.48153],[-5.1444,31.4824],[-5.13785,31.48436],[-5.1158,31.48952],[-5.10882,31.49214],[-5.10731,31.49243],[-5.10188,31.49288],[-5.08559,31.49872],[-5.08353,31.49892],[-5.07734,31.49879],[-5.07376,31.49911],[-5.06765,31.50041],[-5.06383,31.50036],[-5.06207,31.50057],[-5.05387,31.50357],[-5.04506,31.50552],[-5.02803,31.51073],[-5.0276,31.51074],[-5.02732,31.51101],[-5.02314,31.51284],[-5.01449,31.51639],[-5.01397,31.51634],[-5.01338,31.51589],[-5.00534,31.50746],[-5.00409,31.5068],[-5.00345,31.50665],[-5.00193,31.50674],[-4.98885,31.51087],[-4.98808,31.51139],[-4.98332,31.51576],[-4.96211,31.53089],[-4.94241,31.54078],[-4.91268,31.55486],[-4.91149,31.55479],[-4.90544,31.55324],[-4.90245,31.55107],[-4.90159,31.55081],[-4.88381,31.54813],[-4.87277,31.54587],[-4.86465,31.54603],[-4.86367,31.54568],[-4.86101,31.54417],[-4.86012,31.54388],[-4.85903,31.54392],[-4.85394,31.54478],[-4.85266,31.54557],[-4.85164,31.54789],[-4.85106,31.54869],[-4.84785,31.55041],[-4.84213,31.55453],[-4.8311,31.55868],[-4.8286,31.55977],[-4.80126,31.57391],[-4.77321,31.5888],[-4.77201,31.58931],[-4.77055,31.58958],[-4.76931,31.58951],[-4.76174,31.58824],[-4.75895,31.58741],[-4.72526,31.5677],[-4.71201,31.56372],[-4.71146,31.56294],[-4.71176,31.56103],[-4.71167,31.55939],[-4.71,31.55802],[-4.7091,31.55702],[-4.70709,31.55319],[-4.70626,31.55229],[-4.70545,31.55201],[-4.66497,31.54417],[-4.66327,31.54371],[-4.64371,31.5345],[-4.64266,31.5338],[-4.63792,31.52945],[-4.63694,31.52879],[-4.62379,31.52504],[-4.60186,31.51475],[-4.60049,31.51425],[-4.59851,31.51413],[-4.56789,31.51598],[-4.51189,31.52944],[-4.49405,31.53053],[-4.49113,31.5303],[-4.48806,31.52934],[-4.48546,31.5291],[-4.47828,31.53038],[-4.47729,31.53036],[-4.4659,31.52717],[-4.46398,31.52581],[-4.46193,31.52503],[-4.4501,31.52226],[-4.44761,31.5219],[-4.44055,31.51625],[-4.43676,31.51245],[-4.42292,31.50406],[-4.42154,31.50283],[-4.41804,31.5002],[-4.41682,31.49885],[-4.41395,31.49732],[-4.41116,31.49706],[-4.40802,31.49523],[-4.40761,31.4941],[-4.40718,31.49372],[-4.40469,31.49341],[-4.40258,31.49268],[-4.40034,31.48963],[-4.39995,31.48543],[-4.3994,31.4842],[-4.39736,31.48174],[-4.39584,31.48046],[-4.39497,31.48024],[-4.3938,31.48037],[-4.39327,31.48028],[-4.39062,31.47787],[-4.38959,31.47716],[-4.34087,31.44843],[-4.33707,31.44643],[-4.33469,31.44538],[-4.31621,31.43958],[-4.30987,31.43658],[-4.30814,31.43535],[-4.29174,31.42107],[-4.2905,31.42021],[-4.28759,31.41869],[-4.28557,31.41807],[-4.28402,31.41703],[-4.27975,31.41713],[-4.27643,31.41822],[-4.27431,31.41896],[-4.25172,31.42818],[-4.23678,31.42976],[-4.23634,31.42963],[-4.23509,31.43177],[-4.23338,31.43547],[-4.22502,31.43123],[-4.22218,31.43077],[-4.21851,31.42916],[-4.20798,31.41883],[-4.18313,31.38977],[-4.18196,31.38875],[-4.17418,31.38335],[-4.17386,31.38274],[-4.17377,31.37998],[-4.17313,31.37874],[-4.16636,31.37208],[-4.1657,31.37158],[-4.16472,31.37122],[-4.15447,31.36991],[-4.15176,31.36943],[-4.15056,31.369],[-4.14531,31.36379],[-4.13556,31.35569],[-4.13507,31.35464],[-4.13534,31.34696],[-4.13515,31.34582],[-4.1348,31.34504],[-4.11839,31.32683],[-4.1146,31.32384],[-4.11401,31.32354],[-4.11246,31.32322],[-4.11143,31.32267],[-4.10906,31.32015],[-4.10557,31.31693],[-4.10447,31.31616],[-4.09252,31.3109],[-4.0912,31.30867],[-4.09058,31.30722],[-4.08968,31.30141],[-4.09077,31.29935],[-4.0968,31.29495],[-4.09711,31.29427],[-4.09701,31.29368],[-4.09624,31.29219],[-4.0934,31.28818],[-4.09221,31.28732],[-4.09077,31.28707],[-4.08734,31.28603],[-4.08115,31.28228],[-4.07502,31.27904],[-4.07352,31.27777],[-4.06996,31.27519],[-4.05942,31.26803],[-4.05505,31.26403],[-4.04976,31.25989],[-4.04589,31.25763],[-4.04532,31.257],[-4.04467,31.25572],[-4.04412,31.25514],[-4.04038,31.25333],[-4.03847,31.25138],[-4.03822,31.25013],[-4.0392,31.24601],[-4.03894,31.2437],[-4.03787,31.24166],[-4.03436,31.23249],[-4.03011,31.22484],[-4.02938,31.22184],[-4.02837,31.21926],[-4.02841,31.21743],[-4.02871,31.21682],[-4.03362,31.21036],[-4.03456,31.2094],[-4.03583,31.20848],[-4.0424,31.20447],[-4.04402,31.20296],[-4.04498,31.20163],[-4.05091,31.19029],[-4.0528,31.18376],[-4.05486,31.17932],[-4.0549,31.17831],[-4.05462,31.17704],[-4.05418,31.17605],[-4.05215,31.17404],[-4.05082,31.17217],[-4.04918,31.17102],[-4.04824,31.17002],[-4.04623,31.1661],[-4.04424,31.16317],[-4.04271,31.15961],[-4.03907,31.15369],[-4.03773,31.14993],[-4.03732,31.14755],[-4.03662,31.1461],[-4.03299,31.14058],[-4.03291,31.14019],[-4.03314,31.13947],[-4.03292,31.13935],[-4.03201,31.13967],[-4.02564,31.14019],[-4.02476,31.13984],[-4.02461,31.13941],[-4.02414,31.13939],[-4.02161,31.1336],[-4.02011,31.13114],[-4.01951,31.12976],[-4.01909,31.12865],[-4.01873,31.12643],[-4.01724,31.123],[-4.01705,31.12168],[-4.01766,31.11657],[-4.01741,31.1141],[-4.01696,31.11182],[-4.01538,31.10646],[-4.0157,31.10467],[-4.01572,31.10255],[-4.01643,31.10033],[-4.0147,31.10005],[-4.01467,31.10019],[-4.01426,31.10017],[-4.0143,31.09994]],"type":"LineString"}},{"type":"Feature","properties":{"name":"Merzouga, Morocco → Fes, Morocco"},"geometry":{"coordinates":[[-4.0143,31.09994],[-4.01426,31.10017],[-4.01467,31.10019],[-4.0147,31.10005],[-4.01643,31.10033],[-4.01572,31.10255],[-4.0157,31.10467],[-4.01538,31.10646],[-4.01696,31.11182],[-4.01741,31.1141],[-4.01766,31.11657],[-4.01705,31.12168],[-4.01724,31.123],[-4.01873,31.12643],[-4.01909,31.12865],[-4.01951,31.12976],[-4.02011,31.13114],[-4.02161,31.1336],[-4.02352,31.13776],[-4.02431,31.14004],[-4.02497,31.13997],[-4.02564,31.14019],[-4.03266,31.13967],[-4.03299,31.14058],[-4.03698,31.14681],[-4.03732,31.14755],[-4.03773,31.14993],[-4.03907,31.15369],[-4.04271,31.15961],[-4.04424,31.16317],[-4.04623,31.1661],[-4.04824,31.17002],[-4.04918,31.17102],[-4.05082,31.17217],[-4.05215,31.17404],[-4.05418,31.17605],[-4.0549,31.17831],[-4.05486,31.17932],[-4.0528,31.18376],[-4.05091,31.19029],[-4.04498,31.20163],[-4.04402,31.20296],[-4.0424,31.20447],[-4.03583,31.20848],[-4.03456,31.2094],[-4.03362,31.21036],[-4.02871,31.21682],[-4.02841,31.21743],[-4.02837,31.21926],[-4.02938,31.22184],[-4.03011,31.22484],[-4.03436,31.23249],[-4.03787,31.24166],[-4.03894,31.2437],[-4.0392,31.24601],[-4.03822,31.25013],[-4.03847,31.25138],[-4.04038,31.25333],[-4.04412,31.25514],[-4.04467,31.25572],[-4.04532,31.257],[-4.04589,31.25763],[-4.04976,31.25989],[-4.05505,31.26403],[-4.05942,31.26803],[-4.06996,31.27519],[-4.07502,31.27904],[-4.08115,31.28228],[-4.08734,31.28603],[-4.09077,31.28707],[-4.09221,31.28732],[-4.0934,31.28818],[-4.09624,31.29219],[-4.09701,31.29368],[-4.09711,31.29427],[-4.0968,31.29495],[-4.09077,31.29935],[-4.08968,31.30141],[-4.09058,31.30722],[-4.0912,31.30867],[-4.09252,31.3109],[-4.10447,31.31616],[-4.10557,31.31693],[-4.10906,31.32015],[-4.11143,31.32267],[-4.11246,31.32322],[-4.11432,31.32368],[-4.11789,31.32637],[-4.1348,31.34504],[-4.13515,31.34582],[-4.13534,31.34696],[-4.13507,31.35464],[-4.13536,31.35546],[-4.13578,31.35591],[-4.14531,31.36379],[-4.15056,31.369],[-4.15176,31.36943],[-4.15447,31.36991],[-4.16472,31.37122],[-4.16619,31.37193],[-4.17313,31.37874],[-4.17377,31.37998],[-4.17386,31.38274],[-4.17418,31.38335],[-4.18196,31.38875],[-4.18313,31.38977],[-4.20798,31.41883],[-4.21785,31.42864],[-4.21875,31.4293],[-4.2221,31.43075],[-4.22502,31.43123],[-4.23338,31.43547],[-4.23006,31.44252],[-4.22858,31.44477],[-4.22823,31.44507],[-4.22639,31.44959],[-4.2259,31.45221],[-4.22565,31.45268],[-4.22222,31.45711],[-4.22136,31.45877],[-4.21834,31.46163],[-4.21663,31.46381],[-4.21659,31.46431],[-4.21717,31.46608],[-4.21631,31.46799],[-4.21742,31.46942],[-4.21638,31.47304],[-4.21681,31.48191],[-4.21679,31.48282],[-4.21649,31.48371],[-4.21618,31.48415],[-4.20899,31.49032],[-4.20377,31.49526],[-4.20211,31.49849],[-4.20176,31.49958],[-4.20238,31.50554],[-4.20225,31.50653],[-4.20194,31.50724],[-4.19003,31.52053],[-4.18525,31.52786],[-4.1848,31.5291],[-4.18536,31.53716],[-4.18617,31.54013],[-4.18507,31.5449],[-4.18467,31.54832],[-4.18413,31.55916],[-4.18426,31.56005],[-4.18573,31.56325],[-4.19654,31.58216],[-4.20299,31.5946],[-4.20613,31.60176],[-4.20643,31.60301],[-4.20647,31.61504],[-4.20309,31.62617],[-4.19723,31.6383],[-4.19662,31.63987],[-4.19467,31.64222],[-4.19335,31.64466],[-4.19213,31.6458],[-4.18992,31.64869],[-4.18821,31.6506],[-4.18663,31.65373],[-4.18659,31.65478],[-4.18711,31.6573],[-4.18835,31.66056],[-4.18996,31.66378],[-4.19094,31.66698],[-4.19099,31.66791],[-4.19046,31.67081],[-4.18805,31.67557],[-4.18575,31.6781],[-4.1844,31.67932],[-4.18178,31.68134],[-4.18088,31.68236],[-4.17884,31.68337],[-4.17834,31.68393],[-4.17817,31.68442],[-4.17869,31.68681],[-4.17957,31.68823],[-4.18101,31.68984],[-4.18147,31.69069],[-4.18189,31.69163],[-4.18271,31.69467],[-4.18387,31.69724],[-4.18556,31.69859],[-4.18641,31.69897],[-4.18698,31.69981],[-4.18794,31.70046],[-4.18865,31.70141],[-4.18891,31.70229],[-4.18888,31.70598],[-4.18861,31.70673],[-4.188,31.70748],[-4.18624,31.70904],[-4.18563,31.71014],[-4.18412,31.71174],[-4.1828,31.71396],[-4.18193,31.71466],[-4.18185,31.71534],[-4.18296,31.7167],[-4.1837,31.71838],[-4.18454,31.71965],[-4.18788,31.72408],[-4.18969,31.72493],[-4.19044,31.72583],[-4.1922,31.72699],[-4.19324,31.72712],[-4.19513,31.72799],[-4.1967,31.7283],[-4.19696,31.72858],[-4.19711,31.72942],[-4.19767,31.73044],[-4.19775,31.73253],[-4.19822,31.73527],[-4.19802,31.73761],[-4.19859,31.74006],[-4.19863,31.74122],[-4.19823,31.74324],[-4.19782,31.74432],[-4.19703,31.74543],[-4.19534,31.74708],[-4.19508,31.74791],[-4.19596,31.74934],[-4.19643,31.75105],[-4.19655,31.75188],[-4.19643,31.7555],[-4.19772,31.75881],[-4.19955,31.76107],[-4.20211,31.76332],[-4.21196,31.7672],[-4.21278,31.76788],[-4.21421,31.76972],[-4.21967,31.7729],[-4.22053,31.77389],[-4.22293,31.77872],[-4.22627,31.78274],[-4.229,31.78537],[-4.22974,31.7858],[-4.23429,31.78747],[-4.23752,31.78888],[-4.23831,31.78949],[-4.23859,31.79009],[-4.23857,31.79084],[-4.23578,31.79919],[-4.23575,31.80071],[-4.24803,31.8419],[-4.24875,31.84334],[-4.24948,31.84431],[-4.25313,31.84748],[-4.25766,31.85035],[-4.26037,31.85122],[-4.26158,31.852],[-4.26653,31.85932],[-4.26742,31.86021],[-4.26843,31.86072],[-4.2696,31.86094],[-4.27397,31.86059],[-4.27667,31.86087],[-4.28348,31.86318],[-4.28715,31.86473],[-4.30292,31.87487],[-4.33135,31.89587],[-4.33628,31.89826],[-4.33806,31.89895],[-4.33879,31.89897],[-4.3447,31.9005],[-4.34754,31.90166],[-4.34939,31.90269],[-4.36236,31.91077],[-4.39396,31.93165],[-4.4,31.9338],[-4.40449,31.93649],[-4.40568,31.93738],[-4.40968,31.94214],[-4.41864,31.93962],[-4.42207,31.93645],[-4.42293,31.93353],[-4.42328,31.93299],[-4.43353,31.923],[-4.43501,31.92344],[-4.4395,31.92423],[-4.44167,31.92513],[-4.44437,31.92996],[-4.44653,31.93042],[-4.44892,31.93064],[-4.45223,31.93057],[-4.45716,31.93701],[-4.46208,31.94232],[-4.4819,31.96031],[-4.48319,31.96165],[-4.49282,31.97445],[-4.49294,31.97489],[-4.49346,31.97523],[-4.49574,31.97833],[-4.49665,31.97976],[-4.49765,31.98217],[-4.49807,31.9844],[-4.49808,31.98617],[-4.49775,31.98826],[-4.49676,31.99089],[-4.48148,32.01425],[-4.47757,32.02301],[-4.4768,32.02404],[-4.47597,32.02481],[-4.47394,32.02585],[-4.47284,32.02615],[-4.47162,32.02625],[-4.4689,32.02591],[-4.46418,32.02487],[-4.46285,32.02484],[-4.4616,32.02505],[-4.46026,32.02557],[-4.4588,32.02657],[-4.45772,32.02793],[-4.45614,32.03049],[-4.45519,32.03116],[-4.45399,32.03153],[-4.45272,32.03149],[-4.45157,32.03107],[-4.44865,32.02815],[-4.44786,32.02772],[-4.44655,32.02739],[-4.44501,32.02744],[-4.43167,32.02947],[-4.42995,32.03026],[-4.42878,32.03134],[-4.42809,32.03252],[-4.42738,32.03474],[-4.42666,32.03549],[-4.42461,32.03696],[-4.42318,32.03929],[-4.42248,32.03987],[-4.4192,32.04081],[-4.41863,32.04122],[-4.4168,32.04318],[-4.41122,32.04597],[-4.40957,32.04702],[-4.40837,32.04714],[-4.40415,32.04662],[-4.40324,32.04685],[-4.4028,32.04716],[-4.4024,32.0478],[-4.40237,32.04839],[-4.40272,32.04919],[-4.40309,32.04953],[-4.40469,32.05004],[-4.40579,32.05099],[-4.40697,32.05164],[-4.40952,32.05218],[-4.41016,32.05272],[-4.41029,32.05317],[-4.41012,32.05368],[-4.40839,32.056],[-4.40786,32.05819],[-4.40461,32.06267],[-4.40085,32.06535],[-4.39884,32.06615],[-4.39438,32.06674],[-4.39131,32.0687],[-4.39048,32.06947],[-4.38984,32.07089],[-4.38831,32.07297],[-4.38865,32.07649],[-4.38855,32.079],[-4.38825,32.07989],[-4.38724,32.08066],[-4.38206,32.08234],[-4.38065,32.08507],[-4.38032,32.08686],[-4.38113,32.09089],[-4.381,32.09152],[-4.37972,32.09212],[-4.3777,32.0936],[-4.37385,32.09417],[-4.37144,32.09483],[-4.36746,32.09739],[-4.36629,32.09856],[-4.36561,32.09998],[-4.36531,32.10448],[-4.36449,32.10789],[-4.36474,32.11077],[-4.3635,32.11504],[-4.36271,32.11666],[-4.36261,32.11723],[-4.36276,32.11862],[-4.36433,32.12217],[-4.3643,32.12522],[-4.36568,32.12724],[-4.36594,32.12824],[-4.36537,32.13176],[-4.36355,32.13637],[-4.36338,32.1396],[-4.36349,32.14041],[-4.36515,32.14414],[-4.36648,32.14595],[-4.36764,32.14677],[-4.37087,32.14751],[-4.37217,32.14817],[-4.37395,32.14953],[-4.37444,32.15014],[-4.37511,32.15225],[-4.37477,32.15336],[-4.37376,32.15405],[-4.37184,32.1544],[-4.36775,32.15454],[-4.36594,32.15508],[-4.36494,32.15569],[-4.36433,32.15629],[-4.36334,32.15791],[-4.36315,32.15861],[-4.36316,32.15979],[-4.36405,32.16175],[-4.36692,32.16492],[-4.36916,32.16695],[-4.37052,32.16782],[-4.37086,32.1685],[-4.37067,32.16896],[-4.36986,32.16971],[-4.36859,32.17029],[-4.36788,32.17127],[-4.36784,32.17288],[-4.36825,32.1734],[-4.36912,32.17374],[-4.36918,32.17407],[-4.36707,32.17451],[-4.36635,32.175],[-4.36496,32.17519],[-4.36375,32.1757],[-4.36279,32.1768],[-4.36258,32.17751],[-4.36282,32.17902],[-4.36262,32.18035],[-4.36275,32.18111],[-4.36345,32.18236],[-4.36611,32.1848],[-4.36953,32.18925],[-4.37701,32.19606],[-4.38723,32.209],[-4.39865,32.2294],[-4.39928,32.23105],[-4.3993,32.23292],[-4.39883,32.2345],[-4.39279,32.24542],[-4.39148,32.24734],[-4.38852,32.25053],[-4.38698,32.25264],[-4.38677,32.25324],[-4.38676,32.25413],[-4.38697,32.25477],[-4.38755,32.25558],[-4.38882,32.25667],[-4.39156,32.25817],[-4.3935,32.26042],[-4.39433,32.26088],[-4.39532,32.26108],[-4.39625,32.26103],[-4.40706,32.25891],[-4.41028,32.25866],[-4.41163,32.25893],[-4.41265,32.25959],[-4.41332,32.26062],[-4.41333,32.26174],[-4.41232,32.26414],[-4.41228,32.26476],[-4.41263,32.26551],[-4.41369,32.26654],[-4.4143,32.26641],[-4.43051,32.2662],[-4.43385,32.26548],[-4.44264,32.26306],[-4.44648,32.2624],[-4.44809,32.2624],[-4.4539,32.26299],[-4.45785,32.26454],[-4.46773,32.2704],[-4.47012,32.27141],[-4.47342,32.27351],[-4.47428,32.27377],[-4.47772,32.274],[-4.48463,32.27418],[-4.48535,32.27441],[-4.48572,32.27477],[-4.48624,32.27479],[-4.49615,32.27898],[-4.50483,32.28321],[-4.53186,32.3008],[-4.54137,32.30601],[-4.54468,32.31094],[-4.5478,32.31894],[-4.54944,32.32135],[-4.54955,32.32184],[-4.54941,32.32359],[-4.54979,32.32445],[-4.54933,32.32563],[-4.54938,32.32623],[-4.55147,32.32791],[-4.55234,32.3296],[-4.5524,32.33078],[-4.55189,32.33183],[-4.54625,32.33775],[-4.54254,32.34223],[-4.50321,32.38541],[-4.50281,32.38618],[-4.50264,32.38703],[-4.50344,32.39258],[-4.5033,32.39345],[-4.50295,32.39407],[-4.49993,32.3966],[-4.49624,32.40155],[-4.48037,32.42052],[-4.47366,32.43002],[-4.47343,32.43165],[-4.47358,32.43226],[-4.47409,32.43311],[-4.476,32.4339],[-4.47651,32.43392],[-4.47849,32.4334],[-4.47942,32.43352],[-4.4805,32.43407],[-4.48145,32.43502],[-4.48453,32.44026],[-4.48733,32.44255],[-4.48752,32.4434],[-4.48671,32.44592],[-4.48662,32.44686],[-4.48731,32.44844],[-4.48912,32.45031],[-4.48973,32.45075],[-4.49094,32.45121],[-4.49256,32.45147],[-4.49393,32.45276],[-4.49461,32.45272],[-4.49518,32.453],[-4.49568,32.45305],[-4.49771,32.45227],[-4.49853,32.45263],[-4.49913,32.45346],[-4.49922,32.45391],[-4.49847,32.45616],[-4.49846,32.45696],[-4.49869,32.45746],[-4.50057,32.45933],[-4.50081,32.46001],[-4.50057,32.46104],[-4.49855,32.46361],[-4.49742,32.46837],[-4.49705,32.46928],[-4.49294,32.47472],[-4.49237,32.47575],[-4.49128,32.47871],[-4.49065,32.48153],[-4.48362,32.50367],[-4.4831,32.51187],[-4.48201,32.52068],[-4.48252,32.52543],[-4.48346,32.53104],[-4.48457,32.53559],[-4.48615,32.53998],[-4.48768,32.5466],[-4.48905,32.56503],[-4.48799,32.56952],[-4.48761,32.57347],[-4.48764,32.57435],[-4.48789,32.57503],[-4.49513,32.58621],[-4.50322,32.59275],[-4.50461,32.59328],[-4.5063,32.59342],[-4.50803,32.59332],[-4.51072,32.59286],[-4.51452,32.59288],[-4.51863,32.59266],[-4.52236,32.59329],[-4.52477,32.59405],[-4.52769,32.59536],[-4.52865,32.59613],[-4.53027,32.59871],[-4.5306,32.60064],[-4.52995,32.60235],[-4.52749,32.60402],[-4.52746,32.60434],[-4.52812,32.60557],[-4.52817,32.60601],[-4.52799,32.60639],[-4.52677,32.60748],[-4.52665,32.60802],[-4.52697,32.60852],[-4.52842,32.60883],[-4.52888,32.60921],[-4.52904,32.60973],[-4.52878,32.61078],[-4.52884,32.61125],[-4.53019,32.61456],[-4.53087,32.6172],[-4.53165,32.61874],[-4.53303,32.62034],[-4.53294,32.62086],[-4.53239,32.62155],[-4.53224,32.62317],[-4.53263,32.62368],[-4.53355,32.62426],[-4.53387,32.62544],[-4.53346,32.62699],[-4.53248,32.62783],[-4.5324,32.62949],[-4.53261,32.62988],[-4.53293,32.63009],[-4.53357,32.63008],[-4.53453,32.62968],[-4.53547,32.62895],[-4.53682,32.62836],[-4.53714,32.62782],[-4.53719,32.62684],[-4.53762,32.62577],[-4.53787,32.62544],[-4.53827,32.62532],[-4.53867,32.62535],[-4.53895,32.62557],[-4.53932,32.62644],[-4.53994,32.62688],[-4.54212,32.62713],[-4.54424,32.62673],[-4.54515,32.62703],[-4.54768,32.63011],[-4.54999,32.63394],[-4.56833,32.65326],[-4.5704,32.65463],[-4.57211,32.65541],[-4.583,32.65928],[-4.58395,32.65949],[-4.58499,32.65933],[-4.58827,32.6571],[-4.58941,32.65668],[-4.59869,32.65655],[-4.60151,32.65703],[-4.60928,32.65955],[-4.64705,32.67702],[-4.6496,32.67795],[-4.6543,32.679],[-4.65733,32.67924],[-4.67129,32.67918],[-4.68055,32.68071],[-4.69224,32.68339],[-4.69767,32.68293],[-4.70154,32.683],[-4.70209,32.68325],[-4.70258,32.68303],[-4.70747,32.68315],[-4.70953,32.68261],[-4.71227,32.68215],[-4.71587,32.68117],[-4.7199,32.68102],[-4.72465,32.68029],[-4.73128,32.67862],[-4.73235,32.67868],[-4.73485,32.67968],[-4.73619,32.67969],[-4.73902,32.67918],[-4.74001,32.67926],[-4.74048,32.67944],[-4.74069,32.67973],[-4.74072,32.68092],[-4.74107,32.68194],[-4.74174,32.68278],[-4.74294,32.68358],[-4.74384,32.68593],[-4.74427,32.68652],[-4.75189,32.69305],[-4.75318,32.69502],[-4.75346,32.69681],[-4.75378,32.69757],[-4.75483,32.69869],[-4.75791,32.70016],[-4.75824,32.70054],[-4.75866,32.70055],[-4.7599,32.70101],[-4.76098,32.70107],[-4.76468,32.70069],[-4.77336,32.70238],[-4.77429,32.70277],[-4.7784,32.70534],[-4.77936,32.70573],[-4.79656,32.70653],[-4.8049,32.7046],[-4.81204,32.69928],[-4.81332,32.69874],[-4.8235,32.69745],[-4.84185,32.69771],[-4.84291,32.69793],[-4.84379,32.69838],[-4.84966,32.70403],[-4.85098,32.70485],[-4.87139,32.70961],[-4.87291,32.71032],[-4.88472,32.71809],[-4.8854,32.71872],[-4.88661,32.7204],[-4.88739,32.72101],[-4.90864,32.73489],[-4.90947,32.73574],[-4.91297,32.74385],[-4.91318,32.74645],[-4.91375,32.74771],[-4.91432,32.74828],[-4.92535,32.75591],[-4.92623,32.75682],[-4.93689,32.79055],[-4.93768,32.79143],[-4.94152,32.79376],[-4.94234,32.79446],[-4.94583,32.80175],[-4.95832,32.81619],[-4.95938,32.81804],[-4.95978,32.82088],[-4.96112,32.82296],[-4.96144,32.82394],[-4.96077,32.83316],[-4.96014,32.83428],[-4.95255,32.84344],[-4.95112,32.8467],[-4.94912,32.84858],[-4.94841,32.84975],[-4.94787,32.85238],[-4.94575,32.85903],[-4.94394,32.86845],[-4.94386,32.86995],[-4.94403,32.87108],[-4.9454,32.87561],[-4.94634,32.87701],[-4.95275,32.88134],[-4.95749,32.88339],[-4.95886,32.88468],[-4.95984,32.88514],[-4.96962,32.88634],[-4.97284,32.88648],[-4.97438,32.88672],[-5.0241,32.90193],[-5.0248,32.90238],[-5.03184,32.9096],[-5.0511,32.92993],[-5.05188,32.93045],[-5.05358,32.93116],[-5.05405,32.93156],[-5.05446,32.93223],[-5.05477,32.93355],[-5.05725,32.93709],[-5.05786,32.93864],[-5.06036,32.9396],[-5.06083,32.94013],[-5.06056,32.94166],[-5.05941,32.9454],[-5.05366,32.95418],[-5.05298,32.95636],[-5.05297,32.95775],[-5.05335,32.95876],[-5.05581,32.96223],[-5.05654,32.9651],[-5.05821,32.96928],[-5.05817,32.96961],[-5.05757,32.97032],[-5.05704,32.97251],[-5.05766,32.97287],[-5.05864,32.97411],[-5.05992,32.9743],[-5.06085,32.9759],[-5.06181,32.9766],[-5.06346,32.97731],[-5.0642,32.97847],[-5.06557,32.97947],[-5.06577,32.97998],[-5.06565,32.98157],[-5.06682,32.98237],[-5.06717,32.98308],[-5.06723,32.98384],[-5.06787,32.98445],[-5.06841,32.98537],[-5.07107,32.98709],[-5.0712,32.98763],[-5.07031,32.99214],[-5.0705,32.99327],[-5.07077,32.99382],[-5.07143,32.99447],[-5.07301,32.99544],[-5.07315,32.99669],[-5.07361,32.99765],[-5.07365,32.99899],[-5.07462,32.99981],[-5.07453,33.00013],[-5.07383,33.00089],[-5.0736,33.00216],[-5.07296,33.00369],[-5.0729,33.00609],[-5.07214,33.00969],[-5.07218,33.01335],[-5.07185,33.01503],[-5.07244,33.01764],[-5.07295,33.01835],[-5.0732,33.01937],[-5.07253,33.02113],[-5.07245,33.02545],[-5.07182,33.02723],[-5.07179,33.0286],[-5.07118,33.02939],[-5.06845,33.03162],[-5.06521,33.0331],[-5.06123,33.03726],[-5.0593,33.04037],[-5.05875,33.04093],[-5.05468,33.04316],[-5.05031,33.04594],[-5.04851,33.04638],[-5.04772,33.04676],[-5.04513,33.04907],[-5.03791,33.05826],[-5.03678,33.06013],[-5.0345,33.06157],[-5.03177,33.0655],[-5.03033,33.06646],[-5.02889,33.0681],[-5.02544,33.07086],[-5.02454,33.07191],[-5.02264,33.07303],[-5.02104,33.07462],[-5.01983,33.07652],[-5.01944,33.07822],[-5.01777,33.08021],[-5.01752,33.08102],[-5.01811,33.08752],[-5.0187,33.08975],[-5.01898,33.09036],[-5.02023,33.09143],[-5.02095,33.0924],[-5.02315,33.09647],[-5.02348,33.09776],[-5.02445,33.09941],[-5.02493,33.10111],[-5.02497,33.10209],[-5.02409,33.10471],[-5.02432,33.10625],[-5.02633,33.10899],[-5.02748,33.1131],[-5.02882,33.11427],[-5.03007,33.11628],[-5.03033,33.11708],[-5.02999,33.12091],[-5.03015,33.12162],[-5.0345,33.12824],[-5.03491,33.1304],[-5.03517,33.13095],[-5.03737,33.13265],[-5.04718,33.13833],[-5.0529,33.14309],[-5.05391,33.14415],[-5.05535,33.14858],[-5.0557,33.14917],[-5.05627,33.14965],[-5.05936,33.15039],[-5.06324,33.15213],[-5.06668,33.15279],[-5.06766,33.15344],[-5.06813,33.15429],[-5.06811,33.15522],[-5.06584,33.16013],[-5.06657,33.16388],[-5.06657,33.16464],[-5.06188,33.17319],[-5.06172,33.17385],[-5.06165,33.17709],[-5.06074,33.17881],[-5.06054,33.17956],[-5.06201,33.1844],[-5.06219,33.18609],[-5.06178,33.18821],[-5.06208,33.19123],[-5.06225,33.19211],[-5.06335,33.19426],[-5.064,33.1987],[-5.06364,33.20101],[-5.06091,33.2089],[-5.05974,33.21133],[-5.06013,33.22884],[-5.05987,33.22977],[-5.05864,33.23114],[-5.05823,33.23208],[-5.05829,33.23425],[-5.05863,33.23561],[-5.05914,33.2365],[-5.05996,33.23718],[-5.06466,33.23912],[-5.07048,33.24075],[-5.0712,33.24128],[-5.07176,33.24222],[-5.07078,33.25562],[-5.07096,33.25642],[-5.07238,33.25885],[-5.07353,33.2701],[-5.07444,33.27638],[-5.07613,33.28374],[-5.07738,33.28838],[-5.07779,33.28916],[-5.07841,33.28994],[-5.08034,33.29134],[-5.08797,33.29565],[-5.0956,33.29957],[-5.09816,33.30145],[-5.09963,33.30213],[-5.10335,33.30322],[-5.10838,33.30607],[-5.11531,33.31158],[-5.11752,33.31519],[-5.11847,33.31629],[-5.12741,33.32306],[-5.12962,33.32631],[-5.13139,33.32837],[-5.13325,33.33477],[-5.14401,33.35388],[-5.14456,33.35458],[-5.14911,33.35774],[-5.14983,33.35851],[-5.15,33.35958],[-5.14977,33.36368],[-5.15006,33.36475],[-5.16301,33.383],[-5.16466,33.38741],[-5.16753,33.39327],[-5.16922,33.39521],[-5.17305,33.39762],[-5.17547,33.39975],[-5.17959,33.40122],[-5.18428,33.40518],[-5.18523,33.40702],[-5.18518,33.40766],[-5.17964,33.41515],[-5.17813,33.41987],[-5.17807,33.42058],[-5.1787,33.4217],[-5.17864,33.42269],[-5.17904,33.42374],[-5.17899,33.42476],[-5.17832,33.42583],[-5.1778,33.42619],[-5.17685,33.42632],[-5.1759,33.42682],[-5.17459,33.42778],[-5.17417,33.42861],[-5.17411,33.42898],[-5.17446,33.43014],[-5.17502,33.43144],[-5.18105,33.43431],[-5.1846,33.435],[-5.18549,33.43505],[-5.18692,33.43374],[-5.1899,33.42888],[-5.19077,33.42772],[-5.1917,33.42701],[-5.1922,33.42613],[-5.19472,33.42552],[-5.1968,33.42573],[-5.19835,33.4269],[-5.1991,33.42784],[-5.20088,33.42799],[-5.20245,33.42838],[-5.20282,33.42862],[-5.20301,33.42912],[-5.20266,33.43057],[-5.20277,33.43165],[-5.2056,33.43583],[-5.20584,33.4375],[-5.20568,33.43858],[-5.20507,33.43914],[-5.20135,33.44081],[-5.19896,33.44142],[-5.19405,33.444],[-5.18647,33.44625],[-5.18492,33.44636],[-5.18323,33.44611],[-5.18187,33.44618],[-5.17958,33.44715],[-5.17191,33.44911],[-5.17089,33.44951],[-5.17029,33.45013],[-5.1675,33.45503],[-5.16683,33.45671],[-5.16566,33.45844],[-5.1652,33.45989],[-5.16402,33.46094],[-5.16197,33.46387],[-5.16196,33.46455],[-5.16275,33.46528],[-5.16171,33.46606],[-5.16121,33.46617],[-5.15977,33.46587],[-5.15841,33.46588],[-5.1566,33.46546],[-5.15456,33.46547],[-5.15242,33.46596],[-5.1512,33.46591],[-5.14898,33.46719],[-5.14789,33.46748],[-5.14734,33.4681],[-5.14642,33.46857],[-5.14497,33.47006],[-5.14457,33.4707],[-5.14355,33.47139],[-5.14301,33.47271],[-5.1422,33.47318],[-5.14174,33.4739],[-5.14105,33.47407],[-5.1408,33.47494],[-5.1404,33.47527],[-5.14068,33.47637],[-5.13955,33.47632],[-5.13869,33.47666],[-5.1383,33.47754],[-5.13743,33.47855],[-5.13567,33.47952],[-5.13506,33.48014],[-5.13502,33.48072],[-5.13335,33.48207],[-5.13255,33.48456],[-5.13023,33.48765],[-5.12969,33.48972],[-5.12796,33.49117],[-5.12628,33.49227],[-5.12449,33.49392],[-5.12241,33.49548],[-5.12133,33.49665],[-5.11791,33.49786],[-5.11614,33.50005],[-5.11262,33.50156],[-5.11148,33.5029],[-5.11142,33.50446],[-5.11034,33.50644],[-5.11049,33.5072],[-5.1111,33.50781],[-5.11258,33.50852],[-5.11322,33.50906],[-5.11453,33.51219],[-5.11527,33.51315],[-5.11592,33.51361],[-5.11894,33.51505],[-5.11598,33.51932],[-5.11193,33.5231],[-5.11082,33.52381],[-5.10746,33.52519],[-5.10498,33.52752],[-5.1064,33.52952],[-5.10666,33.53201],[-5.10535,33.53313],[-5.10289,33.5335],[-5.10234,33.53385],[-5.10201,33.53433],[-5.10191,33.53486],[-5.10225,33.53946],[-5.10215,33.54035],[-5.10172,33.54102],[-5.0999,33.54216],[-5.09946,33.54266],[-5.09803,33.54574],[-5.09758,33.54813],[-5.09627,33.55081],[-5.09635,33.55153],[-5.09792,33.55469],[-5.09759,33.55737],[-5.09632,33.5617],[-5.09659,33.56841],[-5.09648,33.56961],[-5.09579,33.57129],[-5.0949,33.5752],[-5.0944,33.57633],[-5.09388,33.57714],[-5.09157,33.57964],[-5.09107,33.58055],[-5.08986,33.58497],[-5.08812,33.58914],[-5.08772,33.59141],[-5.08145,33.60907],[-5.08114,33.61113],[-5.0818,33.61887],[-5.08153,33.62024],[-5.0672,33.64801],[-5.06402,33.65209],[-5.06249,33.65394],[-5.06168,33.65468],[-5.05638,33.65742],[-5.05184,33.65929],[-5.04762,33.66022],[-5.04581,33.66099],[-5.04123,33.66476],[-5.03696,33.67],[-5.03428,33.67175],[-5.03219,33.67362],[-5.03117,33.67495],[-5.02743,33.68183],[-5.01601,33.70038],[-5.01516,33.70246],[-5.014,33.70761],[-5.01321,33.71226],[-5.01144,33.71714],[-5.01078,33.72046],[-5.01041,33.7237],[-5.01065,33.72874],[-5.01043,33.73041],[-5.00938,33.73239],[-5.0089,33.73283],[-5.00746,33.73526],[-5.00548,33.73592],[-5.00382,33.73718],[-5.00359,33.73765],[-5.0037,33.73814],[-5.00403,33.73848],[-5.0047,33.73862],[-5.00573,33.73854],[-5.00692,33.73888],[-5.00779,33.73936],[-5.00814,33.73995],[-5.00791,33.74154],[-5.00744,33.74257],[-5.00464,33.7443],[-5.00401,33.74504],[-5.00451,33.74661],[-5.00395,33.74819],[-5.00401,33.75202],[-5.00514,33.75471],[-5.00475,33.75619],[-5.00526,33.75749],[-5.00546,33.75915],[-5.00515,33.76225],[-5.0041,33.76344],[-5.00408,33.76484],[-5.00363,33.76598],[-5.00443,33.76759],[-5.00443,33.76845],[-5.00404,33.76905],[-5.00309,33.76987],[-5.0012,33.77092],[-5.00059,33.77144],[-4.99274,33.781],[-4.99172,33.78276],[-4.99162,33.7833],[-4.99186,33.78395],[-4.99445,33.78591],[-4.9948,33.78642],[-4.99489,33.78728],[-4.99451,33.78797],[-4.99365,33.7885],[-4.99253,33.78871],[-4.99026,33.78826],[-4.9895,33.78831],[-4.98741,33.78924],[-4.98669,33.79013],[-4.98653,33.79087],[-4.98682,33.79146],[-4.98922,33.79222],[-4.99069,33.79346],[-4.99099,33.79389],[-4.99111,33.79451],[-4.99078,33.79556],[-4.98887,33.79959],[-4.98842,33.80024],[-4.9846,33.8041],[-4.98393,33.80535],[-4.98373,33.80653],[-4.98495,33.86048],[-4.98612,33.87295],[-4.98481,33.8949],[-4.98453,33.89578],[-4.98478,33.8959],[-4.98539,33.89579],[-4.99068,33.89602],[-4.99151,33.89621],[-4.99197,33.89655],[-4.9922,33.89717],[-4.99197,33.89887],[-4.99178,33.89907],[-4.9913,33.89915],[-4.99084,33.89878],[-4.99105,33.89826],[-4.99281,33.89813],[-4.99858,33.89864],[-5.00323,33.89951],[-5.0054,33.90011],[-5.0086,33.9012],[-5.0234,33.90705],[-5.02649,33.90858],[-5.02823,33.90974],[-5.03042,33.91163],[-5.03877,33.92092],[-5.04133,33.92331],[-5.04531,33.92616],[-5.0657,33.93923],[-5.06741,33.94083],[-5.07069,33.94507],[-5.07092,33.94569],[-5.07063,33.94653],[-5.06906,33.94755],[-5.06562,33.94884],[-5.06262,33.94951],[-5.05851,33.94974],[-5.05222,33.94921],[-5.04979,33.94935],[-5.04593,33.94995],[-5.04236,33.94977],[-5.04075,33.95005],[-5.03989,33.95046],[-5.03906,33.95112],[-5.03708,33.95334],[-5.03614,33.95482],[-5.0345,33.95617],[-5.03335,33.95753],[-5.03264,33.95895],[-5.03208,33.96086],[-5.03219,33.96101],[-5.03139,33.96646],[-5.03091,33.9746],[-5.03049,33.97666],[-5.02955,33.97921],[-5.02552,33.98727],[-5.02411,33.99055],[-5.02385,33.9925],[-5.02466,33.99699],[-5.02462,33.99811],[-5.02263,34.00446],[-5.0224,34.00465],[-5.02248,34.00507],[-5.02168,34.00761],[-5.02064,34.01075],[-5.02045,34.01088],[-5.02055,34.01106],[-5.0189,34.0166],[-5.01873,34.01681],[-5.01826,34.01685],[-5.01804,34.01711],[-5.01864,34.01863],[-5.01786,34.01958],[-5.016,34.0236],[-5.01573,34.02385],[-5.01787,34.0247],[-5.02126,34.0265],[-5.01733,34.02862],[-5.01446,34.03094],[-5.01366,34.03119],[-5.01403,34.03213],[-5.01564,34.03317],[-5.01572,34.03467]],"type":"LineString"}},{"type":"Feature","properties":{"name":"Fes, Morocco → Chefchaouen, Morocco"},"geometry":{"coordinates":[[-5.01572,34.03467],[-5.01577,34.03553],[-5.01499,34.03606],[-5.01534,34.03655],[-5.01481,34.03654],[-5.01465,34.0408],[-5.01443,34.04085],[-5.01431,34.04122],[-5.0132,34.04205],[-5.0125,34.04283],[-5.01213,34.04292],[-5.01213,34.04334],[-5.01189,34.04364],[-5.01068,34.04436],[-5.00457,34.04571],[-5.00126,34.04681],[-5.00166,34.05011],[-5.00449,34.05842],[-5.00583,34.06298],[-5.00051,34.06499],[-5.00011,34.06496],[-4.99991,34.0652],[-5.00002,34.06546],[-5.00696,34.06823],[-5.01306,34.07145],[-5.01431,34.07171],[-5.01524,34.07223],[-5.01672,34.07237],[-5.01802,34.073],[-5.02156,34.07528],[-5.02201,34.07586],[-5.02172,34.07683],[-5.02182,34.07733],[-5.02318,34.07869],[-5.02341,34.07916],[-5.02329,34.07971],[-5.02204,34.08147],[-5.02219,34.08204],[-5.02276,34.08289],[-5.02386,34.0836],[-5.02623,34.08435],[-5.02668,34.0848],[-5.02749,34.08632],[-5.03089,34.08924],[-5.03326,34.09025],[-5.03842,34.09356],[-5.04048,34.09456],[-5.04214,34.09396],[-5.04417,34.09373],[-5.0485,34.09442],[-5.0498,34.09502],[-5.05445,34.09865],[-5.05579,34.09894],[-5.05804,34.09872],[-5.05914,34.09883],[-5.06361,34.10087],[-5.06447,34.102],[-5.06508,34.10465],[-5.06636,34.10626],[-5.06734,34.1069],[-5.07218,34.10892],[-5.07275,34.10962],[-5.07272,34.11004],[-5.07229,34.11048],[-5.06783,34.11281],[-5.06704,34.11342],[-5.06665,34.11395],[-5.06633,34.11533],[-5.06627,34.11663],[-5.06666,34.11738],[-5.06723,34.11783],[-5.06777,34.11806],[-5.06858,34.11812],[-5.07204,34.11748],[-5.07357,34.11779],[-5.08608,34.12564],[-5.08702,34.12605],[-5.08835,34.12616],[-5.09736,34.1257],[-5.09815,34.12577],[-5.09907,34.1261],[-5.09995,34.12677],[-5.10449,34.13368],[-5.10562,34.13485],[-5.11869,34.14245],[-5.15983,34.17045],[-5.16156,34.17106],[-5.17222,34.17281],[-5.17956,34.17497],[-5.18518,34.1771],[-5.19199,34.17903],[-5.19647,34.17995],[-5.20036,34.18215],[-5.20196,34.18334],[-5.20341,34.18379],[-5.20486,34.18511],[-5.20699,34.18618],[-5.20807,34.1873],[-5.21006,34.18823],[-5.21145,34.18834],[-5.2118,34.18849],[-5.21318,34.18965],[-5.21426,34.19098],[-5.21643,34.192],[-5.22001,34.19564],[-5.22112,34.19592],[-5.22349,34.19556],[-5.22533,34.196],[-5.22598,34.1963],[-5.22988,34.19962],[-5.23624,34.20832],[-5.24373,34.21613],[-5.24481,34.21849],[-5.2462,34.22058],[-5.24692,34.22301],[-5.24822,34.2255],[-5.25119,34.22753],[-5.2533,34.2279],[-5.25543,34.22793],[-5.25952,34.23012],[-5.26004,34.23124],[-5.26089,34.23462],[-5.26287,34.23837],[-5.26368,34.23967],[-5.26616,34.24242],[-5.26701,34.24267],[-5.27035,34.24235],[-5.27149,34.24304],[-5.27297,34.24453],[-5.27369,34.24488],[-5.27713,34.24531],[-5.28475,34.24724],[-5.29296,34.24755],[-5.29442,34.24777],[-5.30021,34.24919],[-5.30445,34.25146],[-5.30644,34.25104],[-5.3124,34.25115],[-5.32423,34.24836],[-5.32489,34.24861],[-5.32822,34.25086],[-5.33166,34.25201],[-5.33243,34.25188],[-5.33362,34.25126],[-5.33491,34.25082],[-5.3394,34.25069],[-5.34162,34.25167],[-5.3426,34.25193],[-5.39231,34.25705],[-5.39451,34.25761],[-5.40555,34.26238],[-5.40704,34.26287],[-5.41885,34.26587],[-5.42106,34.2661],[-5.42822,34.26602],[-5.42944,34.26631],[-5.433,34.26764],[-5.43391,34.26782],[-5.44313,34.26743],[-5.44461,34.26703],[-5.44939,34.26515],[-5.45523,34.2648],[-5.45913,34.2638],[-5.46174,34.26389],[-5.46058,34.26868],[-5.4605,34.2728],[-5.46318,34.29213],[-5.4636,34.29442],[-5.46436,34.29664],[-5.46611,34.29966],[-5.47698,34.31455],[-5.47869,34.31658],[-5.48026,34.31805],[-5.48196,34.31931],[-5.49069,34.32464],[-5.49166,34.32577],[-5.49229,34.32724],[-5.49229,34.32857],[-5.49201,34.32947],[-5.48686,34.33901],[-5.48657,34.33975],[-5.48649,34.34081],[-5.48967,34.35],[-5.49796,34.36961],[-5.49813,34.37164],[-5.49697,34.38698],[-5.49703,34.38864],[-5.49905,34.39393],[-5.49987,34.39488],[-5.50159,34.39631],[-5.5024,34.39743],[-5.50391,34.40271],[-5.50393,34.40397],[-5.50351,34.40571],[-5.50343,34.40741],[-5.50358,34.40813],[-5.50457,34.41007],[-5.50477,34.41102],[-5.50484,34.41698],[-5.50478,34.42006],[-5.50382,34.42516],[-5.5038,34.42648],[-5.50826,34.46649],[-5.50888,34.46791],[-5.5182,34.48176],[-5.51877,34.48349],[-5.51848,34.48517],[-5.51776,34.4864],[-5.51473,34.48942],[-5.51377,34.48984],[-5.51383,34.49036],[-5.51227,34.49326],[-5.5105,34.49995],[-5.50988,34.50083],[-5.50728,34.50323],[-5.50641,34.50542],[-5.5061,34.50731],[-5.50651,34.51515],[-5.50544,34.51869],[-5.50508,34.52279],[-5.50515,34.52384],[-5.50555,34.52477],[-5.50674,34.52634],[-5.51192,34.5345],[-5.51278,34.53521],[-5.5162,34.53698],[-5.51945,34.53987],[-5.52025,34.54099],[-5.52105,34.54281],[-5.52189,34.54657],[-5.52532,34.55391],[-5.52746,34.56751],[-5.5277,34.56824],[-5.53353,34.58014],[-5.53702,34.58317],[-5.5379,34.58427],[-5.53821,34.58543],[-5.53818,34.58799],[-5.53927,34.59027],[-5.54254,34.59396],[-5.5439,34.5951],[-5.5452,34.59561],[-5.55244,34.59669],[-5.55353,34.59738],[-5.55393,34.5983],[-5.5541,34.59988],[-5.55398,34.60037],[-5.55376,34.60079],[-5.55268,34.60152],[-5.54792,34.6019],[-5.53895,34.60201],[-5.53774,34.60237],[-5.53676,34.60289],[-5.53585,34.60365],[-5.53526,34.60447],[-5.53289,34.61001],[-5.53239,34.61365],[-5.53246,34.61467],[-5.5332,34.61632],[-5.53504,34.61815],[-5.53554,34.61894],[-5.53911,34.62726],[-5.53925,34.62816],[-5.53895,34.62901],[-5.53819,34.62978],[-5.5335,34.63169],[-5.53265,34.63229],[-5.53213,34.6335],[-5.53239,34.63549],[-5.53312,34.63672],[-5.53404,34.63729],[-5.53877,34.63812],[-5.53984,34.6385],[-5.54281,34.64108],[-5.54344,34.64186],[-5.54361,34.64302],[-5.54303,34.64488],[-5.54274,34.64736],[-5.54308,34.64915],[-5.54546,34.65261],[-5.55352,34.66721],[-5.55372,34.66823],[-5.55303,34.67115],[-5.55271,34.67358],[-5.55283,34.67417],[-5.55345,34.67523],[-5.55588,34.67717],[-5.55792,34.67851],[-5.55972,34.68054],[-5.56432,34.68215],[-5.56739,34.68426],[-5.56816,34.68517],[-5.56876,34.68681],[-5.56998,34.68875],[-5.57089,34.68945],[-5.57418,34.69133],[-5.57476,34.69197],[-5.57504,34.69266],[-5.5751,34.69363],[-5.57465,34.69543],[-5.57396,34.69634],[-5.57191,34.69734],[-5.56934,34.69902],[-5.56386,34.70175],[-5.55842,34.70525],[-5.55477,34.70605],[-5.55375,34.7066],[-5.55323,34.70718],[-5.55165,34.71183],[-5.54906,34.7272],[-5.54434,34.73267],[-5.54407,34.73352],[-5.54397,34.73662],[-5.54373,34.73725],[-5.53991,34.74172],[-5.53948,34.74245],[-5.53882,34.74445],[-5.53889,34.7454],[-5.54165,34.75197],[-5.54169,34.75243],[-5.54122,34.75432],[-5.54185,34.75749],[-5.54168,34.76093],[-5.54199,34.76464],[-5.54453,34.7689],[-5.54566,34.77405],[-5.54656,34.77605],[-5.54651,34.7769],[-5.54572,34.77912],[-5.5453,34.78252],[-5.54484,34.78335],[-5.5451,34.78392],[-5.54652,34.78511],[-5.54683,34.78582],[-5.54676,34.78637],[-5.54599,34.78781],[-5.54628,34.7898],[-5.54541,34.79307],[-5.54535,34.79393],[-5.54613,34.79692],[-5.54818,34.80173],[-5.54876,34.80582],[-5.5492,34.81239],[-5.54995,34.81591],[-5.55029,34.81855],[-5.54999,34.82385],[-5.54937,34.82622],[-5.5489,34.8268],[-5.54721,34.82815],[-5.54485,34.83168],[-5.54359,34.83315],[-5.54123,34.8379],[-5.53991,34.84137],[-5.54006,34.84399],[-5.5393,34.8468],[-5.53913,34.84835],[-5.53923,34.84951],[-5.53863,34.85111],[-5.53887,34.85271],[-5.5374,34.86019],[-5.53744,34.86457],[-5.53766,34.86869],[-5.53894,34.87579],[-5.54116,34.88107],[-5.54124,34.88219],[-5.5401,34.88598],[-5.53817,34.88852],[-5.53638,34.88958],[-5.53532,34.89092],[-5.53123,34.90044],[-5.53148,34.90188],[-5.53391,34.90458],[-5.53555,34.90677],[-5.53589,34.90844],[-5.53682,34.91017],[-5.53654,34.91192],[-5.53689,34.91329],[-5.53687,34.91465],[-5.53745,34.91519],[-5.54016,34.91675],[-5.54094,34.91834],[-5.541,34.91887],[-5.54068,34.92013],[-5.5402,34.9208],[-5.53903,34.92144],[-5.53787,34.92235],[-5.5355,34.92312],[-5.53475,34.9236],[-5.53275,34.92751],[-5.5322,34.92977],[-5.53329,34.933],[-5.53329,34.93667],[-5.5345,34.93757],[-5.53489,34.93912],[-5.53441,34.94004],[-5.53269,34.94147],[-5.53217,34.94287],[-5.53139,34.9438],[-5.53067,34.94432],[-5.53033,34.94493],[-5.53061,34.947],[-5.52852,34.95054],[-5.52802,34.95225],[-5.52793,34.95415],[-5.5281,34.95476],[-5.52866,34.95561],[-5.53028,34.95782],[-5.53094,34.95838],[-5.53219,34.9588],[-5.53571,34.95874],[-5.53727,34.95915],[-5.53827,34.96001],[-5.54048,34.96288],[-5.54099,34.96437],[-5.54097,34.96871],[-5.54215,34.9718],[-5.54321,34.97275],[-5.54507,34.97329],[-5.54566,34.97363],[-5.54667,34.97448],[-5.54706,34.97509],[-5.54695,34.97582],[-5.54538,34.97827],[-5.54504,34.98045],[-5.54438,34.98169],[-5.54095,34.98676],[-5.53989,34.98756],[-5.53876,34.98805],[-5.53745,34.98817],[-5.53622,34.98801],[-5.53117,34.98688],[-5.5296,34.98671],[-5.52604,34.98779],[-5.5212,34.98706],[-5.5154,34.98761],[-5.51439,34.98788],[-5.5127,34.98884],[-5.51183,34.9898],[-5.5116,34.99301],[-5.51134,34.99365],[-5.50478,34.9992],[-5.50257,35.00284],[-5.50148,35.00334],[-5.49532,35.00453],[-5.49092,35.00699],[-5.48952,35.00739],[-5.48906,35.00796],[-5.48576,35.01494],[-5.48527,35.01552],[-5.48432,35.01598],[-5.48089,35.01709],[-5.47951,35.01802],[-5.47732,35.01791],[-5.47655,35.01814],[-5.47617,35.01845],[-5.47584,35.01927],[-5.47603,35.02147],[-5.47654,35.02271],[-5.47808,35.02491],[-5.47894,35.02774],[-5.47887,35.02861],[-5.47819,35.02968],[-5.47694,35.03028],[-5.4766,35.03063],[-5.47589,35.03197],[-5.47551,35.03365],[-5.47498,35.03435],[-5.47334,35.03479],[-5.46977,35.03458],[-5.46889,35.03483],[-5.46791,35.03584],[-5.46596,35.03885],[-5.4652,35.03934],[-5.46218,35.03945],[-5.45577,35.03741],[-5.45533,35.0371],[-5.45313,35.03444],[-5.45239,35.03383],[-5.45059,35.03314],[-5.4486,35.03333],[-5.44773,35.03313],[-5.44583,35.03227],[-5.44399,35.03207],[-5.44274,35.03136],[-5.44027,35.03056],[-5.43973,35.03004],[-5.4393,35.02907],[-5.43773,35.02823],[-5.43184,35.02732],[-5.42722,35.02472],[-5.4258,35.02427],[-5.42328,35.02297],[-5.4223,35.02195],[-5.42177,35.02172],[-5.42075,35.02181],[-5.41782,35.02257],[-5.41481,35.02212],[-5.41307,35.02266],[-5.41182,35.02242],[-5.41131,35.02251],[-5.41026,35.02384],[-5.40992,35.02607],[-5.40939,35.02676],[-5.40779,35.02747],[-5.40544,35.02925],[-5.40357,35.03],[-5.40283,35.03115],[-5.40059,35.03241],[-5.39871,35.03152],[-5.39466,35.0281],[-5.39393,35.02721],[-5.39313,35.02674],[-5.39122,35.02609],[-5.38964,35.02648],[-5.38898,35.02649],[-5.38576,35.02501],[-5.38474,35.02477],[-5.38318,35.0249],[-5.38179,35.02567],[-5.37796,35.02587],[-5.37684,35.02668],[-5.37219,35.02708],[-5.37117,35.02741],[-5.36744,35.03112],[-5.36673,35.03214],[-5.36309,35.03436],[-5.36053,35.03738],[-5.36034,35.03788],[-5.36027,35.04035],[-5.36005,35.04082],[-5.35938,35.04109],[-5.35802,35.04119],[-5.3568,35.04188],[-5.35343,35.04311],[-5.35284,35.0442],[-5.35347,35.04655],[-5.35344,35.04715],[-5.34988,35.05124],[-5.34809,35.05254],[-5.34336,35.05433],[-5.34202,35.05549],[-5.34068,35.05609],[-5.33538,35.05932],[-5.33489,35.06012],[-5.33478,35.06119],[-5.33409,35.06242],[-5.33294,35.06353],[-5.33214,35.06513],[-5.33076,35.06623],[-5.33036,35.06748],[-5.32992,35.06807],[-5.32852,35.06886],[-5.32716,35.06904],[-5.3262,35.06954],[-5.32438,35.07195],[-5.32304,35.07259],[-5.32148,35.0741],[-5.32105,35.07417],[-5.31799,35.07364],[-5.31714,35.07387],[-5.31573,35.07395],[-5.31459,35.07439],[-5.31419,35.0747],[-5.31362,35.07567],[-5.31354,35.07722],[-5.31194,35.07776],[-5.31152,35.07852],[-5.31086,35.0789],[-5.30984,35.08006],[-5.30952,35.08099],[-5.30829,35.08193],[-5.30824,35.08242],[-5.30871,35.08345],[-5.30872,35.08393],[-5.30833,35.08456],[-5.3076,35.08497],[-5.3067,35.08615],[-5.30688,35.08724],[-5.30765,35.08844],[-5.30737,35.08915],[-5.30767,35.09014],[-5.30698,35.09071],[-5.30689,35.0911],[-5.30796,35.09331],[-5.3084,35.09357],[-5.30962,35.09387],[-5.30982,35.09407],[-5.30968,35.09542],[-5.30941,35.09593],[-5.30649,35.09775],[-5.3059,35.09776],[-5.30387,35.0969],[-5.30242,35.09705],[-5.30107,35.09761],[-5.29996,35.09861],[-5.29875,35.10028],[-5.29692,35.10088],[-5.29499,35.1022],[-5.293,35.10423],[-5.29143,35.10495],[-5.28971,35.10627],[-5.28882,35.10915],[-5.28767,35.11025],[-5.28692,35.11072],[-5.2879,35.11465],[-5.28849,35.11578],[-5.2895,35.11692],[-5.28958,35.11732],[-5.28924,35.11765],[-5.28893,35.1202],[-5.28903,35.12184],[-5.28979,35.12318],[-5.28809,35.12521],[-5.28748,35.12671],[-5.28802,35.12785],[-5.28817,35.12903],[-5.28848,35.12946],[-5.28839,35.13001],[-5.28758,35.13121],[-5.28703,35.13159],[-5.28683,35.13201],[-5.28499,35.13378],[-5.28359,35.13413],[-5.28247,35.13492],[-5.28227,35.13585],[-5.28201,35.13619],[-5.28025,35.13672],[-5.27813,35.13646],[-5.27648,35.13709],[-5.27556,35.13727],[-5.27467,35.13776],[-5.27366,35.13941],[-5.27247,35.14043],[-5.27258,35.14066],[-5.27334,35.14082],[-5.27351,35.14128],[-5.27322,35.14241],[-5.27221,35.14309],[-5.27254,35.14479],[-5.27222,35.1459],[-5.27282,35.14718],[-5.27257,35.14757],[-5.27194,35.14785],[-5.27183,35.14815],[-5.27204,35.1485],[-5.27311,35.14902],[-5.2731,35.14946],[-5.27168,35.15088],[-5.27014,35.15202],[-5.26798,35.15264],[-5.26801,35.15347],[-5.26661,35.15369],[-5.26649,35.15481],[-5.26626,35.1551],[-5.2649,35.15525],[-5.26403,35.155],[-5.26357,35.15562],[-5.26345,35.1564],[-5.26222,35.15709],[-5.26136,35.15869],[-5.26195,35.16077],[-5.26169,35.1623],[-5.26116,35.16276],[-5.26106,35.16311],[-5.26159,35.16472],[-5.26219,35.16583],[-5.26264,35.16619],[-5.26553,35.16655],[-5.26582,35.16707],[-5.26722,35.16761],[-5.26887,35.16797],[-5.26857,35.16847],[-5.26798,35.16858],[-5.26801,35.16899]],"type":"LineString"}},{"type":"Feature","properties":{"name":"Chefchaouen, Morocco → Tangier, Morocco"},"geometry":{"coordinates":[[-5.26801,35.16899],[-5.26836,35.16913],[-5.26838,35.16968],[-5.26864,35.17003],[-5.26969,35.17062],[-5.27099,35.17067],[-5.27283,35.17046],[-5.2732,35.17171],[-5.273,35.17271],[-5.27321,35.17335],[-5.27442,35.17267],[-5.2766,35.17254],[-5.27756,35.17343],[-5.27903,35.17439],[-5.27994,35.17529],[-5.28246,35.17523],[-5.28297,35.1755],[-5.28348,35.17624],[-5.2834,35.17738],[-5.28362,35.17898],[-5.28298,35.1809],[-5.28386,35.182],[-5.2847,35.18221],[-5.28491,35.18242],[-5.28481,35.18283],[-5.28419,35.18358],[-5.28414,35.18406],[-5.28522,35.18517],[-5.28527,35.18594],[-5.28499,35.18684],[-5.28568,35.18892],[-5.28739,35.19082],[-5.28874,35.19113],[-5.28928,35.19157],[-5.29079,35.19208],[-5.29119,35.19212],[-5.29189,35.19185],[-5.2931,35.19218],[-5.29367,35.19259],[-5.29508,35.19231],[-5.29634,35.19287],[-5.29733,35.19248],[-5.29924,35.19204],[-5.30013,35.19122],[-5.30284,35.19069],[-5.3037,35.19129],[-5.30348,35.19205],[-5.30362,35.19246],[-5.30505,35.19348],[-5.30641,35.1941],[-5.30695,35.19419],[-5.30817,35.1936],[-5.30864,35.19354],[-5.31031,35.19468],[-5.31165,35.19799],[-5.312,35.1997],[-5.3129,35.20142],[-5.31749,35.2068],[-5.31789,35.20766],[-5.31783,35.20855],[-5.31692,35.21052],[-5.3156,35.21776],[-5.31499,35.2197],[-5.31503,35.22025],[-5.31561,35.22092],[-5.32137,35.22378],[-5.32208,35.22448],[-5.32235,35.22651],[-5.32236,35.22939],[-5.32281,35.22977],[-5.32454,35.23273],[-5.32454,35.23324],[-5.32403,35.23464],[-5.32396,35.23597],[-5.32458,35.23879],[-5.32513,35.23995],[-5.32543,35.24149],[-5.3265,35.24298],[-5.33016,35.24453],[-5.33085,35.24622],[-5.33225,35.2471],[-5.3339,35.24938],[-5.34077,35.2556],[-5.34121,35.25777],[-5.34212,35.25949],[-5.34268,35.25982],[-5.34469,35.26015],[-5.34525,35.26051],[-5.34651,35.26204],[-5.34643,35.26343],[-5.34663,35.26398],[-5.34713,35.26446],[-5.34853,35.26519],[-5.3489,35.26558],[-5.34902,35.26605],[-5.34877,35.26741],[-5.35063,35.26913],[-5.35054,35.26978],[-5.35006,35.27058],[-5.35046,35.27189],[-5.35025,35.2723],[-5.34817,35.2738],[-5.34813,35.27561],[-5.34845,35.27594],[-5.34932,35.27593],[-5.34984,35.27626],[-5.35064,35.27745],[-5.3522,35.27904],[-5.35232,35.27951],[-5.35203,35.28094],[-5.34971,35.28329],[-5.3496,35.28438],[-5.34869,35.28559],[-5.34868,35.28757],[-5.34971,35.28902],[-5.34903,35.29219],[-5.34928,35.29313],[-5.35033,35.29416],[-5.35088,35.29503],[-5.35072,35.29686],[-5.35108,35.29773],[-5.34889,35.3016],[-5.34885,35.30206],[-5.34931,35.30299],[-5.34974,35.30465],[-5.35068,35.30594],[-5.35117,35.30712],[-5.35205,35.30791],[-5.35154,35.30931],[-5.35153,35.3099],[-5.35347,35.31144],[-5.35439,35.3132],[-5.35869,35.32391],[-5.36113,35.33647],[-5.36284,35.33785],[-5.36355,35.33898],[-5.36491,35.34044],[-5.36566,35.34184],[-5.36623,35.34201],[-5.36861,35.34187],[-5.369,35.34208],[-5.36928,35.34257],[-5.36922,35.34334],[-5.36735,35.34603],[-5.36756,35.34761],[-5.36669,35.34874],[-5.36648,35.34979],[-5.36693,35.35035],[-5.36855,35.35052],[-5.36924,35.35104],[-5.3699,35.35228],[-5.37015,35.35411],[-5.37073,35.35513],[-5.37102,35.35645],[-5.37231,35.35793],[-5.37277,35.35883],[-5.37289,35.35967],[-5.37247,35.36091],[-5.37141,35.36225],[-5.37139,35.36254],[-5.37056,35.36362],[-5.37044,35.36407],[-5.37149,35.36639],[-5.37297,35.3669],[-5.37332,35.36719],[-5.37343,35.36911],[-5.37453,35.36995],[-5.37474,35.37037],[-5.37449,35.37097],[-5.37309,35.37155],[-5.37229,35.37337],[-5.37245,35.3744],[-5.37412,35.37612],[-5.37445,35.377],[-5.37428,35.37764],[-5.3724,35.37999],[-5.37225,35.38043],[-5.37239,35.38091],[-5.37342,35.38201],[-5.37323,35.38354],[-5.37494,35.3859],[-5.37497,35.38622],[-5.37422,35.38725],[-5.37371,35.38762],[-5.37321,35.38848],[-5.37198,35.39505],[-5.37088,35.3972],[-5.37094,35.39816],[-5.37141,35.39881],[-5.37378,35.40026],[-5.37424,35.40075],[-5.37573,35.40353],[-5.37618,35.40499],[-5.37615,35.4066],[-5.37643,35.40727],[-5.37864,35.40896],[-5.38016,35.40874],[-5.38066,35.40892],[-5.38122,35.41101],[-5.38327,35.41273],[-5.38459,35.41454],[-5.3851,35.41495],[-5.38814,35.41871],[-5.38902,35.41936],[-5.39121,35.42036],[-5.3918,35.42104],[-5.39329,35.42845],[-5.39315,35.42901],[-5.39078,35.43306],[-5.39075,35.43556],[-5.39183,35.43688],[-5.39125,35.43805],[-5.39127,35.43898],[-5.39081,35.44044],[-5.39102,35.44074],[-5.39207,35.44129],[-5.39246,35.44186],[-5.39214,35.44345],[-5.39357,35.44786],[-5.39398,35.44819],[-5.3956,35.44851],[-5.3967,35.45029],[-5.39662,35.45092],[-5.39546,35.45222],[-5.39549,35.45293],[-5.39593,35.45318],[-5.39782,35.45333],[-5.39838,35.45356],[-5.39949,35.45568],[-5.39967,35.45735],[-5.40102,35.45873],[-5.40293,35.45899],[-5.40455,35.45834],[-5.40501,35.45851],[-5.40531,35.45898],[-5.40462,35.46014],[-5.40477,35.46094],[-5.4044,35.46219],[-5.40423,35.46449],[-5.40371,35.46519],[-5.4027,35.46544],[-5.40258,35.4656],[-5.40381,35.46733],[-5.4026,35.47109],[-5.40268,35.47165],[-5.40317,35.47204],[-5.40435,35.47241],[-5.40511,35.47368],[-5.40661,35.4748],[-5.40691,35.4755],[-5.40675,35.47666],[-5.4074,35.47786],[-5.40829,35.47862],[-5.40866,35.48013],[-5.40984,35.48102],[-5.41031,35.48227],[-5.41177,35.48298],[-5.41243,35.48408],[-5.41693,35.48554],[-5.42076,35.48741],[-5.42118,35.48781],[-5.42131,35.48901],[-5.42209,35.48998],[-5.42256,35.49121],[-5.42415,35.49186],[-5.42512,35.4925],[-5.42739,35.49315],[-5.42772,35.49353],[-5.42809,35.49472],[-5.42914,35.49549],[-5.42991,35.49646],[-5.43072,35.4967],[-5.43342,35.49699],[-5.43427,35.49732],[-5.43513,35.49793],[-5.43555,35.49839],[-5.43562,35.49877],[-5.4347,35.49994],[-5.43461,35.50047],[-5.43563,35.50254],[-5.43596,35.50467],[-5.43649,35.50518],[-5.43802,35.50564],[-5.43872,35.50608],[-5.44029,35.50865],[-5.44031,35.50982],[-5.44,35.51059],[-5.43815,35.51233],[-5.43794,35.51385],[-5.43799,35.51514],[-5.43734,35.51664],[-5.43688,35.51718],[-5.43671,35.51853],[-5.43533,35.51983],[-5.43557,35.52088],[-5.43637,35.52222],[-5.43646,35.52336],[-5.43692,35.52431],[-5.43683,35.52479],[-5.43601,35.52608],[-5.43495,35.52706],[-5.43312,35.5279],[-5.42925,35.53137],[-5.42718,35.53347],[-5.4266,35.53381],[-5.42559,35.5341],[-5.42511,35.53448],[-5.42475,35.5359],[-5.42393,35.53717],[-5.42414,35.53856],[-5.42367,35.53997],[-5.42435,35.54165],[-5.42432,35.5429],[-5.42475,35.545],[-5.42455,35.54627],[-5.4236,35.54766],[-5.41868,35.55279],[-5.41405,35.5552],[-5.41332,35.55594],[-5.4126,35.55769],[-5.41233,35.55982],[-5.41219,35.56182],[-5.41247,35.56493],[-5.41237,35.56548],[-5.41262,35.56558],[-5.41496,35.56522],[-5.42174,35.56495],[-5.42781,35.56304],[-5.43099,35.56253],[-5.43475,35.56021],[-5.43566,35.55983],[-5.43695,35.55971],[-5.43953,35.56011],[-5.4454,35.55966],[-5.44639,35.55926],[-5.44836,35.55792],[-5.44979,35.55761],[-5.45257,35.55782],[-5.4541,35.5582],[-5.45518,35.55823],[-5.46736,35.56034],[-5.47278,35.56111],[-5.47684,35.56064],[-5.47818,35.5607],[-5.48333,35.56214],[-5.48722,35.56373],[-5.48763,35.56355],[-5.49363,35.56257],[-5.4976,35.56129],[-5.49919,35.56029],[-5.50718,35.5541],[-5.50837,35.55365],[-5.51204,35.55304],[-5.51474,35.55179],[-5.52136,35.54981],[-5.52449,35.54936],[-5.5268,35.54869],[-5.52929,35.54864],[-5.53087,35.54833],[-5.5315,35.54837],[-5.53285,35.54884],[-5.53494,35.5485],[-5.53611,35.54916],[-5.53675,35.54928],[-5.53744,35.54918],[-5.53857,35.54869],[-5.54102,35.54856],[-5.54237,35.54903],[-5.54335,35.55035],[-5.54407,35.55057],[-5.54728,35.5497],[-5.55034,35.54982],[-5.55133,35.54966],[-5.5534,35.54893],[-5.55795,35.54615],[-5.5585,35.54599],[-5.56293,35.54666],[-5.56494,35.54732],[-5.5656,35.54771],[-5.56696,35.54922],[-5.5676,35.55022],[-5.56777,35.55097],[-5.56747,35.55301],[-5.56771,35.55337],[-5.56853,35.55389],[-5.56884,35.55456],[-5.56841,35.5558],[-5.56836,35.5577],[-5.56971,35.5591],[-5.57002,35.56013],[-5.57043,35.56054],[-5.57091,35.56061],[-5.57249,35.56029],[-5.57539,35.56059],[-5.57794,35.56035],[-5.57898,35.56127],[-5.5803,35.56168],[-5.58069,35.56161],[-5.5817,35.56098],[-5.58247,35.56037],[-5.58287,35.55972],[-5.58336,35.5596],[-5.58377,35.55986],[-5.58393,35.56116],[-5.58491,35.56245],[-5.58505,35.5636],[-5.58468,35.56425],[-5.58468,35.56468],[-5.58558,35.56545],[-5.58623,35.56575],[-5.58877,35.56534],[-5.58982,35.56601],[-5.59069,35.56617],[-5.59173,35.56579],[-5.59363,35.56472],[-5.59463,35.56446],[-5.59662,35.56434],[-5.59835,35.56321],[-5.60098,35.56323],[-5.60241,35.56375],[-5.60437,35.5638],[-5.60497,35.56397],[-5.60644,35.56526],[-5.60782,35.56692],[-5.60847,35.5673],[-5.61162,35.56815],[-5.61606,35.56823],[-5.62289,35.5695],[-5.6237,35.56981],[-5.62451,35.57053],[-5.62559,35.57224],[-5.62973,35.5764],[-5.63875,35.58297],[-5.63972,35.5839],[-5.64208,35.58736],[-5.652,35.60031],[-5.66293,35.61094],[-5.66878,35.62068],[-5.67475,35.63013],[-5.67595,35.6311],[-5.68025,35.63347],[-5.68357,35.63726],[-5.68432,35.63993],[-5.68681,35.64257],[-5.68746,35.64382],[-5.68762,35.64611],[-5.68742,35.65129],[-5.68836,35.65444],[-5.68908,35.65534],[-5.69171,35.65682],[-5.69522,35.6596],[-5.69719,35.6619],[-5.69749,35.66311],[-5.69733,35.66618],[-5.69745,35.66754],[-5.69851,35.67152],[-5.69977,35.67336],[-5.70398,35.6768],[-5.7154,35.6817],[-5.72183,35.68607],[-5.72272,35.68692],[-5.72569,35.69294],[-5.72819,35.69745],[-5.73036,35.70332],[-5.73292,35.70628],[-5.73318,35.70891],[-5.73329,35.71348],[-5.73353,35.71479],[-5.73507,35.71972],[-5.73601,35.72183],[-5.73894,35.72424],[-5.74319,35.72696],[-5.74446,35.72714],[-5.74927,35.7266],[-5.75415,35.72705],[-5.75552,35.72761],[-5.7595,35.73026],[-5.76142,35.73095],[-5.76337,35.73137],[-5.7644,35.73183],[-5.76527,35.7329],[-5.76607,35.73596],[-5.76858,35.73805],[-5.76971,35.73877],[-5.77445,35.74098],[-5.77866,35.74368],[-5.78243,35.74523],[-5.78494,35.74688],[-5.78589,35.7477],[-5.78685,35.74882],[-5.78906,35.75213],[-5.79271,35.75842],[-5.7952,35.76206],[-5.7954,35.76212],[-5.79634,35.76345],[-5.80203,35.76915],[-5.80315,35.77012],[-5.80367,35.77016],[-5.80389,35.76995],[-5.80384,35.7696],[-5.80326,35.76946]],"type":"LineString"}},{"type":"Feature","properties":{"name":"Marrakesh, Morocco"},"geometry":{"type":"Point","coordinates":[-7.98916,31.62583]}},{"type":"Feature","properties":{"name":"Ouarzazate, Morocco"},"geometry":{"type":"Point","coordinates":[-6.91092,30.92019]}},{"type":"Feature","properties":{"name":"Merzouga, Morocco"},"geometry":{"type":"Point","coordinates":[-4.01409,31.09992]}},{"type":"Feature","properties":{"name":"Fes, Morocco"},"geometry":{"type":"Point","coordinates":[-5.01619,34.03465]}},{"type":"Feature","properties":{"name":"Chefchaouen, Morocco"},"geometry":{"type":"Point","coordinates":[-5.26835,35.16877]}},{"type":"Feature","properties":{"name":"Tangier, Morocco"},"geometry":{"type":"Point","coordinates":[-5.80335,35.76963]}}]}