{"type":"FeatureCollection","features":[{"type":"Feature","properties":{"name":"Windhoek, Namibia → Swakopmund, Namibia"},"geometry":{"coordinates":[[17.07731,-22.57809],[17.079,-22.57799],[17.07883,-22.57655],[17.08088,-22.57196],[17.07926,-22.56796],[17.07875,-22.56777],[17.07901,-22.56697],[17.07886,-22.56488],[17.07955,-22.56269],[17.07971,-22.55516],[17.07933,-22.55255],[17.07753,-22.54819],[17.07497,-22.5455],[17.07414,-22.54393],[17.07372,-22.54187],[17.07386,-22.53921],[17.07349,-22.53825],[17.07251,-22.53731],[17.06777,-22.53459],[17.0694,-22.53256],[17.07092,-22.53024],[17.07168,-22.52825],[17.07382,-22.51523],[17.07491,-22.51173],[17.07734,-22.50624],[17.07814,-22.50335],[17.07872,-22.49841],[17.07897,-22.49213],[17.0777,-22.46272],[17.07521,-22.44995],[17.07256,-22.44323],[17.07115,-22.42544],[17.07064,-22.42236],[17.06973,-22.4185],[17.06955,-22.41683],[17.06959,-22.41419],[17.07041,-22.4072],[17.07028,-22.40429],[17.06991,-22.40253],[17.06911,-22.40038],[17.06597,-22.39467],[17.06477,-22.39208],[17.06414,-22.39021],[17.06212,-22.38202],[17.06109,-22.37876],[17.05171,-22.35462],[17.05136,-22.35226],[17.05158,-22.34976],[17.05398,-22.34311],[17.05429,-22.34171],[17.05442,-22.33971],[17.05401,-22.33732],[17.04999,-22.3257],[17.03635,-22.27819],[17.02429,-22.24996],[17.02363,-22.24697],[17.02053,-22.22427],[17.01985,-22.2216],[17.01871,-22.21906],[17.00768,-22.2002],[17.00329,-22.19306],[17.00215,-22.19081],[17.00151,-22.18905],[16.99816,-22.17842],[16.9978,-22.17636],[16.99774,-22.17487],[16.99911,-22.1606],[16.9988,-22.15821],[16.99777,-22.15585],[16.9878,-22.14322],[16.96649,-22.11672],[16.96513,-22.11524],[16.96307,-22.11336],[16.93952,-22.09511],[16.93487,-22.09139],[16.9332,-22.08986],[16.93125,-22.08708],[16.93041,-22.08504],[16.9283,-22.07633],[16.92714,-22.07303],[16.92484,-22.06883],[16.91796,-22.05739],[16.91142,-22.04951],[16.90438,-22.04148],[16.90294,-22.04027],[16.89736,-22.0364],[16.89589,-22.03511],[16.89399,-22.03292],[16.87796,-22.0054],[16.87664,-22.00258],[16.8757,-21.99883],[16.87567,-21.99499],[16.87647,-21.99133],[16.87844,-21.98737],[16.88455,-21.97912],[16.88679,-21.97533],[16.88788,-21.97327],[16.88877,-21.9701],[16.80335,-21.95609],[16.71213,-21.94462],[16.70896,-21.94372],[16.68974,-21.93493],[16.68762,-21.93416],[16.68561,-21.93369],[16.66005,-21.92995],[16.65641,-21.92898],[16.64991,-21.92681],[16.64815,-21.92597],[16.64575,-21.92431],[16.64468,-21.92327],[16.64185,-21.91987],[16.64071,-21.91893],[16.63884,-21.91792],[16.63691,-21.91741],[16.52925,-21.90629],[16.52745,-21.90583],[16.52525,-21.90485],[16.51773,-21.89969],[16.5158,-21.89888],[16.51378,-21.8984],[16.44924,-21.89393],[16.44516,-21.89443],[16.33284,-21.91167],[16.32806,-21.91286],[16.31139,-21.91545],[16.30897,-21.91569],[16.12701,-21.91523],[16.12505,-21.91542],[16.1224,-21.91613],[16.05473,-21.93985],[16.05248,-21.94094],[16.03953,-21.94831],[16.0179,-21.95653],[15.99895,-21.9686],[15.99726,-21.96936],[15.99561,-21.96972],[15.99315,-21.96973],[15.99109,-21.96921],[15.92312,-21.94218],[15.91975,-21.94086],[15.91784,-21.94033],[15.91566,-21.94001],[15.86318,-21.93581],[15.86161,-21.93554],[15.85908,-21.9346],[15.85807,-21.93443],[15.85703,-21.93454],[15.8563,-21.9348],[15.8446,-21.94165],[15.84262,-21.94217],[15.84034,-21.94224],[15.83869,-21.94194],[15.81182,-21.93399],[15.78933,-21.93025],[15.78629,-21.93007],[15.69631,-21.93654],[15.69429,-21.93652],[15.68465,-21.93528],[15.68125,-21.93504],[15.67372,-21.93532],[15.67171,-21.93561],[15.66974,-21.93618],[15.6681,-21.93689],[15.66638,-21.93789],[15.64705,-21.95274],[15.61671,-21.97402],[15.61562,-21.975],[15.61454,-21.97629],[15.61143,-21.98162],[15.61006,-21.98336],[15.60352,-21.98927],[15.60125,-21.99089],[15.59557,-21.99399],[15.58881,-21.99705],[15.58818,-21.99767],[15.58774,-21.99864],[15.58774,-22.00087],[15.58281,-22.00105],[15.58126,-22.00069],[15.57899,-21.99982],[15.57766,-21.99953],[15.55873,-21.99858],[15.55654,-21.99833],[15.55493,-21.99779],[15.55039,-21.99568],[15.54905,-21.99527],[15.54321,-21.99439],[15.46757,-21.97782],[15.46613,-21.97763],[15.46415,-21.97766],[15.42459,-21.98269],[15.40845,-21.9845],[15.40561,-21.98467],[15.35123,-21.97856],[15.34862,-21.97853],[15.34739,-21.97871],[15.34542,-21.97934],[15.31625,-21.99063],[15.31407,-21.9919],[15.31253,-21.9934],[15.2588,-22.06436],[15.25692,-22.06596],[15.23319,-22.08284],[15.23203,-22.08387],[15.23126,-22.08482],[15.23046,-22.0863],[15.21927,-22.11479],[15.21824,-22.11669],[15.21432,-22.12176],[15.20941,-22.13009],[15.20793,-22.13232],[15.17867,-22.16692],[15.16149,-22.19268],[15.16089,-22.19435],[15.16079,-22.19604],[15.16269,-22.20546],[15.1628,-22.20666],[15.16267,-22.20805],[15.15707,-22.22525],[15.15614,-22.22713],[15.1345,-22.25322],[15.13364,-22.25472],[15.12097,-22.28296],[15.10939,-22.30229],[15.08009,-22.34142],[15.05902,-22.376],[15.04372,-22.39447],[15.04261,-22.39535],[15.04096,-22.39625],[15.02083,-22.40476],[15.01942,-22.40554],[15.01843,-22.40642],[15.01769,-22.40739],[15.01245,-22.41728],[15.01084,-22.41924],[14.9504,-22.47],[14.94909,-22.47085],[14.92319,-22.48346],[14.92161,-22.48439],[14.92056,-22.48527],[14.89364,-22.51284],[14.88138,-22.52198],[14.87246,-22.53017],[14.86521,-22.53484],[14.8501,-22.54682],[14.81314,-22.56901],[14.81069,-22.56999],[14.79133,-22.57623],[14.78909,-22.57648],[14.76513,-22.57796],[14.72151,-22.58905],[14.71955,-22.58997],[14.62072,-22.64513],[14.57427,-22.66674],[14.57221,-22.66749],[14.56262,-22.66937],[14.56246,-22.66964],[14.56219,-22.66948],[14.55018,-22.67195],[14.54884,-22.6725],[14.54857,-22.67288],[14.54809,-22.67296],[14.54422,-22.67566],[14.54272,-22.67625],[14.54108,-22.6765],[14.54076,-22.67542],[14.54058,-22.6753],[14.52898,-22.67688]],"type":"LineString"}},{"type":"Feature","properties":{"name":"Swakopmund, Namibia → Sesriem, Namibia"},"geometry":{"coordinates":[[14.52898,-22.67688],[14.5289,-22.67679],[14.52981,-22.67663],[14.53337,-22.67621],[14.53365,-22.67718],[14.53396,-22.6774],[14.54272,-22.67625],[14.54456,-22.67545],[14.54809,-22.67296],[14.54842,-22.67255],[14.54985,-22.67205],[14.56219,-22.66948],[14.56238,-22.66924],[14.56262,-22.66937],[14.56363,-22.66919],[14.57241,-22.66727],[14.583,-22.66248],[14.58311,-22.66271],[14.58323,-22.66329],[14.58313,-22.66386],[14.58071,-22.66694],[14.58037,-22.66772],[14.58009,-22.67043],[14.5801,-22.67253],[14.5805,-22.67521],[14.58188,-22.68048],[14.5851,-22.69049],[14.58553,-22.69358],[14.58664,-22.7105],[14.58664,-22.72165],[14.58679,-22.7251],[14.592,-22.80325],[14.59301,-22.81574],[14.59366,-22.82795],[14.5995,-22.91404],[14.59976,-22.91594],[14.60236,-22.92546],[14.6027,-22.92793],[14.60546,-22.98015],[14.6058,-22.98164],[14.60689,-22.98402],[14.60785,-22.98552],[14.60871,-22.98621],[14.61051,-22.98695],[14.62091,-22.98997],[14.65137,-22.99824],[14.74154,-23.0111],[14.82143,-23.02444],[14.82995,-23.02499],[14.8321,-23.02479],[14.86338,-23.01729],[14.88843,-23.01305],[14.89066,-23.01279],[14.8928,-23.01283],[14.92177,-23.02248],[14.98192,-23.0509],[14.98375,-23.05147],[14.98537,-23.05173],[14.99892,-23.0515],[15.00063,-23.05165],[15.00269,-23.05227],[15.15053,-23.10866],[15.17013,-23.11841],[15.17232,-23.11997],[15.18187,-23.12769],[15.18366,-23.12868],[15.18491,-23.12914],[15.18682,-23.12958],[15.1996,-23.13216],[15.20106,-23.13267],[15.20216,-23.13343],[15.20301,-23.13427],[15.20674,-23.13869],[15.20895,-23.1447],[15.20997,-23.14927],[15.21107,-23.15098],[15.21395,-23.15429],[15.22079,-23.16035],[15.24345,-23.17656],[15.24582,-23.17764],[15.26745,-23.18546],[15.26843,-23.18595],[15.2693,-23.18649],[15.3026,-23.21358],[15.30519,-23.21534],[15.4295,-23.28517],[15.43253,-23.28676],[15.4614,-23.30069],[15.47195,-23.30571],[15.47385,-23.30639],[15.50662,-23.30997],[15.50789,-23.31035],[15.50976,-23.31166],[15.51084,-23.31188],[15.54888,-23.31056],[15.60166,-23.31201],[15.60561,-23.31298],[15.61113,-23.3146],[15.62877,-23.32399],[15.63093,-23.32493],[15.64527,-23.32963],[15.64782,-23.33012],[15.65601,-23.33124],[15.65752,-23.33105],[15.67625,-23.32545],[15.67767,-23.32519],[15.70985,-23.32611],[15.71163,-23.32592],[15.71758,-23.32454],[15.71931,-23.32368],[15.72397,-23.32089],[15.72754,-23.31937],[15.73087,-23.31844],[15.73422,-23.31664],[15.73634,-23.31483],[15.73824,-23.3135],[15.73906,-23.31253],[15.73967,-23.31219],[15.74094,-23.31201],[15.74185,-23.31137],[15.74325,-23.30944],[15.74512,-23.30733],[15.74627,-23.30633],[15.74794,-23.30525],[15.74831,-23.30515],[15.74954,-23.30527],[15.75135,-23.30442],[15.75188,-23.30435],[15.75348,-23.30455],[15.75413,-23.30527],[15.75468,-23.30555],[15.75538,-23.3056],[15.75597,-23.30536],[15.75663,-23.30465],[15.75678,-23.30366],[15.7581,-23.30248],[15.75858,-23.30134],[15.75859,-23.3],[15.7591,-23.29964],[15.76211,-23.30075],[15.7632,-23.30198],[15.76475,-23.30302],[15.76705,-23.30404],[15.76812,-23.30431],[15.77297,-23.30401],[15.77363,-23.30332],[15.77436,-23.30302],[15.77621,-23.30124],[15.77658,-23.30141],[15.77665,-23.30243],[15.77701,-23.30276],[15.77895,-23.3024],[15.7804,-23.30245],[15.78295,-23.30159],[15.78415,-23.30183],[15.78541,-23.30164],[15.78654,-23.30182],[15.78718,-23.30136],[15.7876,-23.30126],[15.78829,-23.30152],[15.78865,-23.30221],[15.78915,-23.3025],[15.79291,-23.30188],[15.79457,-23.30208],[15.79567,-23.303],[15.79684,-23.3032],[15.79825,-23.30245],[15.80078,-23.30196],[15.80323,-23.30016],[15.80622,-23.29909],[15.8103,-23.29525],[15.81132,-23.29456],[15.81249,-23.29439],[15.81534,-23.29545],[15.81658,-23.29549],[15.82201,-23.29279],[15.82416,-23.29124],[15.82862,-23.28854],[15.82917,-23.28826],[15.83047,-23.288],[15.83333,-23.2885],[15.83485,-23.289],[15.84063,-23.29352],[15.8424,-23.29469],[15.84475,-23.29538],[15.84613,-23.29644],[15.8482,-23.29739],[15.84893,-23.29828],[15.84959,-23.29956],[15.85002,-23.30309],[15.85097,-23.30442],[15.8511,-23.30595],[15.8513,-23.3064],[15.85265,-23.30749],[15.85433,-23.30841],[15.85489,-23.31005],[15.8557,-23.31097],[15.85607,-23.31231],[15.85767,-23.3145],[15.85881,-23.31506],[15.85943,-23.31579],[15.86116,-23.31652],[15.86215,-23.31751],[15.86239,-23.31891],[15.86212,-23.32183],[15.85754,-23.33485],[15.85801,-23.34166],[15.85663,-23.34596],[15.85551,-23.36039],[15.85153,-23.37757],[15.83582,-23.41347],[15.83525,-23.41423],[15.83437,-23.41492],[15.82701,-23.41997],[15.82618,-23.42086],[15.82435,-23.42374],[15.82016,-23.42793],[15.79693,-23.44868],[15.7947,-23.44973],[15.78674,-23.45186],[15.78489,-23.4522],[15.78336,-23.45184],[15.78019,-23.44968],[15.77946,-23.44931],[15.77884,-23.4493],[15.77021,-23.45328],[15.76871,-23.45432],[15.76686,-23.45643],[15.76639,-23.45719],[15.76567,-23.45953],[15.76565,-23.46122],[15.76602,-23.46209],[15.77189,-23.47112],[15.77252,-23.47241],[15.77269,-23.47354],[15.77208,-23.47447],[15.77138,-23.475],[15.77111,-23.47638],[15.77066,-23.47716],[15.76989,-23.47757],[15.76896,-23.47852],[15.76703,-23.47888],[15.76631,-23.47927],[15.76584,-23.48039],[15.76448,-23.48041],[15.76334,-23.48125],[15.76162,-23.48166],[15.76095,-23.48214],[15.7609,-23.48248],[15.76114,-23.48293],[15.76258,-23.48281],[15.76287,-23.4829],[15.76317,-23.48331],[15.76313,-23.48378],[15.76217,-23.48534],[15.76212,-23.48811],[15.7627,-23.48986],[15.76378,-23.49106],[15.76483,-23.49182],[15.76892,-23.49372],[15.7695,-23.49421],[15.77005,-23.49501],[15.77047,-23.4959],[15.77114,-23.49843],[15.77827,-23.5139],[15.78131,-23.51863],[15.78787,-23.53086],[15.80023,-23.55098],[15.80168,-23.55372],[15.8036,-23.55804],[15.81296,-23.57205],[15.82634,-23.59795],[15.84043,-23.62683],[15.85366,-23.65176],[15.855,-23.65421],[15.8677,-23.6741],[15.86811,-23.67519],[15.87934,-23.72796],[15.88002,-23.72991],[15.89038,-23.75171],[15.92065,-23.79281],[15.94382,-23.82251],[15.94922,-23.82792],[15.95403,-23.83303],[15.95613,-23.83581],[15.95753,-23.83734],[15.9741,-23.85404],[15.98449,-23.865],[15.98926,-23.87077],[16.00809,-23.89135],[16.00742,-23.89209],[16.00691,-23.89307],[16.00568,-23.90014],[16.00643,-23.92307],[16.00576,-23.9377],[16.00582,-23.94234],[16.00626,-23.94883],[16.00596,-23.95534],[16.00651,-23.97581],[16.00634,-23.97729],[16.00489,-23.98319],[16.00399,-23.98472],[16.00304,-23.98558],[16.00202,-23.98611],[16.0011,-23.98633],[15.99824,-23.98624],[15.99716,-23.98647],[15.96361,-24.00045],[15.9607,-24.00219],[15.95982,-24.00304],[15.95807,-24.00749],[15.95747,-24.00981],[15.95737,-24.01218],[15.95778,-24.01417],[15.95822,-24.01527],[15.96104,-24.02132],[15.96258,-24.02407],[15.96372,-24.02705],[15.96555,-24.03068],[15.96656,-24.03349],[15.96758,-24.03542],[15.96822,-24.03637],[15.97117,-24.03953],[15.97263,-24.04181],[15.97418,-24.04568],[15.9749,-24.0487],[15.97479,-24.04988],[15.97406,-24.05219],[15.9739,-24.05462],[15.97366,-24.0554],[15.9718,-24.05861],[15.97066,-24.0619],[15.96773,-24.06761],[15.95932,-24.08715],[15.95897,-24.08874],[15.9568,-24.14108],[15.95736,-24.14275],[15.9592,-24.14485],[15.95983,-24.14645],[15.96732,-24.1885],[15.96733,-24.18996],[15.96711,-24.19089],[15.96441,-24.19819],[15.96194,-24.204],[15.96151,-24.20456],[15.96054,-24.20525],[15.93929,-24.21609],[15.91614,-24.22831],[15.91368,-24.22919],[15.90931,-24.22994],[15.90822,-24.23048],[15.90751,-24.2315],[15.89347,-24.25607],[15.88282,-24.27407],[15.88222,-24.27532],[15.88056,-24.28044],[15.88045,-24.28208],[15.88063,-24.28311],[15.88335,-24.29229],[15.88387,-24.29357],[15.90464,-24.32882],[15.90539,-24.33042],[15.90553,-24.33229],[15.90417,-24.35931],[15.90336,-24.36377],[15.89774,-24.37993],[15.89776,-24.39504],[15.89803,-24.39627],[15.89848,-24.39719],[15.90667,-24.41064],[15.90706,-24.41157],[15.90697,-24.42384],[15.90572,-24.43703],[15.90593,-24.43831],[15.90969,-24.44959],[15.89037,-24.45721],[15.88085,-24.46133],[15.85251,-24.47404],[15.82685,-24.4859],[15.8254,-24.48625],[15.82421,-24.48635],[15.80314,-24.48674],[15.79954,-24.48665],[15.79841,-24.48625],[15.79796,-24.48627],[15.7984,-24.48716]],"type":"LineString"}},{"type":"Feature","properties":{"name":"Sesriem, Namibia → Keetmanshoop, Namibia"},"geometry":{"coordinates":[[15.7984,-24.48716],[15.79796,-24.48627],[15.79841,-24.48625],[15.79954,-24.48665],[15.80314,-24.48674],[15.82421,-24.48635],[15.8254,-24.48625],[15.82685,-24.4859],[15.85251,-24.47404],[15.88085,-24.46133],[15.89037,-24.45721],[15.90969,-24.44959],[15.92263,-24.48849],[15.92285,-24.48992],[15.92235,-24.50169],[15.9221,-24.50334],[15.91273,-24.5258],[15.91241,-24.52696],[15.91228,-24.52923],[15.91229,-24.53895],[15.91567,-24.55527],[15.91981,-24.5839],[15.92044,-24.58576],[16.03759,-24.7182],[16.07605,-24.75661],[16.08256,-24.76531],[16.08377,-24.76594],[16.08626,-24.76681],[16.08691,-24.76731],[16.08798,-24.76861],[16.09569,-24.77819],[16.09707,-24.78022],[16.11822,-24.82251],[16.12312,-24.83285],[16.12503,-24.83787],[16.12829,-24.84233],[16.12953,-24.84363],[16.13887,-24.85199],[16.14605,-24.85773],[16.16593,-24.8745],[16.17001,-24.87926],[16.17477,-24.88232],[16.17586,-24.88277],[16.18727,-24.88605],[16.19027,-24.88706],[16.20876,-24.8942],[16.21896,-24.89888],[16.22866,-24.90155],[16.22999,-24.90235],[16.24688,-24.91606],[16.25098,-24.91883],[16.25573,-24.92018],[16.26319,-24.92457],[16.28034,-24.93129],[16.29424,-24.93712],[16.30855,-24.9416],[16.34319,-24.95689],[16.3446,-24.95723],[16.35108,-24.95773],[16.35305,-24.95839],[16.355,-24.95945],[16.36047,-24.95918],[16.36142,-24.95812],[16.36584,-24.9568],[16.36661,-24.95634],[16.36716,-24.95561],[16.3674,-24.95442],[16.36735,-24.95314],[16.36606,-24.94857],[16.36622,-24.9478],[16.36668,-24.94705],[16.3679,-24.94625],[16.36941,-24.94593],[16.3707,-24.94544],[16.37355,-24.94364],[16.37431,-24.94343],[16.3751,-24.94351],[16.38226,-24.94618],[16.38505,-24.94798],[16.38687,-24.9486],[16.39074,-24.94832],[16.40349,-24.94683],[16.40442,-24.94661],[16.40613,-24.94537],[16.40772,-24.9429],[16.40806,-24.94174],[16.40817,-24.93982],[16.40859,-24.93898],[16.41644,-24.93409],[16.41684,-24.93352],[16.41751,-24.93074],[16.41875,-24.92941],[16.41917,-24.92911],[16.41978,-24.92896],[16.42119,-24.92924],[16.42233,-24.92905],[16.42937,-24.92515],[16.42992,-24.92471],[16.43041,-24.92345],[16.43084,-24.92283],[16.43188,-24.92187],[16.43258,-24.9215],[16.43339,-24.92149],[16.43411,-24.92177],[16.43817,-24.92501],[16.43926,-24.9254],[16.44044,-24.92532],[16.4479,-24.92356],[16.44857,-24.92352],[16.44914,-24.92373],[16.44964,-24.92472],[16.45187,-24.93317],[16.45261,-24.93484],[16.45387,-24.93611],[16.45618,-24.93792],[16.45697,-24.93819],[16.45806,-24.93798],[16.46869,-24.93094],[16.47021,-24.92966],[16.47098,-24.92857],[16.47148,-24.92739],[16.47488,-24.91669],[16.47582,-24.91437],[16.47662,-24.9136],[16.48667,-24.90682],[16.48981,-24.90455],[16.49185,-24.90284],[16.49634,-24.89469],[16.49683,-24.89309],[16.49733,-24.89034],[16.49873,-24.88789],[16.49957,-24.88675],[16.50523,-24.88103],[16.50727,-24.87972],[16.5093,-24.87906],[16.53333,-24.87366],[16.53542,-24.87359],[16.54338,-24.87414],[16.54582,-24.87414],[16.57177,-24.87098],[16.57859,-24.87044],[16.59809,-24.87052],[16.63378,-24.8699],[16.76785,-24.86347],[16.76944,-24.8635],[16.77241,-24.8642],[16.77514,-24.86562],[16.83376,-24.89882],[16.83687,-24.89554],[16.83911,-24.89394],[16.84158,-24.89304],[16.84306,-24.89282],[16.8447,-24.8928],[16.89247,-24.9006],[16.89413,-24.90116],[16.89563,-24.90194],[16.89958,-24.90473],[16.90104,-24.90548],[16.90288,-24.90597],[16.90498,-24.90606],[16.90754,-24.90542],[16.90904,-24.90455],[16.91011,-24.90362],[16.9371,-24.87327],[16.93875,-24.87146],[16.93975,-24.87069],[16.9411,-24.86985],[16.94233,-24.86932],[16.97308,-24.86059],[16.97431,-24.86],[16.97531,-24.85925],[16.97643,-24.85802],[16.97734,-24.85632],[16.97772,-24.85483],[16.97766,-24.8526],[16.97736,-24.85154],[16.97659,-24.85008],[16.97219,-24.84504],[16.97359,-24.84453],[16.98376,-24.84289],[16.98565,-24.84245],[16.99856,-24.83431],[17.00018,-24.83353],[17.00196,-24.8331],[17.00517,-24.83287],[17.00733,-24.83244],[17.04168,-24.82328],[17.04367,-24.82296],[17.04571,-24.82283],[17.12834,-24.82172],[17.15248,-24.81956],[17.15522,-24.8198],[17.16007,-24.82104],[17.16181,-24.82125],[17.20297,-24.82056],[17.22209,-24.82279],[17.22797,-24.82327],[17.23209,-24.82341],[17.2668,-24.8236],[17.29866,-24.82596],[17.29858,-24.82625],[17.29901,-24.82842],[17.30466,-24.87198],[17.30428,-24.87393],[17.30624,-24.88908],[17.31201,-24.91923],[17.31972,-24.94047],[17.32025,-24.94136],[17.32715,-24.95024],[17.33701,-24.94207],[17.33795,-24.94137],[17.34039,-24.94029],[17.35918,-24.93416],[17.37864,-24.93209],[17.37994,-24.9317],[17.38478,-24.92964],[17.39179,-24.92857],[17.39284,-24.92856],[17.39468,-24.92885],[17.42768,-24.93639],[17.44558,-24.94548],[17.44689,-24.94649],[17.45124,-24.95166],[17.45428,-24.9548],[17.45713,-24.95698],[17.46364,-24.96071],[17.46431,-24.96152],[17.46699,-24.96606],[17.46755,-24.96667],[17.47802,-24.97018],[17.47854,-24.9705],[17.48048,-24.9727],[17.48296,-24.97408],[17.48447,-24.97642],[17.48545,-24.97925],[17.48739,-24.98171],[17.48792,-24.98479],[17.48813,-24.98506],[17.48911,-24.98509],[17.49059,-24.98476],[17.49107,-24.98445],[17.49221,-24.98288],[17.49293,-24.98254],[17.49365,-24.98256],[17.49562,-24.98374],[17.49687,-24.9837],[17.51082,-24.98088],[17.51155,-24.98067],[17.51502,-24.97839],[17.51756,-24.97736],[17.52152,-24.97703],[17.52397,-24.97802],[17.52432,-24.97803],[17.5318,-24.97537],[17.53635,-24.97436],[17.54108,-24.97372],[17.54766,-24.97351],[17.54867,-24.97381],[17.56354,-24.9825],[17.56452,-24.98368],[17.56613,-24.98619],[17.56695,-24.9871],[17.56908,-24.98769],[17.57213,-24.98813],[17.57258,-24.98797],[17.57306,-24.98742],[17.57393,-24.98405],[17.57458,-24.98233],[17.57624,-24.97946],[17.57824,-24.97646],[17.57919,-24.97558],[17.58406,-24.97286],[17.58522,-24.97249],[17.58697,-24.97232],[17.58779,-24.97261],[17.59209,-24.97519],[17.59753,-24.97666],[17.60281,-24.98016],[17.6178,-24.98586],[17.63009,-24.99521],[17.62765,-25.00064],[17.6269,-25.00584],[17.62719,-25.00764],[17.62866,-25.01291],[17.62909,-25.01355],[17.63225,-25.01531],[17.63344,-25.01638],[17.64272,-25.02689],[17.64364,-25.02817],[17.64731,-25.04075],[17.66366,-25.07901],[17.66453,-25.08055],[17.66579,-25.08214],[17.66631,-25.0825],[17.66773,-25.08288],[17.67981,-25.08477],[17.68498,-25.08482],[17.68905,-25.08455],[17.69615,-25.0828],[17.70675,-25.08146],[17.71095,-25.08194],[17.71319,-25.08274],[17.71668,-25.08346],[17.71788,-25.0835],[17.72055,-25.08299],[17.7215,-25.08303],[17.72674,-25.08465],[17.73591,-25.08652],[17.73767,-25.08713],[17.73819,-25.08754],[17.73894,-25.08879],[17.73974,-25.09114],[17.7424,-25.09717],[17.74496,-25.10203],[17.74571,-25.10461],[17.7516,-25.11597],[17.75389,-25.11802],[17.75484,-25.11934],[17.75508,-25.1193],[17.75551,-25.1186],[17.75573,-25.11852],[17.75676,-25.11915],[17.76383,-25.12098],[17.76246,-25.12603],[17.7622,-25.12754],[17.77866,-25.13367],[17.78039,-25.13483],[17.78831,-25.142],[17.78935,-25.14274],[17.8221,-25.16036],[17.83243,-25.16526],[17.82542,-25.18772],[17.82248,-25.23558],[17.82295,-25.23802],[17.83603,-25.27635],[17.85581,-25.31529],[17.90696,-25.41213],[17.92391,-25.43979],[17.9247,-25.4409],[17.92596,-25.44213],[17.93432,-25.44815],[17.9367,-25.45004],[17.94986,-25.46475],[17.95939,-25.473],[17.9613,-25.47534],[17.9625,-25.47743],[17.96317,-25.47909],[17.96366,-25.48092],[17.97896,-25.56212],[17.9792,-25.56458],[17.98088,-25.59872],[17.98128,-25.60052],[17.98188,-25.60185],[17.98306,-25.6034],[18.03132,-25.65662],[18.0332,-25.66008],[18.05818,-25.71119],[18.05892,-25.71302],[18.08764,-25.80651],[18.09913,-25.85534],[18.11254,-25.89153],[18.11348,-25.89326],[18.12061,-25.9039],[18.12148,-25.9061],[18.12746,-25.97771],[18.12779,-25.9791],[18.15008,-26.04808],[18.1505,-26.05111],[18.15381,-26.09004],[18.15414,-26.09165],[18.1583,-26.10605],[18.15831,-26.10805],[18.15639,-26.12118],[18.15663,-26.13258],[18.15694,-26.13518],[18.15964,-26.14612],[18.16008,-26.14887],[18.16124,-26.1835],[18.16583,-26.22202],[18.16622,-26.22364],[18.18922,-26.29623],[18.18984,-26.29875],[18.18992,-26.30144],[18.18819,-26.31651],[18.18819,-26.31831],[18.19537,-26.34309],[18.19579,-26.34569],[18.19736,-26.41578],[18.19735,-26.41905],[18.19674,-26.42108],[18.18242,-26.44442],[18.16092,-26.48768],[18.15952,-26.49092],[18.15499,-26.51455],[18.15401,-26.52528],[18.15411,-26.52723],[18.1546,-26.52995],[18.15456,-26.53092],[18.15407,-26.53235],[18.15113,-26.53759],[18.15056,-26.53961],[18.14825,-26.57205],[18.1478,-26.57383],[18.14703,-26.57531],[18.14605,-26.57517],[18.14539,-26.57552],[18.1448,-26.57781],[18.14394,-26.57853],[18.13569,-26.57911],[18.13563,-26.57839],[18.13426,-26.57846],[18.13431,-26.57908]],"type":"LineString"}},{"type":"Feature","properties":{"name":"Keetmanshoop, Namibia → Luderitz, Namibia"},"geometry":{"coordinates":[[18.13431,-26.57908],[18.13442,-26.57956],[18.1343,-26.58001],[18.13514,-26.58262],[18.13719,-26.58455],[18.13792,-26.5858],[18.13814,-26.58696],[18.13802,-26.58851],[18.13815,-26.58897],[18.13883,-26.58963],[18.14033,-26.58984],[18.14141,-26.59536],[18.1417,-26.59581],[18.14157,-26.5962],[18.14166,-26.59912],[18.14135,-26.60105],[18.14086,-26.60271],[18.13949,-26.60534],[18.1376,-26.60764],[18.1358,-26.60917],[18.13415,-26.61022],[18.13224,-26.61114],[18.1301,-26.61182],[18.12828,-26.61218],[18.1259,-26.61236],[18.12023,-26.61206],[18.11904,-26.61231],[18.11778,-26.61287],[18.11679,-26.61358],[18.11597,-26.61448],[18.11222,-26.62153],[18.11145,-26.62258],[18.1101,-26.62375],[18.10061,-26.62952],[18.09302,-26.63303],[18.09078,-26.63368],[18.08165,-26.6352],[18.08037,-26.63553],[18.07925,-26.63602],[18.07841,-26.63663],[18.07286,-26.64201],[18.07082,-26.64377],[18.04902,-26.66046],[18.04761,-26.66177],[18.04666,-26.66294],[18.0195,-26.70228],[18.01738,-26.7049],[17.92311,-26.78644],[17.92128,-26.78741],[17.91928,-26.78796],[17.80762,-26.80727],[17.80503,-26.8076],[17.80266,-26.8075],[17.79225,-26.80564],[17.79056,-26.80517],[17.78924,-26.8045],[17.78735,-26.8028],[17.78629,-26.80081],[17.78598,-26.79872],[17.78662,-26.79544],[17.78656,-26.79385],[17.78624,-26.79281],[17.78567,-26.7918],[17.78423,-26.79043],[17.78258,-26.78963],[17.77741,-26.78869],[17.77528,-26.7878],[17.76198,-26.77634],[17.7602,-26.77518],[17.75821,-26.77465],[17.74122,-26.77176],[17.73921,-26.77106],[17.73777,-26.76998],[17.72694,-26.75989],[17.72523,-26.75882],[17.72414,-26.75843],[17.72231,-26.75815],[17.70774,-26.75852],[17.70642,-26.75831],[17.70256,-26.75717],[17.70095,-26.75694],[17.69957,-26.75697],[17.69539,-26.75766],[17.69352,-26.75764],[17.69211,-26.75725],[17.68753,-26.75503],[17.6856,-26.75437],[17.67104,-26.75141],[17.66726,-26.75085],[17.66478,-26.75112],[17.66234,-26.75204],[17.6413,-26.765],[17.63961,-26.76581],[17.63744,-26.76631],[17.59609,-26.77122],[17.59083,-26.77297],[17.56085,-26.78399],[17.55902,-26.78448],[17.55713,-26.78464],[17.55556,-26.78451],[17.5419,-26.78172],[17.53949,-26.78141],[17.51712,-26.78022],[17.51305,-26.78012],[17.46952,-26.78015],[17.46618,-26.78074],[17.44794,-26.78665],[17.44444,-26.78745],[17.42264,-26.78915],[17.41285,-26.78901],[17.41074,-26.78926],[17.40848,-26.79016],[17.40726,-26.79105],[17.39897,-26.79952],[17.39752,-26.80075],[17.39634,-26.80146],[17.3941,-26.80236],[17.37486,-26.80731],[17.3726,-26.80755],[17.37065,-26.80752],[17.34075,-26.80446],[17.32076,-26.79987],[17.31627,-26.79835],[17.26138,-26.77567],[17.25914,-26.77448],[17.23492,-26.75966],[17.23332,-26.75886],[17.23087,-26.75817],[17.22617,-26.75768],[17.22448,-26.75696],[17.22359,-26.75612],[17.22298,-26.75497],[17.22126,-26.74591],[17.22038,-26.74337],[17.21427,-26.73471],[17.20681,-26.72213],[17.20524,-26.7201],[17.18403,-26.696],[17.18285,-26.69492],[17.18138,-26.69401],[17.17864,-26.69304],[17.16044,-26.68981],[17.15926,-26.68949],[17.15641,-26.68807],[17.14796,-26.68289],[17.14513,-26.68168],[17.07379,-26.65955],[17.07141,-26.65901],[17.06916,-26.65883],[16.93992,-26.65626],[16.93761,-26.65579],[16.93484,-26.65474],[16.9195,-26.64618],[16.91564,-26.64424],[16.91333,-26.64338],[16.9105,-26.64257],[16.90684,-26.64195],[16.90426,-26.6417],[16.90108,-26.64169],[16.85282,-26.64416],[16.84964,-26.6441],[16.84646,-26.64357],[16.84315,-26.64248],[16.78868,-26.61876],[16.78585,-26.61783],[16.78316,-26.61766],[16.74293,-26.62087],[16.67768,-26.61044],[16.67439,-26.6106],[16.6565,-26.61366],[16.64347,-26.61466],[16.6134,-26.62041],[16.61178,-26.62092],[16.56704,-26.63908],[16.56428,-26.63987],[16.56179,-26.64016],[16.55957,-26.64011],[16.54891,-26.63883],[16.50803,-26.63384],[16.50044,-26.63278],[16.49782,-26.63197],[16.49556,-26.6309],[16.48342,-26.62243],[16.48211,-26.62168],[16.48056,-26.62109],[16.47339,-26.61908],[16.47152,-26.61883],[16.46948,-26.61896],[16.46006,-26.62165],[16.45862,-26.6222],[16.45735,-26.62291],[16.42601,-26.64849],[16.41484,-26.65631],[16.41282,-26.6572],[16.41102,-26.65745],[16.28659,-26.66157],[16.28408,-26.66184],[16.27179,-26.66478],[16.26997,-26.66499],[16.2683,-26.66486],[16.26686,-26.66448],[16.26503,-26.66354],[16.26395,-26.66264],[16.26267,-26.66091],[16.25863,-26.65287],[16.25774,-26.65155],[16.25582,-26.64979],[16.25436,-26.64895],[16.25303,-26.64841],[16.2504,-26.64792],[16.24268,-26.64758],[16.2323,-26.64483],[16.22997,-26.64444],[16.22726,-26.6443],[16.22422,-26.64454],[16.19767,-26.64906],[16.19374,-26.64922],[16.19025,-26.64882],[16.1587,-26.64349],[16.15664,-26.64287],[16.1548,-26.64209],[16.10739,-26.61884],[16.1055,-26.61806],[16.02612,-26.59393],[16.02298,-26.59322],[16.00576,-26.59199],[15.96238,-26.58674],[15.869,-26.5742],[15.82127,-26.56786],[15.81874,-26.56765],[15.81546,-26.56762],[15.67513,-26.57291],[15.60384,-26.57952],[15.59978,-26.58013],[15.59419,-26.58191],[15.53504,-26.60215],[15.50859,-26.61252],[15.4738,-26.62416],[15.47111,-26.62546],[15.45152,-26.63741],[15.45,-26.63843],[15.44832,-26.63992],[15.44666,-26.642],[15.42375,-26.6734],[15.39442,-26.70474],[15.39278,-26.70609],[15.39027,-26.70728],[15.38885,-26.70763],[15.3873,-26.7078],[15.37381,-26.70695],[15.37113,-26.70638],[15.35304,-26.70151],[15.35117,-26.70127],[15.34905,-26.70152],[15.34757,-26.70202],[15.34613,-26.70291],[15.33909,-26.71011],[15.33776,-26.7112],[15.33646,-26.71198],[15.31283,-26.72339],[15.30986,-26.7242],[15.30548,-26.7245],[15.29887,-26.72457],[15.29684,-26.72406],[15.29562,-26.7235],[15.29413,-26.72242],[15.29316,-26.72139],[15.29033,-26.7167],[15.28968,-26.71591],[15.28847,-26.71496],[15.28722,-26.71436],[15.28533,-26.71395],[15.28381,-26.71402],[15.27968,-26.71522],[15.27835,-26.71539],[15.27684,-26.71531],[15.27586,-26.71508],[15.27411,-26.71423],[15.27267,-26.71285],[15.27191,-26.7115],[15.26963,-26.70299],[15.26872,-26.70086],[15.26776,-26.69923],[15.26579,-26.69683],[15.26406,-26.69529],[15.26246,-26.69417],[15.25929,-26.69258],[15.25734,-26.69193],[15.25478,-26.69138],[15.25224,-26.69116],[15.24927,-26.69132],[15.24538,-26.69221],[15.23538,-26.69603],[15.23377,-26.69623],[15.23233,-26.69612],[15.23078,-26.69561],[15.22924,-26.69467],[15.22196,-26.688],[15.22066,-26.687],[15.2189,-26.68608],[15.21734,-26.68561],[15.21572,-26.68535],[15.20633,-26.68499],[15.2052,-26.68478],[15.20386,-26.68425],[15.20191,-26.68268],[15.1947,-26.67378],[15.19359,-26.67268],[15.19128,-26.67118],[15.1817,-26.66718],[15.18016,-26.66631],[15.17884,-26.66524],[15.17409,-26.66002],[15.17305,-26.65918],[15.17188,-26.65859],[15.17044,-26.65823],[15.16288,-26.65792],[15.16181,-26.65766],[15.16087,-26.65716],[15.15627,-26.65237],[15.15621,-26.65122],[15.15643,-26.65105],[15.15653,-26.64983],[15.1577,-26.64808],[15.1581,-26.64912],[15.158,-26.65014]],"type":"LineString"}},{"type":"Feature","properties":{"name":"Windhoek, Namibia"},"geometry":{"type":"Point","coordinates":[17.07727,-22.57761]}},{"type":"Feature","properties":{"name":"Swakopmund, Namibia"},"geometry":{"type":"Point","coordinates":[14.52897,-22.67684]}},{"type":"Feature","properties":{"name":"Sesriem, Namibia"},"geometry":{"type":"Point","coordinates":[15.79849,-24.48713]}},{"type":"Feature","properties":{"name":"Keetmanshoop, Namibia"},"geometry":{"type":"Point","coordinates":[18.13419,-26.57909]}},{"type":"Feature","properties":{"name":"Luderitz, Namibia"},"geometry":{"type":"Point","coordinates":[15.15727,-26.65001]}}]}