{"type":"FeatureCollection","features":[{"type":"Feature","properties":{"name":"Christchurch, New Zealand → Lake Tekapo, New Zealand"},"geometry":{"coordinates":[[172.63597,-43.53062],[172.63605,-43.53035],[172.63666,-43.53028],[172.63789,-43.53101],[172.63664,-43.53162],[172.63666,-43.53903],[172.63363,-43.53903],[172.63367,-43.54756],[172.62886,-43.54759],[172.62572,-43.54802],[172.62268,-43.54749],[172.6172,-43.54749],[172.61121,-43.54805],[172.60809,-43.54815],[172.60311,-43.54776],[172.59017,-43.54594],[172.58716,-43.5459],[172.58429,-43.54629],[172.57949,-43.54777],[172.57477,-43.54999],[172.57226,-43.55148],[172.57058,-43.55281],[172.56945,-43.55409],[172.56741,-43.55724],[172.56572,-43.55871],[172.56121,-43.56143],[172.55918,-43.56246],[172.55616,-43.56358],[172.55329,-43.5643],[172.54982,-43.56477],[172.54657,-43.56485],[172.54111,-43.56461],[172.5338,-43.56383],[172.52981,-43.56374],[172.5255,-43.56409],[172.51888,-43.56519],[172.51443,-43.56536],[172.50699,-43.56489],[172.5041,-43.56445],[172.49778,-43.56313],[172.49484,-43.56282],[172.49134,-43.56272],[172.48758,-43.56296],[172.48365,-43.56359],[172.47271,-43.56678],[172.47044,-43.56726],[172.46774,-43.56759],[172.46484,-43.56768],[172.46165,-43.56747],[172.45211,-43.56568],[172.44973,-43.5657],[172.44706,-43.56622],[172.44019,-43.56902],[172.41165,-43.58126],[172.40879,-43.58215],[172.39413,-43.58525],[172.39148,-43.58604],[172.38455,-43.58883],[172.38105,-43.5899],[172.35126,-43.60145],[172.23146,-43.64675],[172.22748,-43.64844],[172.22643,-43.64868],[172.22495,-43.64862],[172.22409,-43.64877],[172.22201,-43.64971],[172.19628,-43.65944],[172.19268,-43.66051],[172.18496,-43.66362],[172.09059,-43.69911],[172.08795,-43.70075],[172.05411,-43.72925],[172.05177,-43.73092],[172.05126,-43.7316],[172.05075,-43.73301],[172.05015,-43.73372],[172.02792,-43.75223],[172.02734,-43.75289],[172.02096,-43.7634],[172.02015,-43.7643],[172.01925,-43.76495],[171.95306,-43.79349],[171.95204,-43.79383],[171.95058,-43.79388],[171.94979,-43.79407],[171.94246,-43.79797],[171.93452,-43.80149],[171.86799,-43.82979],[171.84758,-43.83863],[171.79427,-43.87336],[171.79046,-43.87554],[171.75614,-43.89816],[171.7461,-43.90458],[171.74433,-43.90578],[171.74334,-43.90725],[171.74187,-43.90822],[171.57317,-43.99989],[171.57062,-44.00135],[171.56982,-44.00225],[171.56918,-44.00267],[171.55484,-44.01045],[171.55252,-44.01132],[171.53636,-44.01522],[171.47049,-44.0318],[171.46439,-44.0335],[171.4381,-44.04011],[171.41969,-44.04496],[171.41692,-44.04599],[171.40066,-44.05368],[171.38662,-44.05917],[171.38004,-44.06218],[171.37077,-44.06683],[171.33359,-44.08913],[171.32622,-44.09338],[171.32354,-44.09511],[171.32191,-44.09645],[171.31967,-44.09907],[171.31106,-44.11398],[171.31092,-44.11469],[171.31109,-44.1158],[171.31458,-44.12325],[171.31462,-44.12411],[171.31431,-44.12494],[171.31313,-44.12603],[171.30896,-44.12816],[171.30465,-44.13075],[171.29966,-44.13451],[171.29902,-44.13526],[171.29807,-44.13737],[171.29664,-44.13689],[171.29262,-44.13211],[171.2894,-44.12701],[171.25169,-44.12603],[171.25019,-44.12618],[171.24907,-44.12538],[171.22405,-44.11238],[171.21598,-44.11345],[171.21083,-44.11598],[171.20722,-44.11747],[171.20002,-44.11902],[171.19497,-44.12071],[171.19257,-44.12096],[171.18839,-44.12043],[171.18227,-44.11877],[171.17794,-44.1178],[171.17626,-44.11704],[171.1698,-44.11291],[171.16884,-44.11253],[171.16204,-44.11189],[171.15985,-44.11182],[171.15698,-44.11113],[171.15257,-44.11075],[171.14618,-44.11167],[171.13715,-44.11139],[171.13576,-44.11185],[171.13503,-44.11245],[171.13464,-44.11318],[171.13393,-44.11598],[171.13302,-44.11692],[171.13186,-44.11765],[171.12776,-44.11875],[171.12577,-44.11945],[171.11767,-44.12006],[171.11263,-44.12119],[171.10922,-44.12275],[171.10561,-44.1231],[171.10216,-44.1249],[171.09379,-44.12702],[171.08977,-44.12896],[171.08875,-44.12922],[171.08788,-44.12904],[171.08732,-44.12855],[171.08581,-44.12548],[171.08291,-44.12393],[171.08154,-44.12377],[171.07809,-44.12457],[171.07612,-44.12445],[171.06498,-44.12021],[171.06387,-44.11993],[171.05969,-44.11949],[171.05565,-44.1198],[171.04613,-44.12279],[171.04501,-44.12302],[171.04075,-44.12271],[171.03938,-44.12246],[171.02532,-44.11908],[171.01698,-44.11367],[171.01039,-44.10912],[171.00367,-44.10321],[171.00136,-44.09771],[171.00091,-44.09707],[170.99893,-44.09604],[170.99737,-44.0948],[170.99392,-44.09262],[170.98768,-44.08783],[170.98516,-44.08564],[170.98166,-44.08455],[170.98027,-44.08379],[170.97977,-44.08308],[170.97995,-44.08091],[170.97942,-44.08027],[170.97855,-44.08003],[170.97753,-44.08024],[170.96985,-44.08403],[170.96883,-44.08483],[170.96705,-44.08719],[170.96631,-44.08768],[170.96317,-44.08892],[170.96189,-44.08924],[170.96002,-44.08928],[170.95911,-44.08903],[170.95676,-44.08796],[170.95086,-44.08225],[170.94964,-44.08074],[170.9474,-44.07621],[170.948,-44.07297],[170.94777,-44.07065],[170.94485,-44.06618],[170.93022,-44.05607],[170.92918,-44.05562],[170.9264,-44.05529],[170.92199,-44.05281],[170.92119,-44.05252],[170.91669,-44.05218],[170.91457,-44.0516],[170.91299,-44.05137],[170.91102,-44.05066],[170.90727,-44.04868],[170.90642,-44.04871],[170.9053,-44.04946],[170.90402,-44.04974],[170.90359,-44.04959],[170.90311,-44.04896],[170.90218,-44.04836],[170.9018,-44.04835],[170.90073,-44.04881],[170.90025,-44.0488],[170.89969,-44.04861],[170.89858,-44.04778],[170.89784,-44.0479],[170.89743,-44.04824],[170.89721,-44.04919],[170.8963,-44.05002],[170.89663,-44.05178],[170.89595,-44.05272],[170.89517,-44.05295],[170.89425,-44.05355],[170.8932,-44.05572],[170.89108,-44.05688],[170.88839,-44.05802],[170.8884,-44.05849],[170.88912,-44.05966],[170.88847,-44.0609],[170.88852,-44.06215],[170.88813,-44.06262],[170.88634,-44.06369],[170.88549,-44.06455],[170.88311,-44.0657],[170.8817,-44.06601],[170.87558,-44.06554],[170.87262,-44.06578],[170.87058,-44.06649],[170.86941,-44.06723],[170.86826,-44.06827],[170.8676,-44.06962],[170.86714,-44.07476],[170.8684,-44.08231],[170.86797,-44.08371],[170.86687,-44.08492],[170.85129,-44.09359],[170.85043,-44.0937],[170.84975,-44.09355],[170.84773,-44.09192],[170.8466,-44.09169],[170.83668,-44.09563],[170.83121,-44.09747],[170.82887,-44.09771],[170.81952,-44.09017],[170.81588,-44.08799],[170.81276,-44.08491],[170.80887,-44.08217],[170.80201,-44.0785],[170.75949,-44.04727],[170.74912,-44.0364],[170.74837,-44.03581],[170.7417,-44.03307],[170.74,-44.03262],[170.73184,-44.0312],[170.71662,-44.02933],[170.71538,-44.02936],[170.71225,-44.02979],[170.70881,-44.03145],[170.70497,-44.03183],[170.70134,-44.03389],[170.70045,-44.03424],[170.69488,-44.03491],[170.6913,-44.03569],[170.69021,-44.03626],[170.68787,-44.03825],[170.68609,-44.04041],[170.68511,-44.043],[170.67966,-44.05101],[170.67614,-44.05571],[170.6758,-44.05657],[170.67557,-44.0582],[170.67472,-44.05959],[170.67355,-44.06309],[170.67201,-44.06503],[170.671,-44.0678],[170.6693,-44.06937],[170.66794,-44.07032],[170.66684,-44.07151],[170.6666,-44.07221],[170.66649,-44.0748],[170.66362,-44.07998],[170.65319,-44.08899],[170.65239,-44.08951],[170.65085,-44.08986],[170.64849,-44.08986],[170.63814,-44.08903],[170.63623,-44.08935],[170.63167,-44.09112],[170.63019,-44.09146],[170.62215,-44.09183],[170.61109,-44.09106],[170.60571,-44.09026],[170.60294,-44.09001],[170.59987,-44.09015],[170.59616,-44.08954],[170.59344,-44.08959],[170.58593,-44.09105],[170.57317,-44.09311],[170.57191,-44.09366],[170.56877,-44.09609],[170.5676,-44.09643],[170.56621,-44.0964],[170.55475,-44.09195],[170.5385,-44.08391],[170.50813,-44.06738],[170.50667,-44.06645],[170.50548,-44.0654],[170.50453,-44.06425],[170.50384,-44.06298],[170.50211,-44.05736],[170.50199,-44.05637],[170.50292,-44.05246],[170.5078,-44.04331],[170.50809,-44.04211],[170.50747,-44.04096],[170.50486,-44.03921],[170.50422,-44.03844],[170.50025,-44.0298],[170.50024,-44.02855],[170.50124,-44.02133],[170.50078,-44.01809],[170.50129,-44.01387],[170.50114,-44.01254],[170.50015,-44.01162],[170.49431,-44.00793],[170.49296,-44.00733],[170.49161,-44.00699],[170.4896,-44.00687],[170.48542,-44.0077],[170.48417,-44.00773],[170.47846,-44.00567],[170.47719,-44.00483],[170.4773,-44.00454]],"type":"LineString"}},{"type":"Feature","properties":{"name":"Lake Tekapo, New Zealand → Queenstown, New Zealand"},"geometry":{"coordinates":[[170.4773,-44.00454],[170.47719,-44.00483],[170.47578,-44.00357],[170.4747,-44.00311],[170.47036,-44.00282],[170.46755,-44.00221],[170.46529,-44.00223],[170.46323,-44.00141],[170.46061,-44.00082],[170.45903,-44.00098],[170.45281,-44.00281],[170.45057,-44.00299],[170.44876,-44.00284],[170.44305,-44.00128],[170.43387,-43.99994],[170.42874,-43.99858],[170.42473,-43.99797],[170.4183,-43.99743],[170.41603,-43.99773],[170.41433,-43.99848],[170.40726,-44.00479],[170.40642,-44.00627],[170.40603,-44.00949],[170.40368,-44.0149],[170.40318,-44.01967],[170.40097,-44.02436],[170.40014,-44.02522],[170.39775,-44.02701],[170.39434,-44.03034],[170.38952,-44.03295],[170.38309,-44.03854],[170.37864,-44.04566],[170.3603,-44.06889],[170.34944,-44.08535],[170.34902,-44.08675],[170.34905,-44.08864],[170.35074,-44.09118],[170.35404,-44.09939],[170.35422,-44.10048],[170.35113,-44.12395],[170.34923,-44.13353],[170.33585,-44.15623],[170.33313,-44.16812],[170.33272,-44.16914],[170.33204,-44.1699],[170.33122,-44.17045],[170.32104,-44.17597],[170.32014,-44.17701],[170.31917,-44.17958],[170.31784,-44.18065],[170.28436,-44.19462],[170.28288,-44.19559],[170.28008,-44.19877],[170.27844,-44.19989],[170.26695,-44.20325],[170.26402,-44.20368],[170.26159,-44.2035],[170.25361,-44.20179],[170.2525,-44.20138],[170.24953,-44.19982],[170.24757,-44.19767],[170.24475,-44.19593],[170.24062,-44.19205],[170.23793,-44.18815],[170.23351,-44.18526],[170.22959,-44.18138],[170.22753,-44.18022],[170.2199,-44.1777],[170.21904,-44.17731],[170.21767,-44.1763],[170.21645,-44.17467],[170.21552,-44.17065],[170.21516,-44.16989],[170.21393,-44.16886],[170.21247,-44.16843],[170.21131,-44.1684],[170.20976,-44.16872],[170.20821,-44.1694],[170.20718,-44.17019],[170.20606,-44.17195],[170.20507,-44.17564],[170.2046,-44.17641],[170.20405,-44.17688],[170.20244,-44.17758],[170.19945,-44.17784],[170.19817,-44.17821],[170.19708,-44.17888],[170.19282,-44.18238],[170.19105,-44.18317],[170.1889,-44.18319],[170.18747,-44.1827],[170.18614,-44.18165],[170.18467,-44.1798],[170.18357,-44.17882],[170.18199,-44.1778],[170.17782,-44.17578],[170.17486,-44.17481],[170.1719,-44.17463],[170.16528,-44.17586],[170.16266,-44.17597],[170.15892,-44.17574],[170.15741,-44.17619],[170.15651,-44.17691],[170.15606,-44.17794],[170.15617,-44.17896],[170.15715,-44.18079],[170.15705,-44.18186],[170.15661,-44.18254],[170.15115,-44.18698],[170.14461,-44.19024],[170.14333,-44.19073],[170.14143,-44.19094],[170.13948,-44.1906],[170.13314,-44.18725],[170.13054,-44.18654],[170.12886,-44.18648],[170.12688,-44.18675],[170.12494,-44.1875],[170.12353,-44.1885],[170.12263,-44.18959],[170.1221,-44.19089],[170.11655,-44.217],[170.11642,-44.25007],[170.11622,-44.2515],[170.1156,-44.25269],[170.11485,-44.25352],[170.11379,-44.25427],[170.10825,-44.25642],[170.10653,-44.25778],[170.09838,-44.27512],[170.09754,-44.27604],[170.0899,-44.28242],[170.08882,-44.28386],[170.08643,-44.28817],[170.08114,-44.2936],[170.07997,-44.29451],[170.07859,-44.29529],[170.07564,-44.2964],[170.07295,-44.2979],[170.0689,-44.30184],[170.03365,-44.33018],[170.02723,-44.33532],[170.01602,-44.34356],[170.01501,-44.34465],[170.00293,-44.36214],[170.00067,-44.37183],[169.99701,-44.38582],[169.99082,-44.41459],[169.98819,-44.42004],[169.98692,-44.42428],[169.98635,-44.42808],[169.98514,-44.43177],[169.98387,-44.43417],[169.98174,-44.4368],[169.97998,-44.44039],[169.98,-44.44171],[169.98172,-44.44588],[169.98172,-44.44748],[169.97928,-44.45089],[169.97552,-44.4553],[169.97506,-44.45648],[169.97526,-44.45814],[169.9764,-44.45956],[169.98011,-44.46199],[169.98624,-44.46496],[169.98766,-44.46616],[169.98821,-44.46709],[169.98836,-44.46893],[169.98754,-44.4722],[169.98453,-44.47726],[169.9832,-44.47868],[169.97528,-44.48332],[169.96707,-44.48706],[169.95956,-44.48933],[169.95786,-44.48949],[169.95305,-44.48885],[169.95023,-44.4893],[169.94459,-44.49058],[169.92353,-44.49481],[169.91975,-44.49574],[169.91225,-44.49706],[169.89795,-44.50101],[169.86604,-44.50698],[169.86181,-44.50803],[169.85896,-44.50852],[169.85141,-44.50931],[169.8487,-44.51015],[169.84384,-44.51202],[169.84142,-44.51272],[169.8376,-44.51321],[169.83334,-44.51401],[169.82812,-44.51459],[169.82002,-44.51429],[169.81368,-44.51461],[169.80291,-44.51437],[169.79761,-44.51347],[169.79498,-44.51267],[169.78952,-44.51019],[169.78247,-44.506],[169.78043,-44.50505],[169.75943,-44.49786],[169.75791,-44.49761],[169.75642,-44.49783],[169.75521,-44.49839],[169.7514,-44.50068],[169.74199,-44.50717],[169.73804,-44.51085],[169.73641,-44.51205],[169.72927,-44.5152],[169.72809,-44.51654],[169.72708,-44.52053],[169.72642,-44.52168],[169.72565,-44.52249],[169.72405,-44.52354],[169.72012,-44.52519],[169.71584,-44.52809],[169.71434,-44.52881],[169.7137,-44.52931],[169.71179,-44.53145],[169.70882,-44.53567],[169.70607,-44.53811],[169.70465,-44.54115],[169.70125,-44.54367],[169.69624,-44.54985],[169.69461,-44.55298],[169.69106,-44.55621],[169.69034,-44.55893],[169.69056,-44.56087],[169.6899,-44.56187],[169.68869,-44.56222],[169.68552,-44.56196],[169.68181,-44.56111],[169.67863,-44.55987],[169.67636,-44.55986],[169.67316,-44.56038],[169.67112,-44.56134],[169.66865,-44.56207],[169.6659,-44.56371],[169.66207,-44.56469],[169.66104,-44.56521],[169.65982,-44.56731],[169.65853,-44.56824],[169.65796,-44.56901],[169.65401,-44.57725],[169.65344,-44.57992],[169.6516,-44.58269],[169.65141,-44.58395],[169.64898,-44.58553],[169.64785,-44.58721],[169.64733,-44.58762],[169.64409,-44.588],[169.64281,-44.58832],[169.64175,-44.58817],[169.64003,-44.58711],[169.63963,-44.58574],[169.63858,-44.58425],[169.63617,-44.58336],[169.63355,-44.58172],[169.632,-44.58012],[169.63001,-44.57876],[169.62892,-44.5784],[169.62462,-44.57771],[169.62119,-44.57685],[169.61961,-44.57696],[169.61604,-44.57791],[169.61241,-44.57969],[169.61066,-44.57993],[169.60833,-44.5796],[169.60708,-44.57967],[169.60136,-44.58125],[169.5948,-44.58239],[169.58802,-44.5845],[169.58515,-44.58507],[169.58344,-44.58597],[169.58169,-44.58731],[169.58124,-44.5881],[169.58015,-44.59181],[169.57795,-44.59565],[169.57727,-44.59624],[169.57563,-44.59704],[169.57431,-44.59817],[169.57274,-44.59873],[169.57086,-44.59904],[169.56884,-44.60006],[169.56575,-44.60066],[169.56169,-44.6],[169.5565,-44.59991],[169.55452,-44.60014],[169.551,-44.60167],[169.54841,-44.60324],[169.54653,-44.60493],[169.54369,-44.60947],[169.54307,-44.6096],[169.54102,-44.60943],[169.53967,-44.60959],[169.53762,-44.60994],[169.53471,-44.61075],[169.53162,-44.61096],[169.53042,-44.6115],[169.52989,-44.61223],[169.52969,-44.61418],[169.52721,-44.61867],[169.52646,-44.62183],[169.52565,-44.62333],[169.52184,-44.62617],[169.5205,-44.62854],[169.51981,-44.62936],[169.51704,-44.63057],[169.5162,-44.63119],[169.51201,-44.63512],[169.51092,-44.63657],[169.50759,-44.63983],[169.50657,-44.64057],[169.50276,-44.64267],[169.5002,-44.64573],[169.4986,-44.64701],[169.49399,-44.65393],[169.4906,-44.65769],[169.4895,-44.6602],[169.48581,-44.666],[169.48357,-44.66827],[169.48049,-44.67183],[169.47879,-44.67407],[169.47824,-44.67537],[169.4783,-44.67667],[169.47898,-44.67799],[169.48174,-44.68075],[169.48352,-44.68374],[169.48579,-44.68621],[169.48748,-44.68755],[169.48791,-44.68818],[169.48788,-44.6891],[169.48725,-44.69109],[169.48635,-44.69248],[169.48462,-44.69424],[169.48445,-44.69465],[169.48459,-44.69499],[169.4852,-44.69529],[169.49015,-44.69547],[169.49375,-44.69595],[169.49489,-44.69632],[169.49573,-44.69703],[169.49689,-44.69937],[169.50256,-44.70432],[169.50285,-44.70523],[169.50346,-44.71545],[169.50399,-44.71648],[169.50584,-44.71832],[169.50629,-44.71935],[169.50662,-44.72267],[169.50622,-44.72489],[169.50645,-44.72876],[169.50684,-44.72963],[169.5088,-44.73196],[169.5091,-44.73263],[169.50881,-44.7335],[169.50727,-44.7346],[169.50673,-44.7357],[169.50702,-44.73668],[169.50942,-44.73943],[169.50991,-44.74148],[169.5093,-44.74363],[169.50968,-44.74951],[169.50797,-44.75318],[169.50765,-44.75517],[169.50837,-44.76014],[169.50808,-44.76283],[169.50862,-44.76594],[169.50862,-44.77513],[169.50726,-44.78019],[169.50633,-44.78623],[169.50378,-44.79291],[169.50395,-44.79377],[169.50469,-44.7946],[169.5061,-44.79518],[169.50873,-44.79562],[169.50918,-44.79596],[169.50935,-44.79635],[169.50901,-44.79703],[169.50675,-44.79833],[169.5065,-44.79897],[169.5065,-44.80114],[169.507,-44.80171],[169.5084,-44.80271],[169.50873,-44.80334],[169.5087,-44.80387],[169.50813,-44.80457],[169.50503,-44.80681],[169.50489,-44.80749],[169.5052,-44.80828],[169.50518,-44.80887],[169.50439,-44.81005],[169.50399,-44.81106],[169.50367,-44.81137],[169.5028,-44.81164],[169.50052,-44.8118],[169.49946,-44.8116],[169.49564,-44.80993],[169.49397,-44.80941],[169.49053,-44.80937],[169.48964,-44.80921],[169.48838,-44.80867],[169.48454,-44.80626],[169.47844,-44.80328],[169.47606,-44.80231],[169.47353,-44.80191],[169.47184,-44.80212],[169.4697,-44.80293],[169.46695,-44.80443],[169.46606,-44.80474],[169.45038,-44.80723],[169.4497,-44.80775],[169.43666,-44.82233],[169.43596,-44.82265],[169.4316,-44.82269],[169.43088,-44.823],[169.42697,-44.83168],[169.42674,-44.83552],[169.42507,-44.83571],[169.42165,-44.83556],[169.41763,-44.83563],[169.40869,-44.83747],[169.40782,-44.83779],[169.40053,-44.84249],[169.39331,-44.85052],[169.38887,-44.85375],[169.38369,-44.85831],[169.36905,-44.86774],[169.3664,-44.86993],[169.3603,-44.87444],[169.35977,-44.87514],[169.35919,-44.87686],[169.35562,-44.87944],[169.35415,-44.88123],[169.3477,-44.88255],[169.34651,-44.88298],[169.3439,-44.88425],[169.33747,-44.8886],[169.3154,-44.91431],[169.30974,-44.92286],[169.30735,-44.92562],[169.30275,-44.93171],[169.30141,-44.93286],[169.29972,-44.93392],[169.29056,-44.93849],[169.28898,-44.93965],[169.28763,-44.94099],[169.28536,-44.94424],[169.28472,-44.94706],[169.28305,-44.9497],[169.28242,-44.95227],[169.28201,-44.95317],[169.28126,-44.95402],[169.27873,-44.95583],[169.27678,-44.95839],[169.27429,-44.96095],[169.27343,-44.96283],[169.27269,-44.96618],[169.27202,-44.96718],[169.27097,-44.96796],[169.2682,-44.96936],[169.26645,-44.97128],[169.26489,-44.97252],[169.26329,-44.97507],[169.26207,-44.97642],[169.2601,-44.97782],[169.25701,-44.97944],[169.25063,-44.98506],[169.24845,-44.98786],[169.24735,-44.98897],[169.24549,-44.99031],[169.24231,-44.99208],[169.24132,-44.99303],[169.2348,-45.00376],[169.23336,-45.00685],[169.23002,-45.01132],[169.22898,-45.01338],[169.22856,-45.01511],[169.22854,-45.01685],[169.22908,-45.0196],[169.22871,-45.02433],[169.22823,-45.02696],[169.22741,-45.02863],[169.22491,-45.03188],[169.22376,-45.03397],[169.22321,-45.03614],[169.22324,-45.03921],[169.20944,-45.03491],[169.20752,-45.03449],[169.20565,-45.03429],[169.20357,-45.03431],[169.20036,-45.03474],[169.19955,-45.03508],[169.19891,-45.03501],[169.19651,-45.03524],[169.19519,-45.0351],[169.19247,-45.03434],[169.19154,-45.03444],[169.18882,-45.0359],[169.17893,-45.03983],[169.17742,-45.0407],[169.17656,-45.04168],[169.16853,-45.05377],[169.16784,-45.05443],[169.16673,-45.05507],[169.16551,-45.05543],[169.16198,-45.05595],[169.14288,-45.05849],[169.14011,-45.05877],[169.13827,-45.05849],[169.13667,-45.05777],[169.12869,-45.05289],[169.12783,-45.05222],[169.1266,-45.05061],[169.12565,-45.04981],[169.12441,-45.04787],[169.12369,-45.04473],[169.12365,-45.04198],[169.12322,-45.04009],[169.11974,-45.03556],[169.11347,-45.03088],[169.1122,-45.03042],[169.11093,-45.03031],[169.10968,-45.02974],[169.10315,-45.0277],[169.09852,-45.02542],[169.09344,-45.02113],[169.09066,-45.01706],[169.08709,-45.01254],[169.08516,-45.0095],[169.08265,-45.00622],[169.08119,-45.00468],[169.07857,-45.00284],[169.07453,-45.00199],[169.07185,-45.00099],[169.07085,-45.00088],[169.06898,-45.00146],[169.06677,-45.00383],[169.06474,-45.00452],[169.06377,-45.00542],[169.06329,-45.00835],[169.06324,-45.01188],[169.06268,-45.01325],[169.06263,-45.01479],[169.06105,-45.01686],[169.05858,-45.01857],[169.05752,-45.0189],[169.05649,-45.01956],[169.05512,-45.0199],[169.05361,-45.02091],[169.05095,-45.02135],[169.0495,-45.02241],[169.04906,-45.02254],[169.04703,-45.02279],[169.04439,-45.02484],[169.04433,-45.02575],[169.04504,-45.0282],[169.04491,-45.02878],[169.04373,-45.03055],[169.04322,-45.03108],[169.04091,-45.03216],[169.03989,-45.0329],[169.03851,-45.03339],[169.0378,-45.03395],[169.03764,-45.0347],[169.03805,-45.03588],[169.03905,-45.03732],[169.0419,-45.04259],[169.04238,-45.04405],[169.04237,-45.04529],[169.04545,-45.05171],[169.04587,-45.05408],[169.045,-45.05598],[169.04439,-45.05811],[169.04389,-45.0588],[169.04288,-45.05937],[169.0411,-45.0596],[169.03401,-45.05858],[169.03296,-45.0583],[169.03205,-45.05785],[169.03045,-45.05664],[169.0297,-45.05555],[169.02955,-45.05447],[169.03004,-45.05247],[169.03062,-45.0516],[169.03167,-45.05072],[169.03218,-45.04931],[169.03193,-45.04858],[169.03002,-45.04643],[169.02719,-45.04525],[169.01649,-45.04198],[169.01313,-45.04013],[169.00999,-45.03873],[169.00721,-45.03772],[169.00443,-45.03695],[169.00252,-45.0369],[168.99957,-45.03646],[168.99803,-45.03654],[168.99589,-45.03703],[168.99363,-45.03711],[168.99265,-45.03696],[168.97441,-45.03003],[168.96507,-45.02623],[168.95651,-45.02323],[168.94832,-45.02119],[168.93296,-45.01701],[168.92731,-45.01476],[168.92619,-45.0141],[168.92403,-45.01237],[168.92276,-45.01186],[168.91495,-45.01168],[168.90831,-45.01176],[168.90472,-45.0106],[168.90219,-45.01],[168.89881,-45.00996],[168.89484,-45.00955],[168.88913,-45.00981],[168.88724,-45.00941],[168.88536,-45.00833],[168.88352,-45.007],[168.88124,-45.00613],[168.8804,-45.00561],[168.87984,-45.00498],[168.87853,-45.00272],[168.8619,-44.98679],[168.86085,-44.9862],[168.85823,-44.98547],[168.85565,-44.98325],[168.85511,-44.98245],[168.85397,-44.97853],[168.85363,-44.97802],[168.85273,-44.97754],[168.85049,-44.97719],[168.84947,-44.9774],[168.8468,-44.97882],[168.838,-44.98197],[168.83694,-44.98197],[168.83589,-44.98161],[168.8342,-44.97976],[168.83348,-44.97932],[168.83271,-44.97912],[168.82746,-44.97929],[168.8248,-44.98009],[168.82337,-44.98098],[168.81938,-44.98528],[168.80803,-44.99141],[168.80472,-44.99488],[168.8037,-44.99542],[168.80094,-44.9954],[168.7983,-44.99416],[168.79669,-44.99404],[168.77627,-44.99922],[168.77353,-44.99997],[168.77307,-45.00031],[168.77212,-45.00034],[168.76865,-45.00091],[168.75982,-45.00106],[168.75661,-45.00171],[168.75383,-45.00298],[168.75115,-45.00478],[168.74565,-45.00865],[168.74542,-45.00907],[168.74485,-45.00927],[168.7421,-45.01118],[168.74179,-45.01176],[168.73998,-45.01221],[168.73367,-45.01525],[168.73157,-45.01582],[168.73075,-45.01573],[168.72298,-45.01616],[168.71876,-45.01664],[168.71701,-45.01713],[168.71057,-45.02004],[168.70869,-45.02044],[168.70619,-45.02066],[168.70175,-45.02184],[168.69964,-45.02318],[168.69754,-45.02404],[168.69526,-45.02563],[168.68768,-45.02823],[168.68208,-45.03305],[168.68081,-45.03373],[168.67718,-45.03399],[168.67495,-45.03485],[168.67417,-45.0349],[168.67114,-45.03452],[168.66866,-45.03372],[168.66683,-45.03398],[168.66273,-45.03105],[168.66103,-45.03221]],"type":"LineString"}},{"type":"Feature","properties":{"name":"Queenstown, New Zealand → Te Anau, New Zealand"},"geometry":{"coordinates":[[168.66103,-45.03221],[168.66273,-45.03105],[168.66683,-45.03398],[168.66866,-45.03372],[168.67114,-45.03452],[168.67417,-45.0349],[168.67495,-45.03485],[168.67718,-45.03399],[168.68064,-45.03378],[168.6819,-45.03319],[168.68768,-45.02823],[168.69526,-45.02563],[168.69754,-45.02404],[168.69964,-45.02318],[168.70175,-45.02184],[168.70619,-45.02066],[168.70869,-45.02044],[168.71057,-45.02004],[168.71701,-45.01713],[168.71876,-45.01664],[168.72249,-45.0162],[168.73157,-45.01558],[168.73431,-45.02161],[168.73398,-45.02731],[168.73335,-45.02903],[168.73365,-45.02989],[168.73455,-45.03047],[168.73722,-45.0311],[168.73992,-45.03261],[168.74185,-45.03497],[168.7439,-45.03837],[168.74434,-45.03873],[168.7452,-45.03881],[168.75137,-45.03778],[168.75208,-45.03791],[168.75265,-45.03841],[168.75375,-45.05143],[168.75414,-45.05228],[168.75388,-45.05311],[168.75431,-45.05861],[168.75462,-45.05955],[168.75979,-45.06902],[168.76042,-45.07108],[168.76021,-45.07293],[168.75544,-45.09075],[168.75555,-45.09774],[168.75679,-45.10389],[168.75991,-45.10665],[168.76064,-45.10855],[168.76195,-45.10983],[168.76178,-45.11123],[168.76245,-45.11245],[168.7623,-45.11317],[168.7626,-45.11653],[168.76215,-45.11833],[168.7612,-45.11939],[168.76073,-45.12071],[168.75974,-45.12209],[168.75915,-45.12482],[168.75792,-45.12719],[168.75775,-45.12792],[168.75775,-45.13058],[168.75926,-45.1337],[168.7592,-45.13744],[168.76064,-45.13945],[168.76048,-45.13963],[168.7593,-45.13998],[168.75839,-45.14074],[168.75784,-45.14151],[168.75764,-45.14236],[168.75772,-45.14376],[168.7569,-45.14655],[168.75478,-45.15142],[168.75327,-45.15398],[168.75216,-45.15668],[168.75202,-45.15766],[168.75132,-45.15905],[168.75082,-45.16483],[168.75125,-45.16697],[168.75112,-45.1692],[168.75005,-45.17128],[168.74901,-45.17277],[168.74928,-45.17496],[168.74846,-45.17817],[168.74731,-45.18043],[168.74717,-45.18147],[168.74651,-45.18304],[168.74567,-45.18612],[168.74434,-45.18854],[168.74281,-45.19216],[168.74193,-45.19498],[168.7429,-45.20122],[168.74217,-45.20351],[168.74224,-45.20593],[168.74265,-45.20939],[168.74322,-45.21074],[168.74275,-45.21209],[168.74264,-45.21532],[168.74151,-45.21655],[168.74113,-45.21811],[168.74168,-45.22018],[168.74174,-45.22138],[168.74149,-45.22224],[168.73989,-45.22501],[168.73983,-45.22592],[168.73919,-45.22709],[168.73967,-45.22806],[168.73969,-45.22883],[168.74004,-45.22974],[168.74116,-45.23119],[168.74114,-45.23312],[168.74187,-45.23461],[168.74174,-45.23688],[168.74248,-45.23787],[168.74308,-45.24008],[168.7431,-45.24147],[168.74259,-45.24297],[168.74291,-45.24554],[168.74371,-45.24625],[168.74428,-45.24648],[168.74464,-45.24723],[168.74788,-45.24766],[168.74846,-45.24793],[168.74991,-45.24913],[168.75328,-45.2571],[168.75573,-45.26028],[168.75736,-45.26102],[168.75788,-45.26147],[168.75803,-45.26366],[168.75853,-45.2643],[168.75983,-45.26516],[168.76033,-45.26595],[168.76047,-45.26712],[168.75979,-45.27015],[168.75981,-45.27092],[168.76118,-45.27448],[168.76156,-45.27664],[168.76276,-45.27925],[168.76359,-45.28268],[168.76519,-45.28603],[168.76512,-45.28741],[168.76362,-45.29032],[168.76258,-45.29317],[168.75999,-45.29504],[168.75939,-45.29576],[168.75906,-45.2982],[168.75729,-45.30398],[168.75561,-45.30733],[168.75534,-45.30974],[168.75214,-45.31582],[168.75115,-45.31681],[168.74809,-45.31847],[168.74708,-45.3193],[168.74456,-45.32296],[168.74386,-45.32541],[168.74261,-45.32758],[168.74193,-45.32813],[168.7401,-45.32898],[168.73832,-45.33048],[168.73738,-45.33072],[168.73446,-45.33087],[168.73157,-45.33173],[168.73031,-45.33238],[168.72915,-45.33327],[168.72588,-45.3372],[168.71797,-45.34289],[168.71544,-45.34664],[168.67097,-45.39467],[168.6702,-45.39579],[168.66996,-45.39727],[168.67275,-45.41368],[168.67481,-45.41913],[168.67523,-45.41977],[168.67613,-45.4203],[168.67713,-45.42052],[168.68527,-45.42014],[168.68868,-45.42051],[168.69088,-45.42106],[168.69599,-45.42352],[168.70027,-45.42521],[168.70092,-45.42576],[168.7029,-45.4283],[168.70324,-45.42913],[168.70196,-45.43245],[168.70264,-45.435],[168.70257,-45.43573],[168.69463,-45.45213],[168.69324,-45.45716],[168.69282,-45.45948],[168.69145,-45.46119],[168.68993,-45.4624],[168.68818,-45.46331],[168.68509,-45.46438],[168.68411,-45.46518],[168.6832,-45.46844],[168.68272,-45.46929],[168.67902,-45.47401],[168.66453,-45.49406],[168.66283,-45.49544],[168.65321,-45.5007],[168.64981,-45.50318],[168.62374,-45.5173],[168.62174,-45.51791],[168.61937,-45.51787],[168.61092,-45.51603],[168.60575,-45.5153],[168.60267,-45.51417],[168.59906,-45.51249],[168.59737,-45.51206],[168.59511,-45.51201],[168.59054,-45.51271],[168.58824,-45.51265],[168.58674,-45.51237],[168.58323,-45.5113],[168.56602,-45.50855],[168.56144,-45.5084],[168.55678,-45.50892],[168.55564,-45.50934],[168.55476,-45.5104],[168.54893,-45.53371],[168.54818,-45.53514],[168.54663,-45.53628],[168.53338,-45.54375],[168.53128,-45.54425],[168.52754,-45.54409],[168.52634,-45.5443],[168.52554,-45.54473],[168.52388,-45.54645],[168.52273,-45.54715],[168.51394,-45.54981],[168.51283,-45.55055],[168.50668,-45.55632],[168.50554,-45.55791],[168.50481,-45.5611],[168.50546,-45.56697],[168.50363,-45.57144],[168.50263,-45.57242],[168.50128,-45.57311],[168.49344,-45.57534],[168.49178,-45.57617],[168.49093,-45.57699],[168.48811,-45.58071],[168.47989,-45.58946],[168.45865,-45.62357],[168.43609,-45.6173],[168.43551,-45.6169],[168.43522,-45.6164],[168.4351,-45.61427],[168.43473,-45.61331],[168.43404,-45.61261],[168.433,-45.61209],[168.43141,-45.61184],[168.42829,-45.61209],[168.42231,-45.61208],[168.3921,-45.62123],[168.38943,-45.62188],[168.38681,-45.62244],[168.35473,-45.62744],[168.35372,-45.62802],[168.3434,-45.63676],[168.34198,-45.63744],[168.33355,-45.63902],[168.31855,-45.64299],[168.26431,-45.65672],[168.26316,-45.65686],[168.26158,-45.65682],[168.25506,-45.65552],[168.2539,-45.65545],[168.25279,-45.65565],[168.25182,-45.65609],[168.25091,-45.65696],[168.24274,-45.66784],[168.24107,-45.67057],[168.2252,-45.66419],[168.22351,-45.6631],[168.21985,-45.6599],[168.21905,-45.65946],[168.21701,-45.65924],[168.21595,-45.65932],[168.21534,-45.65963],[168.21426,-45.6607],[168.21291,-45.6612],[168.2082,-45.66103],[168.206,-45.66054],[168.20092,-45.65828],[168.19673,-45.65437],[168.19302,-45.64974],[168.18897,-45.64374],[168.18791,-45.6431],[168.18294,-45.64095],[168.17598,-45.63733],[168.17068,-45.63351],[168.1674,-45.63016],[168.1628,-45.62667],[168.1593,-45.6228],[168.15542,-45.61957],[168.15371,-45.61685],[168.15315,-45.61455],[168.15234,-45.61347],[168.15128,-45.61283],[168.14051,-45.60814],[168.13905,-45.60724],[168.13618,-45.60502],[168.1322,-45.60073],[168.12815,-45.59571],[168.12776,-45.59486],[168.1274,-45.5927],[168.1227,-45.58516],[168.11466,-45.57904],[168.10938,-45.57364],[168.10809,-45.5728],[168.10392,-45.57127],[168.09705,-45.56774],[168.09378,-45.56652],[168.09052,-45.56588],[168.08379,-45.56354],[168.08234,-45.56329],[168.08109,-45.56343],[168.06952,-45.56661],[168.06749,-45.5668],[168.05852,-45.56505],[168.05226,-45.56248],[168.04644,-45.56079],[168.0259,-45.56048],[168.02091,-45.55967],[168.01886,-45.559],[168.01598,-45.5574],[168.01343,-45.55383],[168.01214,-45.55264],[168.01089,-45.55196],[168.00704,-45.55063],[168.00265,-45.54994],[167.99958,-45.54929],[167.99815,-45.54867],[167.9961,-45.54722],[167.9867,-45.54328],[167.97852,-45.54181],[167.96924,-45.53903],[167.96179,-45.53876],[167.95774,-45.5394],[167.94962,-45.54165],[167.94311,-45.54281],[167.93677,-45.54512],[167.93531,-45.54546],[167.89276,-45.54542],[167.88834,-45.54295],[167.8851,-45.54055],[167.88368,-45.53978],[167.87916,-45.53877],[167.87382,-45.53791],[167.86148,-45.53368],[167.85764,-45.53206],[167.85135,-45.53054],[167.84515,-45.5271],[167.84075,-45.52488],[167.8329,-45.52218],[167.8314,-45.52202],[167.8219,-45.5228],[167.81278,-45.52425],[167.81074,-45.52437],[167.80691,-45.52413],[167.80416,-45.52372],[167.80174,-45.52374],[167.79778,-45.52344],[167.7956,-45.52296],[167.79082,-45.52135],[167.78762,-45.51879],[167.78621,-45.5164],[167.78225,-45.51437],[167.78151,-45.51357],[167.78126,-45.51269],[167.7808,-45.5034],[167.78165,-45.50029],[167.78732,-45.49036],[167.78894,-45.4854],[167.78953,-45.48467],[167.7908,-45.48361],[167.79143,-45.48261],[167.79207,-45.47325],[167.79312,-45.46509],[167.79293,-45.46445],[167.79232,-45.46364],[167.78572,-45.45837],[167.78468,-45.45607],[167.78097,-45.44995],[167.78072,-45.4487],[167.78157,-45.44481],[167.78163,-45.44346],[167.78104,-45.44052],[167.78023,-45.43884],[167.77578,-45.43424],[167.76988,-45.43175],[167.76374,-45.43105],[167.7516,-45.42786],[167.74639,-45.42609],[167.74454,-45.42564],[167.74182,-45.42513],[167.73949,-45.42524],[167.73826,-45.4251],[167.73422,-45.42377],[167.72519,-45.42122],[167.72335,-45.42011],[167.72164,-45.41815],[167.71969,-45.41659],[167.71817,-45.41512],[167.71786,-45.41452],[167.71752,-45.4144]],"type":"LineString"}},{"type":"Feature","properties":{"name":"Te Anau, New Zealand → Franz Josef, New Zealand"},"geometry":{"coordinates":[[167.71752,-45.4144],[167.7181,-45.41446],[167.71833,-45.41517],[167.72164,-45.41815],[167.72335,-45.42011],[167.72519,-45.42122],[167.73422,-45.42377],[167.73826,-45.4251],[167.73949,-45.42524],[167.74182,-45.42513],[167.74454,-45.42564],[167.74639,-45.42609],[167.7516,-45.42786],[167.76374,-45.43105],[167.76988,-45.43175],[167.77578,-45.43424],[167.78023,-45.43884],[167.78104,-45.44052],[167.78163,-45.44346],[167.78157,-45.44481],[167.78072,-45.4487],[167.78097,-45.44995],[167.78468,-45.45607],[167.78572,-45.45837],[167.79232,-45.46364],[167.79293,-45.46445],[167.79312,-45.46509],[167.79207,-45.47325],[167.79143,-45.48261],[167.7908,-45.48361],[167.78953,-45.48467],[167.78894,-45.4854],[167.78732,-45.49036],[167.78165,-45.50029],[167.7808,-45.5034],[167.78126,-45.51269],[167.78151,-45.51357],[167.78225,-45.51437],[167.78621,-45.5164],[167.78762,-45.51879],[167.79082,-45.52135],[167.7956,-45.52296],[167.79778,-45.52344],[167.80174,-45.52374],[167.80416,-45.52372],[167.80691,-45.52413],[167.81074,-45.52437],[167.81278,-45.52425],[167.8219,-45.5228],[167.8314,-45.52202],[167.8329,-45.52218],[167.84075,-45.52488],[167.84515,-45.5271],[167.85135,-45.53054],[167.85764,-45.53206],[167.86148,-45.53368],[167.87382,-45.53791],[167.87916,-45.53877],[167.88368,-45.53978],[167.8851,-45.54055],[167.88834,-45.54295],[167.89276,-45.54542],[167.93531,-45.54546],[167.93677,-45.54512],[167.94311,-45.54281],[167.94962,-45.54165],[167.95774,-45.5394],[167.96179,-45.53876],[167.96924,-45.53903],[167.97852,-45.54181],[167.9867,-45.54328],[167.9961,-45.54722],[167.99815,-45.54867],[167.99958,-45.54929],[168.00265,-45.54994],[168.00704,-45.55063],[168.01089,-45.55196],[168.01214,-45.55264],[168.01343,-45.55383],[168.01598,-45.5574],[168.01886,-45.559],[168.02091,-45.55967],[168.0259,-45.56048],[168.04644,-45.56079],[168.05226,-45.56248],[168.05852,-45.56505],[168.06749,-45.5668],[168.06952,-45.56661],[168.08109,-45.56343],[168.08234,-45.56329],[168.08379,-45.56354],[168.09052,-45.56588],[168.09378,-45.56652],[168.09705,-45.56774],[168.10392,-45.57127],[168.10809,-45.5728],[168.10938,-45.57364],[168.11466,-45.57904],[168.1227,-45.58516],[168.1274,-45.5927],[168.12776,-45.59486],[168.12815,-45.59571],[168.1322,-45.60073],[168.13618,-45.60502],[168.13905,-45.60724],[168.14051,-45.60814],[168.15128,-45.61283],[168.15234,-45.61347],[168.15315,-45.61455],[168.15371,-45.61685],[168.15542,-45.61957],[168.1593,-45.6228],[168.1628,-45.62667],[168.1674,-45.63016],[168.17068,-45.63351],[168.17598,-45.63733],[168.18294,-45.64095],[168.18791,-45.6431],[168.18897,-45.64374],[168.19302,-45.64974],[168.19673,-45.65437],[168.20092,-45.65828],[168.206,-45.66054],[168.2082,-45.66103],[168.21291,-45.6612],[168.21426,-45.6607],[168.21534,-45.65963],[168.21595,-45.65932],[168.21701,-45.65924],[168.21905,-45.65946],[168.21985,-45.6599],[168.22351,-45.6631],[168.2252,-45.66419],[168.24107,-45.67057],[168.24274,-45.66784],[168.25091,-45.65696],[168.25182,-45.65609],[168.25279,-45.65565],[168.2539,-45.65545],[168.25506,-45.65552],[168.26158,-45.65682],[168.26316,-45.65686],[168.26431,-45.65672],[168.31855,-45.64299],[168.33355,-45.63902],[168.34198,-45.63744],[168.3434,-45.63676],[168.35372,-45.62802],[168.35473,-45.62744],[168.38681,-45.62244],[168.38943,-45.62188],[168.3921,-45.62123],[168.42231,-45.61208],[168.42829,-45.61209],[168.43141,-45.61184],[168.433,-45.61209],[168.43404,-45.61261],[168.43473,-45.61331],[168.4351,-45.61427],[168.43522,-45.6164],[168.43551,-45.6169],[168.43609,-45.6173],[168.45865,-45.62357],[168.47989,-45.58946],[168.48811,-45.58071],[168.49093,-45.57699],[168.49178,-45.57617],[168.49344,-45.57534],[168.50128,-45.57311],[168.50263,-45.57242],[168.50363,-45.57144],[168.50546,-45.56697],[168.50481,-45.5611],[168.50554,-45.55791],[168.50668,-45.55632],[168.51283,-45.55055],[168.51394,-45.54981],[168.52273,-45.54715],[168.52388,-45.54645],[168.52554,-45.54473],[168.52634,-45.5443],[168.52754,-45.54409],[168.53128,-45.54425],[168.53338,-45.54375],[168.54663,-45.53628],[168.54818,-45.53514],[168.54893,-45.53371],[168.55476,-45.5104],[168.55564,-45.50934],[168.55678,-45.50892],[168.56144,-45.5084],[168.56602,-45.50855],[168.58323,-45.5113],[168.58674,-45.51237],[168.58824,-45.51265],[168.59054,-45.51271],[168.59511,-45.51201],[168.59737,-45.51206],[168.59906,-45.51249],[168.60267,-45.51417],[168.60575,-45.5153],[168.61092,-45.51603],[168.61937,-45.51787],[168.62174,-45.51791],[168.62374,-45.5173],[168.64981,-45.50318],[168.6534,-45.50058],[168.66373,-45.49481],[168.66509,-45.49337],[168.67902,-45.47401],[168.68272,-45.46929],[168.6832,-45.46844],[168.68411,-45.46518],[168.68509,-45.46438],[168.68818,-45.46331],[168.68993,-45.4624],[168.69145,-45.46119],[168.69282,-45.45948],[168.69324,-45.45716],[168.69463,-45.45213],[168.70257,-45.43573],[168.70264,-45.435],[168.70196,-45.43245],[168.70324,-45.42913],[168.7029,-45.4283],[168.70092,-45.42576],[168.70027,-45.42521],[168.69599,-45.42352],[168.69088,-45.42106],[168.68868,-45.42051],[168.68527,-45.42014],[168.67713,-45.42052],[168.67613,-45.4203],[168.67523,-45.41977],[168.67481,-45.41913],[168.67275,-45.41368],[168.66996,-45.39727],[168.6702,-45.39579],[168.67097,-45.39467],[168.71544,-45.34664],[168.71797,-45.34289],[168.72588,-45.3372],[168.72915,-45.33327],[168.73031,-45.33238],[168.73157,-45.33173],[168.73446,-45.33087],[168.73738,-45.33072],[168.73832,-45.33048],[168.7401,-45.32898],[168.74193,-45.32813],[168.74261,-45.32758],[168.74386,-45.32541],[168.74456,-45.32296],[168.74708,-45.3193],[168.74809,-45.31847],[168.75115,-45.31681],[168.75214,-45.31582],[168.75534,-45.30974],[168.75561,-45.30733],[168.75729,-45.30398],[168.75906,-45.2982],[168.75939,-45.29576],[168.75999,-45.29504],[168.76258,-45.29317],[168.76362,-45.29032],[168.76527,-45.28683],[168.76504,-45.28562],[168.76359,-45.28268],[168.76276,-45.27925],[168.76156,-45.27664],[168.76118,-45.27448],[168.75981,-45.27092],[168.75979,-45.27015],[168.76047,-45.26712],[168.76045,-45.26623],[168.76015,-45.2656],[168.75959,-45.26495],[168.75853,-45.2643],[168.75803,-45.26366],[168.75788,-45.26147],[168.75736,-45.26102],[168.75573,-45.26028],[168.75328,-45.2571],[168.74991,-45.24913],[168.74846,-45.24793],[168.74788,-45.24766],[168.74464,-45.24723],[168.74428,-45.24648],[168.74371,-45.24625],[168.74291,-45.24554],[168.74259,-45.24297],[168.7431,-45.24147],[168.74308,-45.24008],[168.74248,-45.23787],[168.74174,-45.23688],[168.74187,-45.23461],[168.74114,-45.23312],[168.74116,-45.23119],[168.74004,-45.22974],[168.73969,-45.22883],[168.73967,-45.22806],[168.73919,-45.22709],[168.73983,-45.22592],[168.73989,-45.22501],[168.74149,-45.22224],[168.74174,-45.22138],[168.74168,-45.22018],[168.74113,-45.21811],[168.74151,-45.21655],[168.74264,-45.21532],[168.74275,-45.21209],[168.74322,-45.21074],[168.74265,-45.20939],[168.74224,-45.20593],[168.74217,-45.20351],[168.7429,-45.20122],[168.74253,-45.19827],[168.7419,-45.19556],[168.74199,-45.19472],[168.74269,-45.19246],[168.74434,-45.18854],[168.74567,-45.18612],[168.74651,-45.18304],[168.74717,-45.18147],[168.74731,-45.18043],[168.74846,-45.17817],[168.74928,-45.17496],[168.74901,-45.17277],[168.75005,-45.17128],[168.75112,-45.1692],[168.75125,-45.16697],[168.75082,-45.16483],[168.75132,-45.15905],[168.75202,-45.15766],[168.75216,-45.15668],[168.75327,-45.15398],[168.75478,-45.15142],[168.7569,-45.14655],[168.75772,-45.14376],[168.75764,-45.14236],[168.75784,-45.14151],[168.75839,-45.14074],[168.7593,-45.13998],[168.76048,-45.13963],[168.76064,-45.13943],[168.7592,-45.13744],[168.75926,-45.1337],[168.75782,-45.1308],[168.75767,-45.129],[168.75785,-45.1274],[168.75915,-45.12482],[168.75974,-45.12209],[168.76073,-45.12071],[168.7612,-45.11939],[168.76224,-45.11812],[168.7626,-45.11653],[168.7623,-45.11317],[168.76245,-45.11245],[168.76179,-45.11135],[168.76195,-45.10983],[168.76064,-45.10855],[168.76004,-45.10685],[168.75679,-45.10389],[168.75555,-45.09774],[168.75538,-45.09135],[168.76021,-45.07293],[168.76042,-45.07108],[168.75979,-45.06902],[168.75462,-45.05955],[168.75431,-45.05861],[168.75388,-45.05311],[168.75349,-45.05231],[168.75375,-45.05143],[168.75261,-45.03832],[168.75208,-45.03791],[168.75137,-45.03778],[168.7452,-45.03881],[168.74434,-45.03873],[168.7439,-45.03837],[168.74185,-45.03497],[168.73992,-45.03261],[168.73705,-45.03103],[168.73467,-45.03051],[168.73373,-45.02998],[168.73335,-45.02903],[168.73398,-45.02731],[168.73422,-45.02206],[168.73397,-45.02161],[168.73397,-45.02101],[168.73139,-45.01566],[168.73249,-45.01559],[168.73367,-45.01525],[168.74034,-45.01203],[168.74121,-45.01176],[168.74475,-45.00922],[168.745,-45.00875],[168.74555,-45.00857],[168.74798,-45.00701],[168.75357,-45.00314],[168.75661,-45.00171],[168.75831,-45.00127],[168.76003,-45.00104],[168.76824,-45.00093],[168.76981,-45.00078],[168.79669,-44.99404],[168.7983,-44.99416],[168.80094,-44.9954],[168.8037,-44.99542],[168.80472,-44.99488],[168.80803,-44.99141],[168.81938,-44.98528],[168.82356,-44.9808],[168.82438,-44.98026],[168.82601,-44.97964],[168.8278,-44.97926],[168.83291,-44.97915],[168.8342,-44.97976],[168.83589,-44.98161],[168.83669,-44.98192],[168.83773,-44.982],[168.83856,-44.98183],[168.8468,-44.97882],[168.84956,-44.97736],[168.85067,-44.9772],[168.85273,-44.97754],[168.85363,-44.97802],[168.85397,-44.97853],[168.8549,-44.98172],[168.85519,-44.98181],[168.85721,-44.97919],[168.8587,-44.97823],[168.85943,-44.97753],[168.85984,-44.9768],[168.86045,-44.97624],[168.86057,-44.97527],[168.86099,-44.97655],[168.86054,-44.97756],[168.86081,-44.9776],[168.86157,-44.97651],[168.86201,-44.97498],[168.86201,-44.97416],[168.86282,-44.97579],[168.8627,-44.97715],[168.86291,-44.97715],[168.86304,-44.9767],[168.86367,-44.97604],[168.86332,-44.977],[168.86351,-44.97707],[168.86446,-44.97521],[168.86429,-44.97358],[168.86456,-44.97323],[168.86478,-44.97331],[168.86504,-44.9748],[168.86541,-44.97538],[168.86844,-44.97572],[168.87019,-44.97657],[168.8717,-44.97776],[168.87237,-44.97798],[168.87354,-44.97791],[168.8759,-44.97712],[168.87737,-44.97639],[168.87938,-44.97596],[168.8837,-44.97381],[168.8847,-44.97362],[168.8856,-44.97384],[168.89227,-44.97679],[168.89773,-44.97868],[168.89856,-44.97935],[168.89963,-44.98168],[168.90079,-44.98248],[168.90203,-44.98439],[168.9032,-44.98533],[168.90296,-44.98682],[168.90479,-44.98788],[168.90449,-44.98858],[168.90466,-44.98913],[168.90438,-44.98964],[168.90517,-44.99102],[168.90591,-44.9916],[168.90729,-44.9915],[168.90842,-44.99172],[168.90921,-44.99168],[168.90931,-44.99272],[168.90962,-44.99294],[168.91106,-44.99275],[168.91225,-44.99305],[168.91388,-44.99279],[168.91539,-44.9929],[168.91654,-44.99239],[168.9181,-44.99207],[168.91839,-44.9925],[168.91774,-44.99426],[168.91813,-44.99467],[168.92002,-44.9948],[168.92021,-44.99532],[168.92057,-44.99558],[168.92222,-44.99575],[168.92457,-44.99555],[168.92566,-44.99586],[168.92758,-44.99555],[168.93028,-44.99396],[168.93146,-44.99351],[168.93228,-44.99335],[168.93352,-44.99336],[168.93525,-44.99299],[168.93722,-44.99177],[168.93772,-44.99176],[168.93858,-44.99204],[168.93913,-44.99192],[168.93973,-44.99125],[168.94002,-44.99046],[168.94007,-44.98908],[168.94115,-44.98655],[168.94116,-44.98496],[168.94182,-44.98433],[168.94217,-44.98356],[168.94244,-44.98053],[168.94381,-44.97985],[168.94475,-44.97916],[168.94489,-44.97883],[168.94474,-44.97789],[168.94585,-44.97654],[168.94956,-44.97448],[168.95065,-44.97402],[168.95181,-44.97385],[168.95304,-44.97322],[168.95366,-44.97222],[168.95748,-44.96882],[168.95884,-44.96614],[168.95914,-44.96498],[168.95896,-44.96342],[168.95835,-44.96175],[168.95732,-44.96057],[168.95728,-44.95969],[168.95757,-44.95868],[168.95692,-44.95695],[168.95705,-44.95599],[168.9567,-44.95443],[168.95778,-44.95305],[168.95979,-44.9515],[168.95986,-44.95065],[168.96027,-44.94996],[168.96024,-44.94892],[168.96058,-44.94754],[168.96152,-44.94569],[168.96274,-44.94421],[168.96337,-44.94244],[168.96489,-44.94095],[168.96597,-44.94053],[168.96767,-44.9394],[168.96871,-44.93762],[168.96921,-44.93624],[168.96955,-44.93366],[168.96995,-44.93285],[168.97017,-44.93013],[168.97073,-44.92877],[168.97146,-44.92773],[168.97179,-44.92653],[168.97174,-44.92603],[168.97102,-44.92464],[168.9713,-44.92238],[168.9723,-44.91976],[168.97352,-44.9179],[168.97347,-44.91746],[168.97281,-44.91637],[168.97317,-44.91537],[168.97356,-44.91496],[168.97487,-44.91433],[168.97574,-44.91362],[168.97633,-44.91184],[168.9779,-44.91074],[168.97852,-44.90946],[168.98008,-44.90886],[168.98059,-44.90845],[168.9814,-44.90724],[168.98164,-44.90624],[168.98337,-44.90484],[168.98449,-44.90317],[168.98505,-44.9018],[168.98633,-44.90045],[168.98765,-44.89953],[168.98902,-44.8958],[168.99095,-44.89412],[168.99239,-44.89338],[168.99375,-44.89242],[168.99563,-44.89193],[168.99849,-44.88949],[168.99902,-44.8883],[169.00146,-44.88572],[169.00338,-44.88299],[169.00452,-44.87916],[169.00548,-44.87744],[169.00598,-44.87696],[169.00828,-44.87573],[169.01466,-44.87089],[169.01605,-44.86802],[169.0171,-44.8668],[169.01753,-44.86456],[169.01806,-44.86379],[169.02345,-44.85945],[169.02857,-44.85693],[169.03173,-44.85562],[169.03523,-44.85291],[169.03732,-44.85194],[169.03919,-44.85076],[169.0418,-44.84947],[169.04788,-44.84377],[169.05113,-44.83998],[169.05225,-44.83897],[169.05343,-44.83737],[169.05562,-44.83553],[169.05982,-44.83072],[169.06018,-44.82987],[169.06004,-44.8281],[169.06019,-44.8269],[169.06111,-44.82421],[169.06186,-44.8228],[169.06256,-44.82037],[169.06287,-44.81804],[169.06621,-44.81123],[169.06804,-44.80844],[169.06983,-44.80325],[169.07146,-44.80023],[169.07275,-44.79723],[169.07472,-44.79516],[169.07946,-44.78921],[169.08184,-44.78721],[169.08438,-44.78414],[169.0857,-44.78156],[169.08924,-44.77714],[169.09164,-44.77375],[169.0922,-44.7723],[169.09348,-44.77056],[169.09412,-44.76837],[169.09504,-44.76659],[169.09978,-44.75974],[169.10054,-44.7592],[169.10329,-44.75814],[169.10686,-44.75581],[169.11443,-44.75235],[169.11659,-44.75103],[169.11824,-44.75048],[169.12449,-44.74697],[169.12739,-44.74619],[169.12822,-44.74571],[169.13004,-44.74371],[169.13048,-44.74166],[169.13227,-44.73834],[169.13599,-44.73434],[169.13645,-44.73424],[169.14432,-44.72516],[169.1525,-44.7174],[169.1543,-44.7143],[169.15539,-44.71207],[169.1553,-44.71193],[169.15644,-44.71051],[169.16559,-44.70372],[169.17069,-44.69683],[169.17069,-44.6962],[169.17152,-44.69583],[169.17256,-44.6944],[169.17732,-44.69014],[169.18335,-44.68543],[169.18895,-44.68388],[169.18977,-44.68351],[169.19076,-44.67991],[169.19646,-44.66896],[169.19671,-44.66649],[169.19721,-44.66559],[169.19958,-44.66408],[169.2016,-44.66305],[169.20717,-44.66264],[169.2098,-44.66197],[169.2111,-44.66125],[169.22249,-44.64984],[169.22456,-44.64797],[169.2256,-44.64661],[169.22663,-44.64439],[169.22747,-44.64126],[169.23088,-44.639],[169.23135,-44.63819],[169.23158,-44.63638],[169.2319,-44.63572],[169.23513,-44.63418],[169.23573,-44.6336],[169.23613,-44.63226],[169.2367,-44.63123],[169.24777,-44.61292],[169.24762,-44.60864],[169.24704,-44.60782],[169.24526,-44.60691],[169.24502,-44.60662],[169.24387,-44.60404],[169.24381,-44.60292],[169.24433,-44.60195],[169.2469,-44.59889],[169.24945,-44.59526],[169.25049,-44.59294],[169.25004,-44.59155],[169.24616,-44.58611],[169.24607,-44.58211],[169.2451,-44.57971],[169.24448,-44.57587],[169.24389,-44.5749],[169.24199,-44.57346],[169.24129,-44.57244],[169.24018,-44.56301],[169.23825,-44.55949],[169.23805,-44.55861],[169.23899,-44.55593],[169.23902,-44.55261],[169.23953,-44.5481],[169.24337,-44.5432],[169.24393,-44.53974],[169.24513,-44.53626],[169.24497,-44.53478],[169.24511,-44.53425],[169.24843,-44.52923],[169.25054,-44.52249],[169.25043,-44.52164],[169.24766,-44.51594],[169.24728,-44.51436],[169.24699,-44.51144],[169.24715,-44.50734],[169.24836,-44.50212],[169.24843,-44.50085],[169.24816,-44.49903],[169.24644,-44.4943],[169.24616,-44.49278],[169.24646,-44.492],[169.24873,-44.48981],[169.24908,-44.48896],[169.24916,-44.48781],[169.24907,-44.48685],[169.24791,-44.48502],[169.24756,-44.48402],[169.24768,-44.48301],[169.24888,-44.48061],[169.24901,-44.47934],[169.24874,-44.47786],[169.24768,-44.4757],[169.24733,-44.4743],[169.24745,-44.47294],[169.24689,-44.47159],[169.24756,-44.46831],[169.24746,-44.46668],[169.24667,-44.46495],[169.24408,-44.46166],[169.24003,-44.45742],[169.23306,-44.45504],[169.23147,-44.4541],[169.22963,-44.45389],[169.22888,-44.45342],[169.22806,-44.45317],[169.22689,-44.45203],[169.22552,-44.45153],[169.22232,-44.45122],[169.21999,-44.45131],[169.21428,-44.44895],[169.21236,-44.44859],[169.21028,-44.44852],[169.20806,-44.44809],[169.20652,-44.44669],[169.20492,-44.44595],[169.20365,-44.44503],[169.20022,-44.44365],[169.19934,-44.44313],[169.19838,-44.44204],[169.19603,-44.44],[169.19551,-44.43842],[169.19485,-44.43773],[169.19081,-44.43615],[169.18833,-44.43436],[169.18731,-44.43382],[169.18449,-44.43298],[169.18397,-44.43258],[169.18309,-44.43134],[169.18281,-44.43011],[169.18345,-44.42756],[169.18381,-44.42354],[169.18329,-44.42043],[169.18363,-44.41884],[169.18429,-44.41758],[169.18498,-44.41429],[169.18553,-44.4131],[169.18566,-44.40828],[169.1868,-44.40469],[169.18655,-44.40331],[169.18685,-44.40263],[169.18676,-44.40164],[169.18705,-44.40039],[169.18774,-44.39885],[169.18794,-44.39731],[169.18743,-44.39368],[169.18661,-44.39204],[169.18625,-44.39],[169.18682,-44.38524],[169.18676,-44.38461],[169.18634,-44.38377],[169.18629,-44.38116],[169.18524,-44.3781],[169.18418,-44.37679],[169.18341,-44.37509],[169.18346,-44.37356],[169.18326,-44.37269],[169.18155,-44.37138],[169.17956,-44.3681],[169.17943,-44.3674],[169.17965,-44.36552],[169.17895,-44.36369],[169.17877,-44.36145],[169.17843,-44.3606],[169.17778,-44.36024],[169.17755,-44.35962],[169.17701,-44.35935],[169.17609,-44.35814],[169.17473,-44.35751],[169.17332,-44.35651],[169.17195,-44.35598],[169.16984,-44.35432],[169.1697,-44.35372],[169.17059,-44.34977],[169.17232,-44.34538],[169.17417,-44.34362],[169.17437,-44.34193],[169.17541,-44.34071],[169.17582,-44.33959],[169.17738,-44.33765],[169.17796,-44.33732],[169.17912,-44.33701],[169.18014,-44.33607],[169.18085,-44.33408],[169.18155,-44.33334],[169.18167,-44.33245],[169.18232,-44.33168],[169.18237,-44.33071],[169.18384,-44.32874],[169.18447,-44.32819],[169.18519,-44.32593],[169.18704,-44.324],[169.18785,-44.3222],[169.18961,-44.31595],[169.19076,-44.31446],[169.1914,-44.31291],[169.19329,-44.31056],[169.19728,-44.30665],[169.1977,-44.30602],[169.19773,-44.30542],[169.19574,-44.29888],[169.19569,-44.29799],[169.19643,-44.29555],[169.20204,-44.28583],[169.2024,-44.28477],[169.20235,-44.28399],[169.20138,-44.2811],[169.20152,-44.27444],[169.20043,-44.27127],[169.20063,-44.26965],[169.20378,-44.26459],[169.20745,-44.25945],[169.2126,-44.25541],[169.2182,-44.25208],[169.22296,-44.24513],[169.22781,-44.24009],[169.23266,-44.22832],[169.23424,-44.22604],[169.23581,-44.22315],[169.2459,-44.20987],[169.24733,-44.20806],[169.24892,-44.2065],[169.25261,-44.201],[169.25284,-44.20016],[169.25321,-44.19402],[169.2535,-44.19319],[169.25455,-44.19233],[169.25924,-44.18966],[169.26638,-44.1828],[169.26781,-44.18185],[169.26823,-44.18135],[169.26997,-44.17867],[169.27037,-44.17724],[169.27038,-44.17472],[169.27372,-44.16821],[169.27527,-44.16594],[169.27657,-44.16439],[169.27807,-44.16304],[169.28017,-44.16172],[169.2816,-44.16121],[169.28993,-44.16074],[169.29155,-44.16034],[169.29892,-44.15693],[169.30047,-44.15607],[169.30121,-44.15549],[169.30278,-44.15325],[169.30407,-44.15203],[169.30844,-44.14956],[169.31127,-44.14904],[169.31392,-44.14915],[169.31559,-44.14854],[169.31774,-44.14831],[169.31839,-44.14803],[169.32084,-44.14572],[169.32594,-44.14156],[169.32662,-44.14119],[169.32872,-44.14065],[169.32928,-44.13893],[169.3338,-44.13584],[169.33512,-44.13398],[169.33725,-44.13152],[169.33855,-44.12903],[169.33902,-44.12665],[169.33897,-44.12454],[169.33982,-44.12331],[169.34131,-44.12199],[169.34238,-44.1204],[169.34207,-44.11836],[169.34233,-44.11796],[169.34414,-44.1168],[169.34446,-44.11506],[169.34668,-44.11312],[169.34968,-44.11161],[169.35535,-44.10679],[169.35861,-44.10044],[169.36078,-44.09891],[169.36366,-44.0955],[169.36549,-44.094],[169.36631,-44.09204],[169.36867,-44.08876],[169.3702,-44.08529],[169.37169,-44.08366],[169.3729,-44.08195],[169.37364,-44.08146],[169.37703,-44.07996],[169.3801,-44.0797],[169.38184,-44.0792],[169.38418,-44.07775],[169.38552,-44.07728],[169.38638,-44.07657],[169.38672,-44.07521],[169.38738,-44.07437],[169.38769,-44.07328],[169.38778,-44.07133],[169.38675,-44.06999],[169.38609,-44.06818],[169.38413,-44.0664],[169.38401,-44.06391],[169.38188,-44.05977],[169.38046,-44.05882],[169.38081,-44.058],[169.38089,-44.05659],[169.37986,-44.05305],[169.38152,-44.04938],[169.38488,-44.04692],[169.38554,-44.04612],[169.38558,-44.04562],[169.38514,-44.04516],[169.38388,-44.04441],[169.38339,-44.04357],[169.38249,-44.04283],[169.38223,-44.04202],[169.38099,-44.04061],[169.3799,-44.04004],[169.37975,-44.03929],[169.3775,-44.03921],[169.37665,-44.03855],[169.37205,-44.03764],[169.37082,-44.03698],[169.3688,-44.03694],[169.3674,-44.03734],[169.36531,-44.03677],[169.36488,-44.03635],[169.36398,-44.03449],[169.36231,-44.0334],[169.36191,-44.03291],[169.36184,-44.0321],[169.36232,-44.03061],[169.36659,-44.0231],[169.36726,-44.02235],[169.36817,-44.02191],[169.37558,-44.01979],[169.3775,-44.01898],[169.37852,-44.01876],[169.37896,-44.01834],[169.37988,-44.01649],[169.38115,-44.01544],[169.38509,-44.01381],[169.38502,-44.01322],[169.38139,-44.01105],[169.38112,-44.01022],[169.38139,-44.00968],[169.38759,-44.00501],[169.3895,-44.00397],[169.39168,-44.00286],[169.39595,-44.00195],[169.39733,-44.00141],[169.40307,-43.99569],[169.40524,-43.99296],[169.40905,-43.99008],[169.41203,-43.98851],[169.41332,-43.98705],[169.41517,-43.98562],[169.41609,-43.98455],[169.41715,-43.98248],[169.41895,-43.98062],[169.42002,-43.97849],[169.42129,-43.97764],[169.42354,-43.97665],[169.424,-43.97629],[169.42435,-43.97554],[169.42414,-43.97507],[169.42212,-43.97378],[169.42152,-43.97285],[169.4193,-43.97241],[169.41862,-43.97211],[169.41777,-43.97128],[169.41524,-43.97063],[169.41339,-43.97052],[169.4108,-43.9708],[169.4093,-43.97055],[169.40698,-43.9706],[169.40227,-43.96975],[169.39962,-43.96974],[169.39862,-43.96994],[169.39601,-43.97105],[169.39412,-43.97122],[169.38944,-43.97237],[169.38745,-43.97252],[169.38597,-43.9723],[169.38324,-43.9711],[169.37844,-43.96854],[169.37423,-43.96618],[169.3731,-43.96534],[169.37087,-43.96232],[169.36841,-43.95838],[169.36713,-43.95697],[169.36368,-43.95569],[169.35936,-43.95377],[169.35618,-43.95284],[169.35522,-43.95283],[169.35344,-43.9535],[169.34955,-43.95343],[169.34348,-43.95411],[169.34072,-43.95358],[169.33972,-43.95356],[169.33472,-43.95438],[169.33161,-43.95457],[169.32933,-43.95564],[169.32672,-43.9563],[169.31856,-43.95623],[169.31659,-43.95599],[169.31483,-43.95547],[169.3136,-43.95486],[169.30601,-43.94867],[169.30391,-43.94789],[169.30275,-43.94721],[169.29822,-43.94267],[169.29716,-43.94198],[169.28968,-43.94009],[169.27986,-43.93879],[169.27828,-43.93902],[169.27681,-43.93978],[169.2759,-43.94004],[169.27321,-43.94004],[169.27114,-43.94026],[169.26703,-43.94234],[169.26235,-43.94371],[169.25204,-43.94875],[169.24819,-43.95176],[169.24622,-43.95281],[169.24542,-43.95343],[169.24322,-43.95616],[169.24201,-43.95938],[169.24124,-43.96028],[169.24015,-43.96077],[169.23759,-43.96113],[169.23672,-43.96158],[169.23368,-43.96516],[169.22854,-43.96956],[169.22373,-43.97101],[169.2204,-43.97228],[169.21885,-43.97221],[169.2139,-43.97093],[169.21149,-43.9714],[169.2107,-43.97138],[169.20726,-43.96984],[169.20433,-43.96957],[169.20033,-43.96964],[169.19175,-43.9694],[169.18922,-43.96999],[169.18814,-43.97008],[169.18054,-43.96958],[169.17344,-43.96765],[169.1723,-43.96754],[169.17019,-43.96782],[169.16921,-43.96779],[169.16649,-43.96735],[169.1646,-43.9668],[169.16055,-43.96409],[169.15396,-43.95919],[169.15176,-43.95814],[169.15092,-43.95736],[169.1503,-43.95611],[169.1493,-43.95288],[169.14716,-43.95128],[169.14603,-43.94997],[169.14615,-43.94807],[169.14595,-43.94696],[169.14679,-43.94648],[169.14826,-43.94445],[169.149,-43.94396],[169.1491,-43.94365],[169.14891,-43.94342],[169.14795,-43.94313],[169.14541,-43.94297],[169.14486,-43.9428],[169.14315,-43.94115],[169.13726,-43.93824],[169.13171,-43.93693],[169.12267,-43.93569],[169.11161,-43.93247],[169.10987,-43.93152],[169.10875,-43.93035],[169.10559,-43.92889],[169.10323,-43.92671],[169.10037,-43.92603],[169.0918,-43.92623],[169.08819,-43.92492],[169.07539,-43.91531],[169.07177,-43.91221],[169.06907,-43.91064],[169.06843,-43.90995],[169.06766,-43.90836],[169.06507,-43.90518],[169.05421,-43.89641],[169.04836,-43.89111],[169.04819,-43.89014],[169.04901,-43.88868],[169.04903,-43.88771],[169.04651,-43.88143],[169.04353,-43.87884],[169.04167,-43.87322],[169.04184,-43.87244],[169.04413,-43.86944],[169.04465,-43.86838],[169.04605,-43.86715],[169.04735,-43.86545],[169.04655,-43.86098],[169.04614,-43.86039],[169.04478,-43.85931],[169.04458,-43.85828],[169.04483,-43.85779],[169.04574,-43.85718],[169.05643,-43.85367],[169.05758,-43.85294],[169.05849,-43.85188],[169.0589,-43.85046],[169.05858,-43.83774],[169.05928,-43.83609],[169.06347,-43.83059],[169.0637,-43.82972],[169.06391,-43.82456],[169.06483,-43.82278],[169.06634,-43.82141],[169.08441,-43.8107],[169.09488,-43.80567],[169.09622,-43.80481],[169.09805,-43.80314],[169.09942,-43.80218],[169.101,-43.80152],[169.10389,-43.80068],[169.11004,-43.79587],[169.11352,-43.79271],[169.11458,-43.79195],[169.11654,-43.79117],[169.12336,-43.79004],[169.12481,-43.78933],[169.12554,-43.78797],[169.12499,-43.7854],[169.12521,-43.78416],[169.1258,-43.78318],[169.12734,-43.78168],[169.13049,-43.77805],[169.1336,-43.7756],[169.13796,-43.77039],[169.14089,-43.76774],[169.14299,-43.765],[169.14411,-43.76405],[169.14699,-43.76212],[169.14754,-43.76133],[169.14809,-43.7595],[169.14848,-43.75892],[169.15317,-43.75543],[169.15445,-43.75485],[169.15674,-43.75428],[169.1592,-43.7531],[169.16358,-43.75171],[169.16654,-43.7511],[169.16742,-43.7507],[169.16981,-43.74856],[169.1723,-43.74742],[169.17481,-43.74568],[169.17685,-43.74272],[169.17789,-43.74063],[169.17838,-43.74013],[169.18023,-43.73932],[169.18335,-43.73749],[169.18617,-43.7368],[169.18825,-43.73503],[169.18961,-43.7344],[169.19035,-43.73378],[169.19146,-43.73338],[169.19251,-43.73248],[169.19312,-43.73237],[169.1941,-43.73255],[169.19627,-43.73355],[169.19696,-43.73338],[169.19823,-43.73241],[169.19932,-43.73224],[169.20061,-43.73174],[169.20158,-43.73178],[169.20319,-43.73261],[169.20386,-43.73259],[169.20402,-43.73211],[169.20302,-43.73098],[169.20318,-43.72999],[169.20271,-43.72887],[169.20277,-43.72833],[169.2035,-43.72784],[169.20635,-43.72764],[169.20697,-43.72737],[169.20702,-43.72686],[169.20614,-43.72581],[169.20703,-43.72523],[169.20717,-43.72477],[169.20804,-43.7243],[169.20824,-43.72321],[169.20942,-43.72175],[169.21021,-43.72148],[169.21161,-43.72175],[169.2129,-43.7214],[169.2136,-43.72149],[169.21534,-43.72233],[169.21513,-43.72329],[169.21607,-43.72379],[169.21661,-43.72469],[169.21716,-43.72488],[169.21776,-43.72479],[169.21814,-43.72443],[169.21849,-43.72258],[169.21788,-43.72107],[169.21808,-43.7205],[169.22022,-43.71948],[169.22477,-43.71667],[169.22548,-43.7161],[169.22629,-43.7143],[169.22891,-43.71318],[169.22936,-43.71328],[169.2295,-43.7136],[169.2289,-43.71462],[169.22879,-43.7163],[169.23002,-43.71763],[169.23165,-43.72046],[169.23254,-43.72105],[169.23475,-43.72176],[169.23658,-43.72321],[169.23817,-43.72421],[169.23898,-43.72438],[169.24096,-43.72431],[169.24197,-43.72466],[169.24309,-43.72643],[169.24399,-43.72743],[169.24391,-43.72862],[169.24409,-43.72903],[169.2447,-43.72936],[169.24657,-43.72981],[169.2474,-43.72974],[169.24801,-43.72935],[169.25006,-43.72701],[169.25176,-43.72463],[169.26406,-43.71805],[169.2655,-43.71755],[169.268,-43.71727],[169.26925,-43.7173],[169.2701,-43.71758],[169.27298,-43.71906],[169.27546,-43.72066],[169.2774,-43.72248],[169.27889,-43.72355],[169.28421,-43.72647],[169.28819,-43.72807],[169.29066,-43.72882],[169.29432,-43.72933],[169.29896,-43.73099],[169.30323,-43.73313],[169.31298,-43.74375],[169.31596,-43.74613],[169.31942,-43.75191],[169.32255,-43.75414],[169.32335,-43.75495],[169.32772,-43.76334],[169.33072,-43.76584],[169.33193,-43.76643],[169.33333,-43.76679],[169.33456,-43.76687],[169.33718,-43.76673],[169.33833,-43.76693],[169.33928,-43.76774],[169.33936,-43.76907],[169.3397,-43.76945],[169.34114,-43.77014],[169.34428,-43.7708],[169.34551,-43.77096],[169.34898,-43.77104],[169.35503,-43.77216],[169.35748,-43.77212],[169.3604,-43.77169],[169.36118,-43.77123],[169.36585,-43.76709],[169.36848,-43.76561],[169.36988,-43.76522],[169.37361,-43.76512],[169.37463,-43.76472],[169.3859,-43.75139],[169.38666,-43.75096],[169.39454,-43.7479],[169.39783,-43.74565],[169.3983,-43.74466],[169.39797,-43.74142],[169.39823,-43.74045],[169.40205,-43.73569],[169.40409,-43.73455],[169.40463,-43.73406],[169.40894,-43.72634],[169.41254,-43.72253],[169.41335,-43.7219],[169.41424,-43.72165],[169.41898,-43.7212],[169.42025,-43.72066],[169.42199,-43.71818],[169.42292,-43.71568],[169.42469,-43.71278],[169.42541,-43.71003],[169.42605,-43.70936],[169.42697,-43.70915],[169.43192,-43.70906],[169.43296,-43.7086],[169.43658,-43.70639],[169.43795,-43.70608],[169.4483,-43.70704],[169.45027,-43.70756],[169.45445,-43.70912],[169.45644,-43.70956],[169.45811,-43.70934],[169.46727,-43.70701],[169.46884,-43.70687],[169.48171,-43.7092],[169.49402,-43.71215],[169.49574,-43.71225],[169.49741,-43.71193],[169.49845,-43.71145],[169.49953,-43.71066],[169.51027,-43.70122],[169.51133,-43.70046],[169.54158,-43.68504],[169.55461,-43.67385],[169.58353,-43.65865],[169.58454,-43.65763],[169.58484,-43.65623],[169.58206,-43.64299],[169.58226,-43.64229],[169.58286,-43.64151],[169.58741,-43.63852],[169.58819,-43.63766],[169.5885,-43.63681],[169.59145,-43.61833],[169.59129,-43.61369],[169.58919,-43.60887],[169.59083,-43.60309],[169.59305,-43.60101],[169.59398,-43.59972],[169.59492,-43.59909],[169.59813,-43.59814],[169.60845,-43.5927],[169.60976,-43.59236],[169.61267,-43.59221],[169.61432,-43.59163],[169.61685,-43.58984],[169.62666,-43.5811],[169.62785,-43.58039],[169.62912,-43.58001],[169.63082,-43.57992],[169.63832,-43.58074],[169.64148,-43.57987],[169.65025,-43.5795],[169.65341,-43.57838],[169.65576,-43.57778],[169.65696,-43.57766],[169.65818,-43.57783],[169.65916,-43.57822],[169.66552,-43.58176],[169.66699,-43.58206],[169.66846,-43.58183],[169.67774,-43.5757],[169.67869,-43.57358],[169.67985,-43.57207],[169.67984,-43.57138],[169.67912,-43.5691],[169.68016,-43.56572],[169.68085,-43.56496],[169.68361,-43.56305],[169.6861,-43.56186],[169.68702,-43.56163],[169.68964,-43.56224],[169.696,-43.56323],[169.70497,-43.56325],[169.72056,-43.5638],[169.74225,-43.56108],[169.74346,-43.5611],[169.74792,-43.56178],[169.75261,-43.56185],[169.76146,-43.56404],[169.76557,-43.56487],[169.76815,-43.56513],[169.77441,-43.56524],[169.77586,-43.56546],[169.79338,-43.57064],[169.79483,-43.5713],[169.80177,-43.57531],[169.80317,-43.57566],[169.80458,-43.57551],[169.80784,-43.57358],[169.81031,-43.57289],[169.8136,-43.57072],[169.81451,-43.56965],[169.82274,-43.55707],[169.83381,-43.54884],[169.83472,-43.54794],[169.83535,-43.54666],[169.83602,-43.54171],[169.83486,-43.53619],[169.83542,-43.53391],[169.83602,-43.53301],[169.83703,-43.53238],[169.86108,-43.52152],[169.86485,-43.51952],[169.86646,-43.51809],[169.86697,-43.51723],[169.86784,-43.51482],[169.86912,-43.50897],[169.86982,-43.50695],[169.8694,-43.50334],[169.86966,-43.50174],[169.87034,-43.5003],[169.86951,-43.49828],[169.87016,-43.49636],[169.87007,-43.49296],[169.87046,-43.49231],[169.87354,-43.48919],[169.87578,-43.48778],[169.87796,-43.48696],[169.88662,-43.48592],[169.893,-43.48582],[169.8955,-43.48602],[169.89659,-43.4863],[169.89813,-43.48711],[169.90172,-43.48815],[169.9023,-43.48807],[169.9037,-43.48732],[169.9054,-43.48764],[169.90824,-43.48937],[169.92256,-43.49047],[169.9397,-43.49217],[169.94233,-43.49335],[169.94404,-43.49387],[169.94639,-43.49421],[169.95108,-43.49564],[169.96402,-43.4991],[169.96511,-43.49922],[169.96694,-43.49875],[169.96759,-43.49836],[169.96824,-43.49698],[169.9714,-43.49287],[169.97944,-43.48715],[169.98059,-43.48651],[169.98405,-43.48503],[169.98899,-43.48369],[169.99363,-43.48036],[170.00401,-43.47869],[170.00658,-43.47883],[170.00723,-43.47868],[170.01039,-43.47596],[170.01309,-43.47461],[170.01398,-43.47283],[170.01568,-43.47111],[170.01779,-43.46463],[170.01813,-43.46419],[170.02068,-43.46348],[170.02332,-43.46347],[170.02551,-43.4629],[170.0265,-43.46235],[170.02774,-43.46101],[170.02845,-43.46054],[170.03017,-43.45998],[170.03188,-43.46012],[170.03302,-43.45977],[170.03351,-43.45935],[170.03359,-43.45821],[170.03395,-43.45788],[170.03578,-43.45746],[170.03726,-43.45746],[170.03857,-43.45702],[170.04002,-43.45691],[170.04251,-43.45628],[170.04496,-43.45457],[170.04575,-43.4536],[170.04663,-43.45329],[170.04947,-43.45283],[170.04994,-43.45242],[170.04999,-43.45171],[170.05023,-43.45143],[170.0518,-43.45099],[170.05212,-43.45027],[170.05269,-43.44982],[170.05368,-43.44933],[170.05472,-43.44925],[170.05602,-43.44839],[170.05788,-43.44783],[170.05854,-43.44942],[170.05911,-43.44949],[170.05933,-43.44909],[170.05807,-43.44564],[170.05911,-43.44463],[170.06019,-43.44428],[170.06091,-43.44364],[170.06184,-43.44393],[170.06287,-43.44505],[170.06318,-43.44516],[170.06398,-43.44454],[170.06557,-43.44485],[170.06593,-43.44436],[170.06675,-43.44426],[170.06772,-43.44356],[170.06904,-43.44312],[170.06909,-43.44326],[170.06764,-43.44432],[170.06745,-43.445],[170.06775,-43.44522],[170.06923,-43.44439],[170.07149,-43.4439],[170.07219,-43.44357],[170.07446,-43.44037],[170.0762,-43.43915],[170.07712,-43.4389],[170.07745,-43.43865],[170.07796,-43.43719],[170.07895,-43.43547],[170.07931,-43.43426],[170.08089,-43.43248],[170.08419,-43.43116],[170.08634,-43.43053],[170.08755,-43.42943],[170.08833,-43.42956],[170.08903,-43.42944],[170.08904,-43.42891],[170.08932,-43.42851],[170.0905,-43.42853],[170.09055,-43.42795],[170.09131,-43.42717],[170.09126,-43.42657],[170.09174,-43.4262],[170.0918,-43.42564],[170.093,-43.42517],[170.09306,-43.42305],[170.09403,-43.42238],[170.0948,-43.4206],[170.09593,-43.41982],[170.09671,-43.41751],[170.09662,-43.41404],[170.09543,-43.4078],[170.0962,-43.40501],[170.09683,-43.4047],[170.09761,-43.40489],[170.09869,-43.40698],[170.10168,-43.40972],[170.10231,-43.40994],[170.10282,-43.40964],[170.10289,-43.40888],[170.10107,-43.40617],[170.10106,-43.40582],[170.10138,-43.40559],[170.10195,-43.40569],[170.10335,-43.40656],[170.10489,-43.40692],[170.10544,-43.40778],[170.10597,-43.40814],[170.10801,-43.40873],[170.10958,-43.40876],[170.11104,-43.40826],[170.11406,-43.40558],[170.1156,-43.40555],[170.11638,-43.40523],[170.11734,-43.40417],[170.11722,-43.40339],[170.11755,-43.40291],[170.11799,-43.40293],[170.11848,-43.40362],[170.11922,-43.40405],[170.12195,-43.4039],[170.1232,-43.40212],[170.12349,-43.40092],[170.12431,-43.40024],[170.12452,-43.39964],[170.12504,-43.39918],[170.12483,-43.39819],[170.12517,-43.39764],[170.12625,-43.394],[170.12715,-43.39285],[170.1272,-43.39234],[170.1269,-43.39173],[170.12868,-43.39094],[170.12922,-43.39045],[170.1295,-43.38936],[170.12933,-43.38846],[170.12961,-43.38604],[170.13043,-43.38519],[170.13132,-43.38499],[170.14838,-43.38409],[170.16391,-43.38346],[170.16517,-43.38402],[170.17523,-43.39341],[170.17581,-43.39352],[170.1778,-43.39272],[170.1787,-43.39302],[170.17952,-43.39376],[170.18206,-43.39246],[170.18183,-43.39175],[170.18199,-43.39072],[170.18177,-43.38904],[170.18184,-43.38738]],"type":"LineString"}},{"type":"Feature","properties":{"name":"Franz Josef, New Zealand → Greymouth, New Zealand"},"geometry":{"coordinates":[[170.18184,-43.38738],[170.18147,-43.38436],[170.18102,-43.3831],[170.17845,-43.37945],[170.18388,-43.36932],[170.1865,-43.36701],[170.18779,-43.36638],[170.19621,-43.36581],[170.19748,-43.36599],[170.1995,-43.36666],[170.20097,-43.36675],[170.2019,-43.36657],[170.20273,-43.36619],[170.20372,-43.36507],[170.20373,-43.36364],[170.20185,-43.36051],[170.20153,-43.35215],[170.20218,-43.35108],[170.20302,-43.35042],[170.20648,-43.34929],[170.20771,-43.34849],[170.21054,-43.34569],[170.21363,-43.34162],[170.21384,-43.33694],[170.21248,-43.33414],[170.2124,-43.33322],[170.21529,-43.32755],[170.21508,-43.32695],[170.21379,-43.32568],[170.21325,-43.32426],[170.21324,-43.32344],[170.21463,-43.32091],[170.21516,-43.3192],[170.21648,-43.3178],[170.21691,-43.31708],[170.21768,-43.31226],[170.21817,-43.31088],[170.219,-43.31],[170.22183,-43.308],[170.22269,-43.30604],[170.2255,-43.30365],[170.22605,-43.30271],[170.22623,-43.30125],[170.22534,-43.29898],[170.2252,-43.29784],[170.2253,-43.29705],[170.22606,-43.29551],[170.2261,-43.29466],[170.22591,-43.29404],[170.22443,-43.2917],[170.22474,-43.2905],[170.22739,-43.28802],[170.23853,-43.28303],[170.2402,-43.28244],[170.2448,-43.28002],[170.24567,-43.27908],[170.24591,-43.2782],[170.24577,-43.27734],[170.24362,-43.27446],[170.24275,-43.27131],[170.24122,-43.26859],[170.24094,-43.26681],[170.24244,-43.2581],[170.24332,-43.25651],[170.24503,-43.25528],[170.25444,-43.25249],[170.25544,-43.25233],[170.26484,-43.25374],[170.27199,-43.25562],[170.2747,-43.25604],[170.28,-43.25738],[170.28585,-43.26161],[170.29454,-43.2663],[170.29934,-43.26926],[170.30058,-43.27048],[170.30104,-43.27138],[170.30193,-43.27602],[170.30341,-43.28078],[170.30489,-43.28188],[170.30912,-43.28326],[170.31233,-43.2855],[170.31453,-43.2861],[170.31551,-43.28603],[170.32028,-43.28392],[170.32211,-43.28259],[170.3266,-43.28017],[170.3284,-43.27945],[170.32938,-43.27934],[170.33237,-43.27977],[170.33836,-43.27997],[170.34303,-43.2796],[170.34548,-43.27908],[170.34949,-43.27742],[170.35285,-43.27669],[170.35329,-43.2762],[170.35895,-43.26173],[170.35922,-43.26158],[170.37318,-43.26447],[170.37431,-43.2649],[170.3794,-43.26986],[170.38119,-43.27242],[170.38349,-43.28061],[170.38426,-43.28172],[170.38562,-43.28263],[170.38716,-43.28314],[170.40007,-43.28558],[170.40659,-43.28521],[170.4078,-43.28501],[170.40887,-43.28458],[170.40969,-43.28391],[170.41069,-43.28168],[170.41145,-43.28075],[170.41679,-43.27776],[170.41727,-43.27723],[170.41764,-43.27551],[170.41759,-43.27446],[170.41699,-43.27276],[170.41633,-43.27162],[170.41516,-43.27031],[170.41499,-43.26954],[170.41651,-43.26711],[170.41744,-43.26386],[170.41803,-43.26269],[170.42124,-43.25931],[170.42857,-43.2499],[170.43047,-43.24716],[170.43098,-43.24504],[170.43031,-43.23879],[170.43081,-43.23696],[170.45204,-43.20797],[170.45233,-43.20675],[170.45223,-43.20613],[170.45026,-43.20384],[170.44969,-43.2028],[170.44959,-43.19985],[170.45004,-43.19897],[170.45004,-43.19841],[170.44881,-43.19651],[170.44776,-43.19564],[170.44725,-43.19423],[170.44722,-43.19304],[170.44768,-43.19155],[170.44924,-43.18935],[170.44911,-43.188],[170.44923,-43.18774],[170.44972,-43.18747],[170.44959,-43.18702],[170.45047,-43.18515],[170.45036,-43.18456],[170.4509,-43.18409],[170.45046,-43.18329],[170.45078,-43.18216],[170.45001,-43.1803],[170.45018,-43.18002],[170.4507,-43.17985],[170.45076,-43.17962],[170.44943,-43.17924],[170.44863,-43.17819],[170.44876,-43.17795],[170.44961,-43.17748],[170.45015,-43.17676],[170.45252,-43.17616],[170.45367,-43.17681],[170.45431,-43.17808],[170.45434,-43.17878],[170.45465,-43.17892],[170.45553,-43.17765],[170.45526,-43.17716],[170.45581,-43.17678],[170.45573,-43.17589],[170.45615,-43.17578],[170.45666,-43.17628],[170.45701,-43.17629],[170.45661,-43.17496],[170.45778,-43.17441],[170.45802,-43.17298],[170.45996,-43.17007],[170.45988,-43.16835],[170.46076,-43.16583],[170.4608,-43.16244],[170.4613,-43.16136],[170.46236,-43.16024],[170.46331,-43.1601],[170.46488,-43.16094],[170.46637,-43.16126],[170.46776,-43.16246],[170.4683,-43.16269],[170.46989,-43.16272],[170.47085,-43.16304],[170.47123,-43.16301],[170.47289,-43.16254],[170.47355,-43.16173],[170.47494,-43.16121],[170.47609,-43.16026],[170.47678,-43.15937],[170.47752,-43.15908],[170.4782,-43.159],[170.47966,-43.15918],[170.48179,-43.15968],[170.48372,-43.15957],[170.49161,-43.1563],[170.49321,-43.15584],[170.49515,-43.15579],[170.50152,-43.15694],[170.50815,-43.15638],[170.50879,-43.15616],[170.50934,-43.15574],[170.51064,-43.15372],[170.51094,-43.15042],[170.51133,-43.1496],[170.51241,-43.14896],[170.5158,-43.14816],[170.55076,-43.14821],[170.58327,-43.1535],[170.61027,-43.15339],[170.61108,-43.15357],[170.61535,-43.15546],[170.6166,-43.15567],[170.62785,-43.15518],[170.62924,-43.15483],[170.63019,-43.15424],[170.63085,-43.15346],[170.63114,-43.15254],[170.63304,-43.12296],[170.63395,-43.11255],[170.63072,-43.09394],[170.62929,-43.09179],[170.62707,-43.09018],[170.62629,-43.0893],[170.62503,-43.08725],[170.6244,-43.0855],[170.62435,-43.08442],[170.62506,-43.08188],[170.62525,-43.07885],[170.62626,-43.07695],[170.62727,-43.07286],[170.62738,-43.0694],[170.62802,-43.06826],[170.63024,-43.06628],[170.63547,-43.05815],[170.63783,-43.05108],[170.63796,-43.04731],[170.63897,-43.04544],[170.63936,-43.04352],[170.63969,-43.04287],[170.64042,-43.04214],[170.64274,-43.04097],[170.64352,-43.04041],[170.65116,-43.03298],[170.66013,-43.02926],[170.66081,-43.02879],[170.66132,-43.02788],[170.66422,-43.0179],[170.66555,-43.01559],[170.66771,-43.01236],[170.67023,-43.01121],[170.67311,-43.00836],[170.67357,-43.00771],[170.67446,-43.00554],[170.67646,-43.00378],[170.67686,-43.0027],[170.67671,-43.00159],[170.67474,-42.99909],[170.67449,-42.99811],[170.67491,-42.99749],[170.67705,-42.9959],[170.67751,-42.99525],[170.68035,-42.98278],[170.68088,-42.98238],[170.68443,-42.98071],[170.68682,-42.97976],[170.68789,-42.98003],[170.69275,-42.98297],[170.69387,-42.98322],[170.69659,-42.98342],[170.69839,-42.98293],[170.70188,-42.9801],[170.70327,-42.97959],[170.70999,-42.97961],[170.71503,-42.97811],[170.71649,-42.97788],[170.7276,-42.97854],[170.72859,-42.97845],[170.72965,-42.97804],[170.73084,-42.97691],[170.7324,-42.97487],[170.73625,-42.96734],[170.73689,-42.96552],[170.73728,-42.96122],[170.73848,-42.95825],[170.73903,-42.95496],[170.74076,-42.95259],[170.7442,-42.94986],[170.74695,-42.94857],[170.75095,-42.94713],[170.75575,-42.94687],[170.75798,-42.94568],[170.75847,-42.94515],[170.75835,-42.94425],[170.75672,-42.94307],[170.7557,-42.94134],[170.75369,-42.93874],[170.75271,-42.93576],[170.75273,-42.93436],[170.75316,-42.93356],[170.75603,-42.9306],[170.7589,-42.92497],[170.76011,-42.92149],[170.76247,-42.91938],[170.76279,-42.91814],[170.76419,-42.91644],[170.77162,-42.90416],[170.77262,-42.9035],[170.78429,-42.8978],[170.78996,-42.89613],[170.7932,-42.89478],[170.79944,-42.89502],[170.81047,-42.89311],[170.8111,-42.89312],[170.81177,-42.89346],[170.81757,-42.89927],[170.82044,-42.89776],[170.82375,-42.89522],[170.824,-42.89469],[170.82369,-42.89315],[170.82415,-42.89211],[170.82434,-42.89039],[170.82487,-42.88944],[170.82579,-42.88882],[170.82675,-42.88864],[170.8274,-42.8887],[170.83706,-42.89083],[170.83813,-42.89089],[170.83909,-42.89066],[170.84015,-42.88989],[170.84813,-42.8814],[170.85094,-42.87943],[170.85203,-42.87845],[170.86198,-42.86837],[170.86416,-42.86708],[170.86549,-42.86587],[170.86628,-42.86477],[170.86695,-42.86251],[170.86773,-42.86149],[170.87183,-42.8572],[170.87429,-42.85515],[170.87779,-42.85163],[170.89024,-42.83996],[170.90023,-42.82888],[170.90085,-42.82796],[170.9022,-42.82508],[170.90244,-42.82356],[170.90112,-42.81884],[170.9006,-42.81786],[170.89909,-42.81671],[170.89458,-42.81512],[170.89114,-42.81224],[170.88734,-42.81028],[170.88661,-42.80963],[170.88613,-42.80884],[170.88596,-42.80806],[170.88608,-42.80719],[170.89526,-42.79275],[170.92854,-42.74932],[170.93092,-42.74726],[170.94526,-42.73742],[170.94706,-42.73657],[170.95599,-42.73334],[170.95702,-42.73269],[170.95779,-42.73175],[170.96373,-42.72021],[170.97224,-42.71132],[170.97405,-42.7089],[170.97879,-42.70398],[170.98036,-42.70257],[170.99513,-42.6913],[171.01098,-42.67751],[171.01326,-42.67614],[171.01537,-42.67537],[171.024,-42.67341],[171.02484,-42.67288],[171.02923,-42.67201],[171.03032,-42.67161],[171.03643,-42.66695],[171.05397,-42.65276],[171.05617,-42.65052],[171.06237,-42.6435],[171.06834,-42.63626],[171.0722,-42.63216],[171.07454,-42.63009],[171.08336,-42.6241],[171.08491,-42.62283],[171.10298,-42.60262],[171.11937,-42.57826],[171.12004,-42.57797],[171.12103,-42.57801],[171.12285,-42.57932],[171.12611,-42.58103],[171.12685,-42.58168],[171.12927,-42.5847],[171.13006,-42.58488],[171.13216,-42.58399],[171.13289,-42.58349],[171.14733,-42.57136],[171.14799,-42.57035],[171.14831,-42.56925],[171.14832,-42.56834],[171.14798,-42.567],[171.14676,-42.56468],[171.14368,-42.55974],[171.14126,-42.55755],[171.1407,-42.55676],[171.14043,-42.55571],[171.14078,-42.55424],[171.14375,-42.55063],[171.14467,-42.5499],[171.14746,-42.54821],[171.14845,-42.54722],[171.14927,-42.54597],[171.15022,-42.54393],[171.15058,-42.54],[171.15125,-42.53822],[171.15725,-42.52982],[171.16083,-42.52424],[171.16645,-42.51474],[171.17686,-42.49214],[171.17746,-42.4913],[171.17934,-42.49008],[171.18033,-42.48816],[171.18141,-42.48684],[171.18375,-42.48113],[171.18513,-42.47855],[171.18556,-42.47704],[171.18882,-42.47107],[171.19356,-42.46413],[171.19578,-42.46279],[171.19512,-42.46195],[171.19526,-42.46179],[171.20427,-42.45714],[171.20459,-42.45682],[171.20474,-42.45619],[171.20737,-42.45406],[171.20737,-42.44959],[171.20799,-42.44959]],"type":"LineString"}},{"type":"Feature","properties":{"name":"Christchurch, New Zealand"},"geometry":{"type":"Point","coordinates":[172.63643,-43.53095]}},{"type":"Feature","properties":{"name":"Lake Tekapo, New Zealand"},"geometry":{"type":"Point","coordinates":[170.47773,-44.00452]}},{"type":"Feature","properties":{"name":"Queenstown, New Zealand"},"geometry":{"type":"Point","coordinates":[168.661,-45.03219]}},{"type":"Feature","properties":{"name":"Te Anau, New Zealand"},"geometry":{"type":"Point","coordinates":[167.71749,-45.41449]}},{"type":"Feature","properties":{"name":"Franz Josef, New Zealand"},"geometry":{"type":"Point","coordinates":[170.18193,-43.38738]}},{"type":"Feature","properties":{"name":"Greymouth, New Zealand"},"geometry":{"type":"Point","coordinates":[171.20799,-42.44995]}}]}