{"type":"FeatureCollection","features":[{"type":"Feature","properties":{"name":"Bergen, Norway → Voss, Norway"},"geometry":{"coordinates":[[5.3254,60.39439],[5.32603,60.39535],[5.3255,60.39585],[5.31978,60.39862],[5.31782,60.39892],[5.31661,60.39964],[5.31518,60.40113],[5.31539,60.40128],[5.31723,60.40156],[5.31837,60.40202],[5.31977,60.40198],[5.32042,60.40213],[5.32136,60.40305],[5.32086,60.40392],[5.32095,60.40436],[5.32154,60.40472],[5.32318,60.40521],[5.32365,60.40559],[5.32365,60.40591],[5.3222,60.40732],[5.3227,60.40962],[5.3233,60.41082],[5.32324,60.4116],[5.32104,60.41549],[5.32013,60.41637],[5.3187,60.41709],[5.31685,60.41757],[5.31377,60.41795],[5.31185,60.4188],[5.30539,60.4232],[5.30461,60.42427],[5.30402,60.42633],[5.30449,60.42698],[5.30664,60.42839],[5.31422,60.43423],[5.31596,60.43501],[5.32067,60.43625],[5.32263,60.43703],[5.32421,60.43817],[5.32562,60.44],[5.32673,60.44236],[5.32656,60.44435],[5.32506,60.44768],[5.32394,60.45153],[5.32034,60.45558],[5.3195,60.45696],[5.31914,60.45826],[5.31924,60.45961],[5.3204,60.46121],[5.32463,60.46433],[5.32532,60.46536],[5.32624,60.46796],[5.32709,60.46914],[5.33141,60.47268],[5.33425,60.47571],[5.33623,60.47682],[5.33886,60.47749],[5.34245,60.47762],[5.34641,60.47717],[5.34887,60.47671],[5.35184,60.4765],[5.35459,60.4757],[5.35779,60.47402],[5.36484,60.47197],[5.36989,60.46957],[5.37456,60.46703],[5.37627,60.46584],[5.37837,60.46394],[5.38136,60.46217],[5.38366,60.46042],[5.38503,60.45974],[5.38689,60.45918],[5.38968,60.45884],[5.39284,60.45883],[5.40175,60.46005],[5.4062,60.46031],[5.41403,60.45986],[5.41867,60.46018],[5.42371,60.45981],[5.42744,60.45984],[5.4292,60.45959],[5.43107,60.45905],[5.43416,60.45731],[5.43545,60.45682],[5.43939,60.45615],[5.44157,60.45545],[5.44347,60.45404],[5.44479,60.45102],[5.44737,60.44717],[5.44928,60.44509],[5.45065,60.44294],[5.4513,60.44104],[5.45141,60.43444],[5.45247,60.43152],[5.45449,60.42887],[5.45569,60.42627],[5.45982,60.42243],[5.46,60.42193],[5.46441,60.41687],[5.46606,60.41746],[5.46787,60.41772],[5.46939,60.4177],[5.47373,60.41716],[5.47682,60.4174],[5.49867,60.42323],[5.50188,60.42374],[5.50494,60.42367],[5.51338,60.42261],[5.51665,60.42183],[5.52061,60.42031],[5.52338,60.4199],[5.52529,60.41994],[5.52779,60.42026],[5.53432,60.42167],[5.53747,60.42208],[5.55673,60.42216],[5.56128,60.42288],[5.56571,60.42438],[5.56888,60.42512],[5.57253,60.42686],[5.57392,60.42732],[5.57568,60.42764],[5.58201,60.42829],[5.5842,60.42827],[5.58631,60.42804],[5.59558,60.42611],[5.59782,60.42591],[5.60762,60.42665],[5.61642,60.42633],[5.62027,60.42666],[5.62191,60.42663],[5.62377,60.42601],[5.62589,60.42417],[5.62928,60.42369],[5.63188,60.42377],[5.63365,60.42413],[5.6355,60.42488],[5.63679,60.42595],[5.63752,60.42732],[5.63766,60.42934],[5.6373,60.4319],[5.63632,60.43469],[5.63462,60.43781],[5.6344,60.43883],[5.63452,60.43988],[5.63537,60.4417],[5.63644,60.44283],[5.63829,60.4437],[5.6752,60.45606],[5.67754,60.45652],[5.67972,60.45643],[5.6892,60.45323],[5.6924,60.45262],[5.69601,60.4524],[5.70503,60.45275],[5.70626,60.453],[5.70869,60.45391],[5.70996,60.45407],[5.71619,60.45373],[5.71759,60.45348],[5.71983,60.45277],[5.72119,60.45272],[5.72304,60.45307],[5.72622,60.45414],[5.73103,60.45504],[5.73561,60.45648],[5.73815,60.45796],[5.74573,60.46461],[5.74721,60.46701],[5.74749,60.46987],[5.74436,60.47687],[5.74441,60.47807],[5.74503,60.47986],[5.74483,60.48075],[5.74376,60.4817],[5.73519,60.48622],[5.73447,60.48681],[5.73402,60.48957],[5.73489,60.49097],[5.73487,60.49171],[5.73444,60.49339],[5.7327,60.49542],[5.73203,60.50031],[5.73153,60.5009],[5.72955,60.50177],[5.72835,60.5028],[5.72781,60.50367],[5.7277,60.50498],[5.72651,60.50621],[5.72639,60.50747],[5.72504,60.50894],[5.72515,60.50962],[5.72629,60.51132],[5.72668,60.51281],[5.72695,60.51747],[5.72531,60.52211],[5.72577,60.52429],[5.7241,60.53279],[5.72239,60.53447],[5.72066,60.53799],[5.72242,60.5425],[5.7233,60.5431],[5.7266,60.54425],[5.72861,60.54579],[5.73417,60.54887],[5.73792,60.55045],[5.74982,60.55692],[5.75552,60.55906],[5.76003,60.56188],[5.76488,60.56578],[5.77263,60.57396],[5.77337,60.57501],[5.77431,60.5777],[5.77517,60.57856],[5.77632,60.57924],[5.77917,60.5801],[5.78718,60.58099],[5.79491,60.58279],[5.80262,60.58352],[5.80621,60.58409],[5.8092,60.58481],[5.81428,60.58635],[5.81688,60.58737],[5.81791,60.58827],[5.81822,60.58931],[5.81677,60.59191],[5.81692,60.59304],[5.8198,60.59553],[5.82236,60.59865],[5.82459,60.60044],[5.82669,60.60383],[5.82853,60.60594],[5.82836,60.60799],[5.8286,60.60877],[5.83081,60.61106],[5.83187,60.61171],[5.83368,60.61238],[5.83556,60.6127],[5.84235,60.61285],[5.84495,60.61318],[5.848,60.61384],[5.85055,60.61467],[5.86432,60.62005],[5.86765,60.62065],[5.87105,60.62158],[5.87577,60.62168],[5.8773,60.62194],[5.87874,60.62262],[5.88029,60.62446],[5.88161,60.62502],[5.89369,60.62721],[5.89542,60.6271],[5.89779,60.62651],[5.89921,60.62638],[5.90816,60.62747],[5.90982,60.62741],[5.91341,60.62687],[5.91519,60.62703],[5.91612,60.62729],[5.91718,60.62788],[5.91855,60.62951],[5.91994,60.6304],[5.92897,60.63386],[5.93058,60.63413],[5.9342,60.63424],[5.93651,60.63449],[5.95131,60.63766],[5.95254,60.6377],[5.95484,60.63746],[5.9606,60.63757],[5.9621,60.6373],[5.96485,60.63644],[5.96611,60.63639],[5.9677,60.63661],[5.97056,60.63754],[5.97229,60.63862],[5.97343,60.64004],[5.97409,60.64277],[5.97471,60.64378],[5.9761,60.64488],[5.978,60.64537],[5.9847,60.64508],[5.98889,60.64446],[5.99029,60.64441],[5.99195,60.64471],[5.99364,60.64554],[5.99505,60.64591],[5.9984,60.64624],[6.0013,60.6462],[6.00641,60.64694],[6.01147,60.64717],[6.01316,60.64692],[6.01441,60.64642],[6.01672,60.6442],[6.01751,60.64377],[6.02173,60.6432],[6.02443,60.64193],[6.02661,60.64141],[6.02903,60.64131],[6.03248,60.64223],[6.03478,60.64241],[6.03645,60.6422],[6.0399,60.6412],[6.0485,60.64039],[6.05015,60.64061],[6.05159,60.64115],[6.0552,60.64417],[6.05633,60.64471],[6.06017,60.64543],[6.0649,60.64682],[6.06797,60.6473],[6.07103,60.64721],[6.07784,60.64622],[6.07962,60.64617],[6.08343,60.6464],[6.08797,60.64608],[6.0999,60.6464],[6.10644,60.64775],[6.10774,60.64788],[6.10907,60.64778],[6.11286,60.64705],[6.11723,60.64678],[6.11979,60.64688],[6.12339,60.64755],[6.12501,60.6476],[6.13059,60.64657],[6.13453,60.64616],[6.13582,60.64629],[6.13807,60.64701],[6.13961,60.64731],[6.14313,60.64716],[6.14539,60.64725],[6.14695,60.64706],[6.14949,60.6463],[6.15748,60.64287],[6.15979,60.64226],[6.16221,60.64039],[6.17083,60.63782],[6.17212,60.63757],[6.17432,60.63757],[6.18039,60.63864],[6.18494,60.63776],[6.19136,60.63739],[6.19264,60.63761],[6.19496,60.63873],[6.19695,60.63886],[6.20009,60.63822],[6.20365,60.63805],[6.20548,60.63757],[6.20695,60.63663],[6.208,60.63483],[6.20964,60.63404],[6.21741,60.63301],[6.21967,60.63289],[6.22338,60.63312],[6.22709,60.63376],[6.23027,60.6347],[6.23569,60.63675],[6.23714,60.6369],[6.23939,60.63682],[6.24265,60.63632],[6.24513,60.63554],[6.24693,60.63448],[6.24883,60.63251],[6.25053,60.63194],[6.25201,60.63188],[6.25577,60.63229],[6.26158,60.63255],[6.26819,60.63207],[6.27494,60.63118],[6.28003,60.63121],[6.29139,60.6292],[6.29263,60.62875],[6.29442,60.62767],[6.2962,60.6272],[6.31236,60.6269],[6.31537,60.62664],[6.31861,60.62581],[6.32631,60.62272],[6.33834,60.61906],[6.346,60.61565],[6.35025,60.61487],[6.35352,60.61357],[6.3561,60.61342],[6.35928,60.61422],[6.3625,60.6147],[6.36657,60.61625],[6.37125,60.61754],[6.37696,60.62008],[6.38059,60.62133],[6.38306,60.62254],[6.38783,60.62348],[6.39273,60.62521],[6.39826,60.62636],[6.40073,60.62706],[6.40276,60.6298],[6.40489,60.6313],[6.42579,60.64061],[6.42758,60.64126],[6.43048,60.64189],[6.43333,60.64215],[6.43492,60.64216],[6.43562,60.64194],[6.43606,60.64203],[6.43569,60.64255],[6.43529,60.6484],[6.43605,60.65144],[6.43646,60.65197],[6.43531,60.65636],[6.43598,60.65911],[6.43631,60.65929],[6.43604,60.65941],[6.43529,60.65932],[6.43579,60.65977],[6.43586,60.66096],[6.43483,60.66184],[6.43448,60.66323],[6.43367,60.66325],[6.4322,60.66265],[6.43114,60.66255],[6.43052,60.66231],[6.42996,60.66252],[6.43016,60.66348],[6.43163,60.66428],[6.43243,60.66539],[6.43228,60.66585],[6.43089,60.66603],[6.43037,60.66625],[6.42861,60.66608],[6.42807,60.66715],[6.42717,60.66758],[6.42722,60.66799],[6.42801,60.66876],[6.42952,60.66935]],"type":"LineString"}},{"type":"Feature","properties":{"name":"Voss, Norway → Flam, Norway"},"geometry":{"coordinates":[[6.42952,60.66935],[6.42801,60.66876],[6.42722,60.66799],[6.42717,60.66758],[6.42807,60.66715],[6.42861,60.66608],[6.43037,60.66625],[6.43089,60.66603],[6.43228,60.66585],[6.43243,60.66539],[6.43163,60.66428],[6.43016,60.66348],[6.42996,60.66252],[6.43052,60.66231],[6.43114,60.66255],[6.4322,60.66265],[6.43367,60.66325],[6.43448,60.66323],[6.43483,60.66184],[6.43586,60.66096],[6.43579,60.65977],[6.43529,60.65932],[6.43608,60.65911],[6.43632,60.65924],[6.43604,60.65941],[6.43616,60.66124],[6.43709,60.66278],[6.44474,60.66738],[6.44926,60.66921],[6.45013,60.67071],[6.4529,60.67276],[6.45336,60.67359],[6.45223,60.67483],[6.45252,60.67573],[6.45329,60.67664],[6.45589,60.67837],[6.45725,60.67987],[6.46082,60.68277],[6.46143,60.68368],[6.46145,60.68589],[6.46201,60.68687],[6.46762,60.6912],[6.47002,60.69259],[6.47339,60.69551],[6.47387,60.69633],[6.47393,60.69774],[6.4791,60.70336],[6.48035,60.70536],[6.48537,60.70902],[6.48559,60.70988],[6.48523,60.71215],[6.48642,60.71572],[6.49142,60.72177],[6.49184,60.72287],[6.4916,60.7241],[6.49006,60.7266],[6.49068,60.72872],[6.49033,60.73218],[6.49081,60.73378],[6.48936,60.73662],[6.49027,60.73918],[6.49003,60.74253],[6.49112,60.74386],[6.49429,60.74603],[6.49969,60.74886],[6.50064,60.74976],[6.5008,60.75024],[6.50061,60.75331],[6.49805,60.75584],[6.4958,60.7574],[6.49162,60.75913],[6.49086,60.75968],[6.49083,60.76061],[6.4923,60.76279],[6.49322,60.76622],[6.49216,60.76741],[6.48875,60.76949],[6.4878,60.771],[6.48729,60.77257],[6.48525,60.77453],[6.48442,60.77645],[6.48432,60.77754],[6.48777,60.78188],[6.48832,60.78317],[6.48882,60.7836],[6.49056,60.7841],[6.49327,60.78396],[6.49736,60.78435],[6.49833,60.78462],[6.49926,60.78524],[6.50152,60.78799],[6.50453,60.78964],[6.50639,60.79104],[6.50744,60.79154],[6.50985,60.79203],[6.51316,60.79241],[6.51713,60.79225],[6.52147,60.79282],[6.52961,60.79249],[6.53388,60.79208],[6.53954,60.79267],[6.54169,60.79267],[6.54295,60.79239],[6.54773,60.79043],[6.55321,60.78445],[6.55495,60.78323],[6.55616,60.78272],[6.55706,60.7826],[6.55838,60.78269],[6.55906,60.78229],[6.56052,60.78244],[6.56265,60.78114],[6.56483,60.78068],[6.57052,60.78094],[6.57255,60.78166],[6.57571,60.78233],[6.57757,60.7824],[6.58054,60.78204],[6.58119,60.78211],[6.58344,60.78349],[6.58654,60.78446],[6.59054,60.78541],[6.59217,60.78535],[6.594,60.78577],[6.59547,60.78673],[6.59909,60.78842],[6.60048,60.78865],[6.60269,60.78932],[6.6049,60.79077],[6.6086,60.79228],[6.61048,60.79262],[6.61424,60.79203],[6.62144,60.79321],[6.62252,60.79351],[6.62422,60.79442],[6.62622,60.79516],[6.62968,60.79604],[6.63044,60.79659],[6.63197,60.79725],[6.63435,60.79746],[6.63661,60.79871],[6.63832,60.79898],[6.63914,60.79929],[6.64048,60.80104],[6.64219,60.80201],[6.64395,60.80268],[6.64427,60.80325],[6.64888,60.8038],[6.65266,60.80399],[6.65825,60.80574],[6.66616,60.80756],[6.66814,60.80792],[6.67184,60.80815],[6.67351,60.80845],[6.67817,60.81025],[6.68337,60.81325],[6.68623,60.81416],[6.68729,60.8157],[6.68878,60.81719],[6.68928,60.81839],[6.6892,60.81929],[6.68818,60.82164],[6.68816,60.824],[6.68777,60.82536],[6.68692,60.82659],[6.68585,60.82747],[6.68484,60.82791],[6.68083,60.82889],[6.67965,60.82933],[6.67851,60.83024],[6.67823,60.83112],[6.67846,60.83182],[6.67931,60.83262],[6.68248,60.83383],[6.68351,60.83456],[6.68487,60.83788],[6.68458,60.84047],[6.68528,60.84129],[6.68657,60.84193],[6.68861,60.84232],[6.69077,60.84221],[6.69249,60.84173],[6.6956,60.84007],[6.6967,60.83982],[6.69808,60.83982],[6.70252,60.84143],[6.71057,60.84277],[6.71437,60.84396],[6.71699,60.84452],[6.71919,60.84466],[6.72323,60.84425],[6.72554,60.84425],[6.72756,60.84451],[6.73205,60.84555],[6.7356,60.84706],[6.73897,60.848],[6.74453,60.85016],[6.74694,60.85083],[6.74984,60.85252],[6.75522,60.85438],[6.75837,60.85621],[6.76261,60.85743],[6.76525,60.85751],[6.7687,60.85692],[6.77235,60.85698],[6.77623,60.85638],[6.77819,60.85632],[6.7804,60.85659],[6.78549,60.85773],[6.78979,60.85781],[6.79295,60.85868],[6.79644,60.85913],[6.7992,60.85974],[6.80584,60.8605],[6.81693,60.86315],[6.8191,60.864],[6.82033,60.86498],[6.8218,60.8673],[6.82279,60.86791],[6.82562,60.86887],[6.82671,60.86946],[6.83122,60.87378],[6.83392,60.87584],[6.83881,60.87774],[6.84271,60.87855],[6.84701,60.87977],[6.84949,60.8802],[6.86554,60.88067],[6.87477,60.88115],[6.90072,60.88334],[6.91925,60.88463],[6.97273,60.88712],[6.99105,60.88845],[7.02356,60.8912],[7.0355,60.89175],[7.05147,60.89212],[7.05381,60.89262],[7.0554,60.89357],[7.05772,60.89822],[7.05851,60.89911],[7.06046,60.89992],[7.06309,60.90015],[7.06532,60.89977],[7.06877,60.89828],[7.08095,60.89175],[7.09364,60.88585],[7.09845,60.88322],[7.10433,60.8793],[7.10818,60.87617],[7.11142,60.87297],[7.11425,60.86947],[7.11484,60.86806],[7.11443,60.86709],[7.11322,60.86621],[7.10861,60.86487],[7.10581,60.86341],[7.10487,60.86226],[7.10493,60.86134],[7.10413,60.86091],[7.1043,60.86041],[7.10531,60.86006],[7.10714,60.86125],[7.1077,60.8623],[7.10993,60.86281],[7.1115,60.86383],[7.11619,60.86472],[7.11683,60.8639],[7.11326,60.86336],[7.11338,60.86318]],"type":"LineString"}},{"type":"Feature","properties":{"name":"Flam, Norway → Geiranger, Norway"},"geometry":{"coordinates":[[7.11338,60.86318],[7.11326,60.86336],[7.11236,60.86348],[7.11163,60.86388],[7.10993,60.86281],[7.1077,60.8623],[7.10714,60.86125],[7.10531,60.86006],[7.1043,60.86041],[7.10418,60.86098],[7.10497,60.86125],[7.10574,60.86036],[7.1071,60.8597],[7.11313,60.85821],[7.11635,60.8578],[7.11911,60.8579],[7.12158,60.85838],[7.12448,60.85966],[7.12557,60.86063],[7.12729,60.863],[7.12904,60.86407],[7.13025,60.86442],[7.13391,60.86504],[7.13817,60.86551],[7.13979,60.866],[7.14145,60.86685],[7.14257,60.86806],[7.14272,60.87093],[7.14422,60.87267],[7.14436,60.87497],[7.14468,60.87564],[7.14599,60.87647],[7.14939,60.87718],[7.15099,60.87789],[7.15244,60.87888],[7.1535,60.88039],[7.15498,60.88177],[7.155,60.88527],[7.15522,60.8859],[7.15658,60.88755],[7.15625,60.88938],[7.1565,60.89003],[7.15716,60.89052],[7.16073,60.89208],[7.16397,60.89386],[7.16537,60.89549],[7.16755,60.89683],[7.16943,60.8987],[7.17064,60.89944],[7.17192,60.89984],[7.17354,60.90007],[7.1774,60.89995],[7.18014,60.9001],[7.18437,60.90095],[7.1862,60.9011],[7.19303,60.90016],[7.19749,60.9],[7.20089,60.89962],[7.20473,60.89906],[7.20758,60.89821],[7.21037,60.89794],[7.21409,60.89872],[7.22644,60.90493],[7.23673,60.90975],[7.24532,60.91342],[7.26787,60.92253],[7.2842,60.9298],[7.29725,60.93613],[7.32187,60.94889],[7.33778,60.95638],[7.35443,60.96349],[7.38336,60.97471],[7.39709,60.98057],[7.41225,60.98786],[7.42048,60.99223],[7.43406,61.00023],[7.44311,61.00619],[7.45168,61.01242],[7.46107,61.02004],[7.46685,61.02526],[7.47223,61.03057],[7.47721,61.03598],[7.48177,61.04148],[7.48592,61.04705],[7.49473,61.06108],[7.49638,61.06228],[7.49878,61.06326],[7.50592,61.06472],[7.50231,61.06697],[7.50068,61.06901],[7.50041,61.06991],[7.5006,61.07393],[7.50237,61.07689],[7.50965,61.0845],[7.51248,61.08787],[7.51511,61.09003],[7.51614,61.09125],[7.51739,61.09375],[7.51802,61.09628],[7.51674,61.09747],[7.51376,61.0988],[7.50848,61.10039],[7.50707,61.1006],[7.50297,61.1005],[7.50132,61.10026],[7.49503,61.09725],[7.49147,61.09613],[7.48748,61.09548],[7.48467,61.09541],[7.48154,61.0957],[7.47115,61.09828],[7.47114,61.09856],[7.47228,61.09974],[7.4729,61.10002],[7.47321,61.10057],[7.47634,61.10245],[7.47727,61.1033],[7.47789,61.10461],[7.47755,61.10621],[7.47634,61.10752],[7.46357,61.11846],[7.44838,61.13304],[7.44269,61.13767],[7.43644,61.14212],[7.42977,61.1463],[7.42193,61.15064],[7.4199,61.15141],[7.41779,61.15175],[7.4154,61.15171],[7.41078,61.151],[7.41081,61.15131],[7.41333,61.15157],[7.41708,61.15271],[7.42032,61.15344],[7.42612,61.15572],[7.4319,61.1577],[7.43563,61.16021],[7.43956,61.16249],[7.44405,61.16608],[7.44917,61.17122],[7.45068,61.17208],[7.45552,61.17329],[7.45855,61.17503],[7.45995,61.1755],[7.46848,61.17606],[7.47816,61.17782],[7.48296,61.17888],[7.48455,61.17946],[7.48607,61.18031],[7.4891,61.1833],[7.49103,61.18441],[7.49266,61.1849],[7.49577,61.18548],[7.49931,61.18659],[7.50446,61.1871],[7.50776,61.1878],[7.51058,61.18885],[7.51582,61.19145],[7.51931,61.19241],[7.52363,61.19283],[7.5297,61.19261],[7.5349,61.19277],[7.54061,61.19166],[7.54449,61.19148],[7.55059,61.19208],[7.55599,61.1938],[7.56309,61.19468],[7.56749,61.19467],[7.57085,61.19518],[7.57334,61.19533],[7.58349,61.19494],[7.59089,61.19494],[7.59367,61.19469],[7.60138,61.19358],[7.60477,61.1929],[7.60654,61.19226],[7.60963,61.19056],[7.61209,61.18986],[7.61769,61.18907],[7.62095,61.18829],[7.62202,61.18825],[7.62317,61.18848],[7.62393,61.18895],[7.62412,61.18944],[7.62289,61.19084],[7.62285,61.19141],[7.6234,61.19183],[7.62529,61.19236],[7.62632,61.19297],[7.62698,61.19485],[7.62935,61.19813],[7.63685,61.20144],[7.64382,61.2048],[7.64677,61.20579],[7.64915,61.20765],[7.65016,61.21048],[7.65021,61.21228],[7.65102,61.2136],[7.6513,61.21568],[7.65325,61.21887],[7.65512,61.22033],[7.65694,61.22092],[7.65967,61.2211],[7.66749,61.22076],[7.67098,61.21962],[7.6749,61.21902],[7.67643,61.21908],[7.67873,61.21952],[7.68165,61.21937],[7.68605,61.21954],[7.69309,61.22043],[7.70311,61.22107],[7.70583,61.22173],[7.71283,61.22408],[7.71427,61.22495],[7.71493,61.22566],[7.71849,61.23112],[7.7188,61.23208],[7.71809,61.23334],[7.71538,61.23467],[7.71435,61.23546],[7.71263,61.23798],[7.71228,61.23989],[7.71339,61.24038],[7.71808,61.24179],[7.72665,61.24262],[7.72786,61.24301],[7.73007,61.24422],[7.73382,61.2482],[7.73883,61.25271],[7.74027,61.25706],[7.74174,61.25821],[7.74332,61.25867],[7.75248,61.26036],[7.76175,61.2613],[7.76345,61.26201],[7.76404,61.26289],[7.76377,61.26471],[7.76646,61.26735],[7.767,61.26873],[7.76427,61.27598],[7.76546,61.28318],[7.76285,61.29562],[7.76304,61.29726],[7.76355,61.29793],[7.76589,61.29927],[7.76813,61.29973],[7.76941,61.29975],[7.77355,61.29932],[7.77663,61.29936],[7.78167,61.29896],[7.78356,61.29914],[7.78984,61.30019],[7.79235,61.30104],[7.79598,61.30339],[7.79678,61.30424],[7.79692,61.30548],[7.79758,61.30586],[7.79948,61.30641],[7.80176,61.30674],[7.80619,61.30665],[7.80789,61.30678],[7.81639,61.30914],[7.81625,61.30932],[7.81027,61.31044],[7.80757,61.31054],[7.80428,61.3109],[7.78796,61.31106],[7.78754,61.31094],[7.78669,61.3113],[7.78665,61.31154],[7.78762,61.31217],[7.78896,61.31244],[7.78598,61.31241],[7.78736,61.31263],[7.78598,61.31263],[7.78572,61.31277],[7.78744,61.31283],[7.7863,61.31293],[7.78591,61.31321],[7.78661,61.31303],[7.78935,61.31335],[7.78692,61.31377],[7.78695,61.31389],[7.78955,61.31382],[7.78812,61.31412],[7.78732,61.31484],[7.78588,61.31515],[7.78814,61.31532],[7.79029,61.31474],[7.79021,61.31522],[7.78903,61.31597],[7.78482,61.31741],[7.78622,61.31735],[7.78623,61.31747],[7.78274,61.31809],[7.78279,61.31822],[7.78392,61.31845],[7.78532,61.31838],[7.78457,61.31874],[7.78372,61.31979],[7.78218,61.3207],[7.78145,61.32144],[7.78035,61.32188],[7.77831,61.32223],[7.7777,61.32314],[7.77838,61.32316],[7.7777,61.32445],[7.77622,61.32532],[7.77485,61.32676],[7.77404,61.32859],[7.77302,61.32926],[7.77239,61.33016],[7.77094,61.33379],[7.76968,61.33529],[7.76767,61.33644],[7.76707,61.33721],[7.76599,61.33798],[7.76305,61.33923],[7.76202,61.34117],[7.75992,61.34242],[7.75947,61.34337],[7.75888,61.34388],[7.75843,61.3454],[7.75703,61.34618],[7.75691,61.34682],[7.75555,61.34852],[7.75636,61.35022],[7.75512,61.35303],[7.75292,61.35518],[7.75255,61.35608],[7.75081,61.35709],[7.75034,61.35831],[7.74913,61.35908],[7.74311,61.3616],[7.74189,61.36255],[7.74007,61.36331],[7.73805,61.36403],[7.73266,61.36514],[7.72721,61.36782],[7.72429,61.36957],[7.72247,61.37115],[7.72136,61.373],[7.71861,61.37435],[7.71905,61.3762],[7.71851,61.38041],[7.7188,61.38246],[7.72051,61.38401],[7.72234,61.3851],[7.72306,61.38755],[7.72365,61.3884],[7.72277,61.38921],[7.72193,61.38945],[7.72052,61.3893],[7.71932,61.38856],[7.71968,61.3896],[7.71954,61.3904],[7.72035,61.39107],[7.72318,61.39133],[7.72426,61.39174],[7.7232,61.39177],[7.72169,61.39215],[7.72036,61.39228],[7.71876,61.39203],[7.72045,61.3927],[7.72088,61.39306],[7.72067,61.39577],[7.72003,61.39657],[7.71796,61.39771],[7.71756,61.39893],[7.71665,61.3997],[7.717,61.39994],[7.71843,61.40007],[7.71912,61.40066],[7.72065,61.40114],[7.72304,61.40129],[7.72229,61.40182],[7.72092,61.40222],[7.71954,61.40293],[7.71823,61.40324],[7.71706,61.40398],[7.7162,61.40426],[7.7149,61.40539],[7.71378,61.40693],[7.71455,61.40769],[7.71603,61.40845],[7.71667,61.40977],[7.71702,61.41343],[7.71755,61.41544],[7.71758,61.41968],[7.71791,61.42029],[7.71991,61.42174],[7.72139,61.42404],[7.72128,61.42617],[7.72204,61.42783],[7.72178,61.43054],[7.72534,61.43209],[7.72842,61.43229],[7.73027,61.43304],[7.73227,61.43432],[7.73408,61.43491],[7.73499,61.43595],[7.7351,61.4365],[7.73344,61.43908],[7.73379,61.43921],[7.7353,61.4391],[7.73631,61.43924],[7.73675,61.43953],[7.73699,61.44017],[7.73639,61.44108],[7.73418,61.4418],[7.73305,61.44166],[7.73159,61.44116],[7.73133,61.44123],[7.73346,61.44453],[7.73232,61.44644],[7.73122,61.44975],[7.73193,61.45018],[7.73386,61.45041],[7.73461,61.45111],[7.73318,61.45403],[7.73291,61.45713],[7.73171,61.45961],[7.73182,61.46023],[7.73275,61.46153],[7.7322,61.46212],[7.72858,61.46396],[7.72772,61.46463],[7.72678,61.46552],[7.72605,61.46713],[7.72628,61.47136],[7.72938,61.4767],[7.73003,61.4792],[7.73045,61.47971],[7.73284,61.48057],[7.73594,61.48203],[7.73903,61.48238],[7.74165,61.48472],[7.7426,61.48504],[7.74398,61.48482],[7.74517,61.48394],[7.74868,61.48342],[7.75121,61.48233],[7.75284,61.48224],[7.75513,61.48244],[7.75919,61.48332],[7.76232,61.48486],[7.76436,61.48502],[7.76671,61.48483],[7.77025,61.4857],[7.77263,61.48581],[7.77667,61.48633],[7.77974,61.48747],[7.78032,61.48793],[7.78023,61.4883],[7.77951,61.4885],[7.77637,61.48776],[7.77571,61.48782],[7.77589,61.48819],[7.77847,61.48947],[7.78082,61.48988],[7.78191,61.49031],[7.78282,61.49017],[7.78381,61.49029],[7.78901,61.49251],[7.79336,61.49345],[7.79415,61.49416],[7.79418,61.49546],[7.79582,61.49676],[7.79739,61.49869],[7.79735,61.50011],[7.79836,61.50104],[7.79987,61.50194],[7.80067,61.50347],[7.80319,61.50431],[7.80385,61.50429],[7.80494,61.50368],[7.80581,61.50156],[7.80641,61.5013],[7.80721,61.50125],[7.8087,61.50162],[7.81089,61.50258],[7.81219,61.50287],[7.81296,61.50369],[7.81439,61.50452],[7.81598,61.5047],[7.81585,61.50485],[7.81414,61.5048],[7.81053,61.50416],[7.80874,61.50529],[7.8072,61.50575],[7.80865,61.50581],[7.81026,61.50523],[7.81127,61.5053],[7.80981,61.5058],[7.80902,61.5074],[7.80953,61.50865],[7.81008,61.50935],[7.81064,61.50963],[7.81128,61.50968],[7.81178,61.50938],[7.81182,61.50896],[7.81118,61.50833],[7.81143,61.50819],[7.81413,61.50995],[7.81406,61.50927],[7.81455,61.50855],[7.81535,61.50812],[7.81665,61.50793],[7.82136,61.50975],[7.82181,61.51035],[7.82287,61.51428],[7.82371,61.51544],[7.82519,61.51662],[7.82745,61.51953],[7.8281,61.52146],[7.82861,61.52191],[7.83457,61.52491],[7.83602,61.5254],[7.83714,61.52536],[7.8389,61.5245],[7.84171,61.5238],[7.84327,61.52388],[7.84579,61.52578],[7.8494,61.52743],[7.84971,61.52787],[7.84953,61.52838],[7.84729,61.53016],[7.84697,61.53205],[7.84766,61.53306],[7.85022,61.53475],[7.85002,61.53623],[7.85048,61.53697],[7.85453,61.539],[7.85496,61.53974],[7.85491,61.54079],[7.85539,61.54123],[7.85779,61.54172],[7.86091,61.54283],[7.86549,61.54544],[7.86846,61.54664],[7.87046,61.54862],[7.87124,61.54909],[7.87217,61.54919],[7.87316,61.54895],[7.87651,61.54862],[7.88115,61.54902],[7.88314,61.54937],[7.89001,61.5489],[7.90203,61.54964],[7.91825,61.55015],[7.9228,61.55048],[7.92522,61.55138],[7.92733,61.55161],[7.92987,61.55225],[7.93499,61.55208],[7.93691,61.55224],[7.93948,61.55291],[7.94672,61.5564],[7.95064,61.55703],[7.95514,61.55884],[7.9566,61.55922],[7.96166,61.56002],[7.96823,61.55987],[7.97486,61.56115],[7.98028,61.56098],[7.98265,61.56148],[7.98769,61.56144],[7.99186,61.5631],[7.99407,61.56471],[7.99513,61.56502],[8.00366,61.56546],[8.01152,61.56669],[8.01892,61.56669],[8.01982,61.56725],[8.02143,61.56753],[8.02372,61.56893],[8.0262,61.57011],[8.02682,61.57093],[8.02809,61.57169],[8.02891,61.57282],[8.0292,61.57274],[8.02902,61.57223],[8.02939,61.57173],[8.0301,61.571],[8.03053,61.57096],[8.03047,61.57222],[8.03142,61.57362],[8.03058,61.5748],[8.03176,61.5744],[8.03386,61.57467],[8.03599,61.57607],[8.03658,61.57683],[8.03643,61.5781],[8.03465,61.58193],[8.03465,61.58433],[8.03594,61.58643],[8.03568,61.58793],[8.03672,61.59078],[8.03926,61.59517],[8.03864,61.59779],[8.03886,61.59891],[8.03921,61.59959],[8.04088,61.60094],[8.04209,61.60311],[8.04145,61.60667],[8.04041,61.60803],[8.04128,61.6094],[8.04106,61.61161],[8.04346,61.61489],[8.04343,61.61674],[8.04413,61.61848],[8.04321,61.62003],[8.04319,61.62074],[8.04361,61.6215],[8.04615,61.62402],[8.04968,61.62945],[8.05066,61.63187],[8.0495,61.63374],[8.04953,61.63432],[8.0509,61.63686],[8.05133,61.63878],[8.05251,61.63971],[8.05659,61.64077],[8.06114,61.64121],[8.06715,61.64312],[8.06997,61.64354],[8.07404,61.64472],[8.07595,61.64506],[8.07858,61.64531],[8.08088,61.64528],[8.0835,61.64488],[8.08658,61.64468],[8.09593,61.64594],[8.10106,61.6452],[8.10514,61.64504],[8.10666,61.64521],[8.11354,61.64754],[8.12119,61.64941],[8.12354,61.65028],[8.12632,61.65142],[8.13124,61.65459],[8.13712,61.65767],[8.14553,61.66039],[8.14653,61.66043],[8.14915,61.66014],[8.15275,61.65925],[8.15494,61.65896],[8.15872,61.6572],[8.15945,61.65703],[8.16098,61.65711],[8.16739,61.65818],[8.17033,61.65926],[8.17227,61.6603],[8.1742,61.66072],[8.17667,61.66175],[8.17987,61.66264],[8.18302,61.66434],[8.18705,61.66703],[8.18868,61.66782],[8.19664,61.66935],[8.19932,61.6709],[8.20174,61.67178],[8.20345,61.67266],[8.20725,61.67389],[8.21008,61.67453],[8.21168,61.67553],[8.21772,61.67826],[8.2207,61.67891],[8.22345,61.67912],[8.22619,61.68016],[8.22893,61.6806],[8.24427,61.68571],[8.24545,61.68583],[8.24843,61.68558],[8.25159,61.68721],[8.25678,61.68819],[8.26254,61.68887],[8.26601,61.68989],[8.26716,61.69038],[8.27172,61.69324],[8.27384,61.69391],[8.27697,61.69437],[8.27961,61.69579],[8.28049,61.69664],[8.28016,61.69823],[8.28348,61.70187],[8.28688,61.70354],[8.28881,61.70381],[8.29479,61.70622],[8.29667,61.70659],[8.29988,61.70665],[8.30254,61.70707],[8.31086,61.71025],[8.31322,61.71213],[8.31412,61.71258],[8.31714,61.71311],[8.32185,61.71485],[8.32455,61.71499],[8.3259,61.71489],[8.32671,61.71451],[8.32747,61.71347],[8.32871,61.71309],[8.33153,61.71289],[8.33328,61.71322],[8.33654,61.71475],[8.3374,61.716],[8.3393,61.71703],[8.33995,61.71822],[8.34117,61.71891],[8.34531,61.71987],[8.34735,61.72067],[8.3516,61.7217],[8.35634,61.72377],[8.35732,61.72459],[8.35829,61.7259],[8.35897,61.72633],[8.36669,61.72891],[8.37004,61.72953],[8.37252,61.73047],[8.37423,61.73148],[8.3763,61.73304],[8.37675,61.73362],[8.37691,61.73595],[8.37815,61.73903],[8.37778,61.74406],[8.3797,61.74655],[8.38263,61.74833],[8.38393,61.74938],[8.38616,61.75025],[8.38923,61.75205],[8.39796,61.75931],[8.39999,61.76006],[8.4095,61.76269],[8.41225,61.76376],[8.41482,61.76515],[8.41668,61.76687],[8.41781,61.76926],[8.41855,61.77006],[8.42626,61.77468],[8.43029,61.78057],[8.43091,61.78111],[8.43202,61.78153],[8.43679,61.7825],[8.44085,61.78459],[8.44438,61.78589],[8.44837,61.78683],[8.44953,61.78742],[8.45134,61.79009],[8.45093,61.79061],[8.44931,61.79148],[8.44701,61.79446],[8.44695,61.79503],[8.44802,61.79713],[8.44782,61.79886],[8.45021,61.80138],[8.45216,61.80302],[8.45378,61.80393],[8.45495,61.80507],[8.45895,61.80774],[8.46102,61.80863],[8.46308,61.80894],[8.47034,61.80854],[8.47634,61.80947],[8.47996,61.80886],[8.4817,61.8089],[8.48292,61.80918],[8.48704,61.81093],[8.48848,61.81135],[8.49029,61.81156],[8.49487,61.81169],[8.4981,61.81218],[8.50129,61.81294],[8.50668,61.81495],[8.5107,61.81704],[8.51532,61.81824],[8.51906,61.81874],[8.52162,61.8193],[8.52556,61.81875],[8.52815,61.81898],[8.53695,61.82155],[8.54027,61.82321],[8.54568,61.82673],[8.55046,61.82887],[8.55254,61.83042],[8.5566,61.83218],[8.56098,61.83445],[8.56649,61.83636],[8.56858,61.83772],[8.56663,61.83834],[8.56444,61.83833],[8.56236,61.83877],[8.56142,61.83941],[8.56063,61.84077],[8.55995,61.84111],[8.55401,61.84226],[8.55141,61.84305],[8.54662,61.84411],[8.53718,61.84691],[8.52661,61.84918],[8.51536,61.85392],[8.51104,61.85643],[8.51007,61.8568],[8.503,61.85831],[8.49856,61.8588],[8.49296,61.86038],[8.48799,61.86121],[8.47508,61.86457],[8.47188,61.86557],[8.4682,61.86637],[8.46133,61.86823],[8.45694,61.8692],[8.45357,61.86962],[8.44757,61.87135],[8.43038,61.87479],[8.42885,61.87493],[8.42355,61.87488],[8.414,61.87532],[8.40765,61.87537],[8.4023,61.87524],[8.39832,61.87541],[8.39455,61.87507],[8.39256,61.87508],[8.38197,61.87583],[8.37654,61.87699],[8.37308,61.87743],[8.36631,61.8774],[8.35473,61.87814],[8.34521,61.87836],[8.33972,61.87933],[8.33501,61.8791],[8.33054,61.87933],[8.3281,61.87971],[8.32654,61.88022],[8.32398,61.88211],[8.32257,61.8828],[8.32023,61.88342],[8.31867,61.88361],[8.31363,61.88309],[8.30691,61.88286],[8.30408,61.88235],[8.30093,61.88212],[8.29621,61.88205],[8.28663,61.88271],[8.2819,61.88183],[8.2696,61.88303],[8.26825,61.88342],[8.25783,61.888],[8.25432,61.89054],[8.25295,61.89091],[8.25079,61.89083],[8.24989,61.89097],[8.24817,61.89206],[8.24199,61.89464],[8.24059,61.89476],[8.23746,61.8947],[8.23134,61.89573],[8.22527,61.89622],[8.21904,61.89711],[8.21413,61.89726],[8.21176,61.89749],[8.21015,61.89788],[8.207,61.8991],[8.20464,61.89957],[8.19736,61.89933],[8.19501,61.89951],[8.18597,61.90114],[8.1793,61.90174],[8.16947,61.90339],[8.16461,61.90475],[8.16002,61.90581],[8.14855,61.90745],[8.13694,61.91039],[8.13085,61.9109],[8.12743,61.91146],[8.11724,61.91234],[8.11291,61.91224],[8.10848,61.91255],[8.09712,61.91395],[8.09471,61.9144],[8.09335,61.91483],[8.09287,61.91527],[8.09254,61.91638],[8.09178,61.91682],[8.0885,61.91728],[8.08052,61.91894],[8.07766,61.91935],[8.0739,61.91946],[8.06806,61.91991],[8.06223,61.92084],[8.05519,61.92154],[8.05292,61.92163],[8.04997,61.92224],[8.04217,61.92298],[8.03767,61.9243],[8.03404,61.92592],[8.03147,61.92831],[8.03129,61.92931],[8.03238,61.93074],[8.03251,61.93136],[8.0316,61.93298],[8.03208,61.93495],[8.03179,61.93741],[8.03124,61.93812],[8.02944,61.93891],[8.02511,61.9396],[8.02063,61.94169],[8.01799,61.94243],[8.01679,61.94255],[8.01302,61.94248],[8.00732,61.94222],[8.00428,61.94238],[8.00053,61.94298],[7.9973,61.94288],[7.99511,61.94302],[7.99255,61.94358],[7.98797,61.94534],[7.98523,61.94568],[7.98258,61.94641],[7.9769,61.9474],[7.97411,61.9473],[7.97129,61.94744],[7.96561,61.94717],[7.95746,61.94771],[7.94678,61.94771],[7.94481,61.9479],[7.941,61.94889],[7.93497,61.94897],[7.93292,61.94931],[7.92954,61.95075],[7.92075,61.95263],[7.91242,61.95548],[7.90747,61.95655],[7.90511,61.95743],[7.90263,61.958],[7.9,61.95903],[7.89654,61.9609],[7.89594,61.96186],[7.89654,61.96297],[7.89647,61.96368],[7.89471,61.96561],[7.89295,61.96673],[7.89213,61.96774],[7.89215,61.9691],[7.89295,61.97124],[7.89289,61.97205],[7.8884,61.98134],[7.886,61.98514],[7.88456,61.98841],[7.88321,61.993],[7.88135,61.99471],[7.88032,61.9966],[7.87615,62.00145],[7.87399,62.00258],[7.87292,62.00383],[7.86593,62.00827],[7.86437,62.00885],[7.85955,62.01003],[7.85327,62.01079],[7.84631,62.01141],[7.84114,62.01232],[7.83829,62.0122],[7.83495,62.01179],[7.83093,62.01187],[7.82219,62.01297],[7.81834,62.0132],[7.81478,62.0137],[7.80893,62.01398],[7.80248,62.0145],[7.79778,62.01462],[7.79406,62.01447],[7.77779,62.01452],[7.77467,62.01428],[7.77127,62.01375],[7.75485,62.00984],[7.74545,62.00835],[7.74317,62.00758],[7.74051,62.00578],[7.73917,62.00522],[7.73723,62.00483],[7.73277,62.00448],[7.72754,62.0028],[7.72542,62.00264],[7.70471,62.00234],[7.70142,62.00268],[7.69871,62.00345],[7.69746,62.00406],[7.69484,62.00598],[7.69333,62.0068],[7.68241,62.01057],[7.67772,62.01306],[7.6743,62.0141],[7.67122,62.01447],[7.65239,62.01538],[7.64834,62.01516],[7.63452,62.01351],[7.63205,62.01345],[7.62981,62.01365],[7.62381,62.01484],[7.61567,62.01574],[7.60818,62.01783],[7.60118,62.01918],[7.59474,62.02076],[7.59168,62.02104],[7.58484,62.02091],[7.58075,62.0215],[7.57816,62.02238],[7.57422,62.0246],[7.5723,62.02515],[7.56773,62.02602],[7.56558,62.02666],[7.56316,62.02771],[7.55888,62.03036],[7.55716,62.03092],[7.55484,62.03126],[7.55229,62.03124],[7.55017,62.03089],[7.54847,62.03034],[7.54463,62.02867],[7.54167,62.02795],[7.53945,62.02775],[7.53408,62.02767],[7.52718,62.02686],[7.5243,62.02675],[7.51735,62.02683],[7.50793,62.0265],[7.49633,62.02693],[7.48006,62.02599],[7.47264,62.02484],[7.4563,62.02145],[7.43903,62.01925],[7.4232,62.01631],[7.40806,62.01479],[7.39815,62.01344],[7.39731,62.01349],[7.39545,62.01412],[7.3941,62.01423],[7.3878,62.01332],[7.38463,62.01339],[7.38223,62.01313],[7.37596,62.0133],[7.36982,62.01403],[7.36492,62.01498],[7.36119,62.01593],[7.35239,62.01741],[7.34984,62.0186],[7.34834,62.01994],[7.34385,62.02192],[7.34007,62.02419],[7.33259,62.02705],[7.33124,62.02775],[7.32996,62.02797],[7.32847,62.02793],[7.32614,62.02768],[7.32424,62.02713],[7.32278,62.02745],[7.32219,62.02783],[7.32169,62.02898],[7.32032,62.03025],[7.31727,62.03189],[7.31474,62.03158],[7.31203,62.0317],[7.31017,62.03156],[7.30752,62.03218],[7.30325,62.03244],[7.29857,62.03302],[7.29375,62.03215],[7.28878,62.03171],[7.28759,62.03124],[7.28607,62.03134],[7.28439,62.03102],[7.28227,62.03087],[7.27775,62.03121],[7.27515,62.03013],[7.27422,62.02943],[7.27269,62.02937],[7.27159,62.03002],[7.26817,62.0312],[7.26739,62.03253],[7.26499,62.03321],[7.26387,62.03425],[7.26057,62.03478],[7.25956,62.0352],[7.25879,62.03585],[7.25823,62.03726],[7.25838,62.03792],[7.2578,62.03843],[7.25769,62.03911],[7.2549,62.04078],[7.25461,62.04149],[7.25485,62.04324],[7.25371,62.04419],[7.25298,62.04546],[7.25374,62.04653],[7.25294,62.04786],[7.25237,62.0483],[7.25256,62.04893],[7.25169,62.04962],[7.25145,62.05051],[7.25056,62.05115],[7.25051,62.05191],[7.24977,62.0533],[7.24864,62.05364],[7.25001,62.05381],[7.25132,62.05364],[7.25172,62.05268],[7.25252,62.05215],[7.253,62.05217],[7.25383,62.05279],[7.25525,62.05214],[7.25578,62.05217],[7.25725,62.05383],[7.25784,62.05511],[7.2603,62.05703],[7.26064,62.05759],[7.26262,62.05816],[7.2609,62.05811],[7.25952,62.0575],[7.25834,62.05728],[7.25798,62.05735],[7.25794,62.05772],[7.25873,62.05812],[7.25827,62.0589],[7.2594,62.06002],[7.25898,62.06001],[7.25786,62.0595],[7.25761,62.05958],[7.259,62.06037],[7.26263,62.06049],[7.26512,62.05937],[7.26975,62.05851],[7.27151,62.05843],[7.26995,62.05874],[7.26735,62.05967],[7.2633,62.06194],[7.26164,62.06218],[7.26261,62.06239],[7.26446,62.06198],[7.26317,62.06332],[7.26232,62.06358],[7.261,62.06343],[7.26222,62.06392],[7.26264,62.06434],[7.26202,62.065],[7.26211,62.06689],[7.26177,62.06692],[7.26141,62.06527],[7.26108,62.0658],[7.26096,62.0681],[7.2597,62.06931],[7.25954,62.07017],[7.2564,62.07216],[7.25383,62.07319],[7.25114,62.07368],[7.25064,62.07358],[7.25057,62.07253],[7.24987,62.07225],[7.24609,62.07297],[7.2441,62.07396],[7.2402,62.07664],[7.23861,62.07703],[7.23596,62.07707],[7.23492,62.07726],[7.23185,62.0801],[7.23071,62.08069],[7.22846,62.08137],[7.22789,62.08227],[7.22834,62.08306],[7.22811,62.08383],[7.22699,62.08436],[7.22582,62.08538],[7.22603,62.08626],[7.22439,62.088],[7.22424,62.08888],[7.22332,62.08967],[7.22319,62.09129],[7.22442,62.09206],[7.22364,62.09224],[7.22365,62.09254],[7.22424,62.09271],[7.22501,62.09244],[7.22552,62.0925],[7.22616,62.09312],[7.2267,62.09427],[7.22643,62.09517],[7.22439,62.09684],[7.22257,62.09732],[7.22322,62.09692],[7.22403,62.09564],[7.22311,62.09624],[7.22152,62.09684],[7.22263,62.09573],[7.22214,62.09462],[7.22033,62.09326],[7.22004,62.09332],[7.22111,62.09419],[7.22005,62.09355],[7.21898,62.09329],[7.21904,62.09376],[7.21831,62.0943],[7.21825,62.09482],[7.2166,62.09516],[7.21555,62.09645],[7.21486,62.09652],[7.21276,62.09619],[7.21012,62.09643],[7.20784,62.09852],[7.20752,62.09844],[7.20825,62.09769],[7.20647,62.09872],[7.20636,62.099],[7.20753,62.10114],[7.20734,62.1018],[7.20675,62.10114],[7.20577,62.10066]],"type":"LineString"}},{"type":"Feature","properties":{"name":"Geiranger, Norway → Alesund, Norway"},"geometry":{"coordinates":[[7.20577,62.10066],[7.20675,62.10114],[7.20734,62.1018],[7.20288,62.10398],[7.20004,62.10597],[7.19505,62.10826],[7.19249,62.11098],[7.19009,62.11404],[7.1868,62.11528],[7.18577,62.11605],[7.18443,62.11641],[7.18234,62.11741],[7.17995,62.11816],[7.18458,62.11746],[7.18484,62.11758],[7.17943,62.11888],[7.18402,62.11859],[7.18458,62.11872],[7.17814,62.11987],[7.18027,62.11983],[7.18262,62.11999],[7.18428,62.12051],[7.18409,62.12063],[7.18337,62.12036],[7.18257,62.12029],[7.17819,62.1209],[7.18205,62.12118],[7.18391,62.12478],[7.18242,62.12357],[7.17899,62.12235],[7.17404,62.12268],[7.17154,62.12323],[7.17137,62.1235],[7.17166,62.12377],[7.17219,62.12383],[7.17373,62.12351],[7.17561,62.12344],[7.17984,62.12429],[7.17994,62.12446],[7.1754,62.12436],[7.17377,62.1249],[7.17204,62.12499],[7.16721,62.12622],[7.16752,62.12635],[7.1696,62.12612],[7.17237,62.12607],[7.17527,62.12685],[7.17725,62.12698],[7.17822,62.1273],[7.17999,62.12928],[7.18029,62.13087],[7.18144,62.13245],[7.18333,62.13443],[7.18469,62.1354],[7.18463,62.13776],[7.18362,62.13958],[7.18416,62.14253],[7.18269,62.14523],[7.18223,62.14703],[7.18246,62.148],[7.18373,62.14998],[7.18366,62.15177],[7.18277,62.15306],[7.18056,62.15492],[7.18019,62.15843],[7.17534,62.16561],[7.17214,62.16972],[7.17115,62.17324],[7.17037,62.17481],[7.16561,62.17996],[7.1631,62.18666],[7.16086,62.19009],[7.15824,62.1921],[7.15561,62.19316],[7.15151,62.19391],[7.1452,62.19428],[7.14278,62.1948],[7.13829,62.19783],[7.13672,62.19937],[7.13633,62.20023],[7.13645,62.20104],[7.13836,62.20485],[7.14053,62.20713],[7.14094,62.20983],[7.14218,62.2116],[7.1426,62.21438],[7.14404,62.21648],[7.14348,62.21911],[7.14299,62.21967],[7.14173,62.22043],[7.14208,62.22044],[7.14346,62.2198],[7.14377,62.2199],[7.14253,62.22092],[7.14117,62.22139],[7.1407,62.22204],[7.14042,62.22448],[7.14077,62.22591],[7.14052,62.2266],[7.14167,62.22744],[7.14449,62.23063],[7.14685,62.2325],[7.14885,62.2355],[7.14885,62.23294],[7.14936,62.23299],[7.14994,62.23344],[7.15033,62.23453],[7.15042,62.23702],[7.15157,62.23774],[7.15263,62.23917],[7.15468,62.2403],[7.15528,62.24101],[7.15596,62.24295],[7.15609,62.24449],[7.1568,62.24587],[7.15647,62.24775],[7.15714,62.24889],[7.16025,62.25198],[7.16159,62.25284],[7.16194,62.25397],[7.16371,62.25563],[7.1643,62.25678],[7.16582,62.25766],[7.16632,62.25883],[7.16884,62.25989],[7.1709,62.26215],[7.17178,62.26256],[7.17267,62.26233],[7.17285,62.26242],[7.1699,62.26386],[7.1696,62.26424],[7.16969,62.26503],[7.18016,62.27996],[7.18433,62.28359],[7.18545,62.28396],[7.18785,62.28439],[7.18935,62.28426],[7.18976,62.28445],[7.18582,62.28512],[7.18161,62.28552],[7.17067,62.28844],[7.16484,62.28941],[7.1641,62.28986],[7.16275,62.29231],[7.16151,62.29346],[7.15994,62.29419],[7.15279,62.29674],[7.15024,62.29702],[7.14564,62.29664],[7.14245,62.29692],[7.13869,62.2969],[7.13645,62.29731],[7.12665,62.29987],[7.12468,62.30025],[7.12146,62.30048],[7.11615,62.30035],[7.1141,62.30049],[7.11155,62.30118],[7.10902,62.30271],[7.10779,62.30321],[7.10572,62.30352],[7.10214,62.30326],[7.10025,62.30346],[7.08961,62.30723],[7.08847,62.30737],[7.0875,62.30729],[7.08476,62.30624],[7.08347,62.30609],[7.07589,62.30894],[7.07231,62.30923],[7.06882,62.31001],[7.06538,62.31],[7.06202,62.31118],[7.05774,62.31144],[7.05646,62.31182],[7.05395,62.31313],[7.05386,62.31366],[7.05552,62.31549],[7.05639,62.31767],[7.05929,62.32075],[7.06031,62.3247],[7.0611,62.32554],[7.06427,62.32765],[7.06618,62.32846],[7.07251,62.32992],[7.08353,62.33369],[7.08509,62.33371],[7.08746,62.3328],[7.08826,62.33276],[7.08921,62.33294],[7.09001,62.33357],[7.09123,62.33647],[7.09361,62.33849],[7.0936,62.33904],[7.09297,62.33975],[7.0952,62.33909],[7.09853,62.33935],[7.0992,62.33974],[7.09825,62.34197],[7.09563,62.34358],[7.095,62.34471],[7.09296,62.34615],[7.0919,62.34891],[7.09068,62.35047],[7.08864,62.35218],[7.088,62.35396],[7.08675,62.35563],[7.08647,62.35681],[7.08725,62.36135],[7.08651,62.36285],[7.08433,62.36506],[7.08409,62.3657],[7.08462,62.36649],[7.08653,62.36746],[7.08655,62.36802],[7.08598,62.36848],[7.08262,62.36985],[7.08064,62.37096],[7.07774,62.37197],[7.06991,62.37597],[7.06324,62.3776],[7.05985,62.37915],[7.05077,62.38114],[7.04499,62.38204],[7.03814,62.38278],[7.03116,62.38289],[7.02789,62.38349],[7.02468,62.38383],[7.01815,62.384],[7.01651,62.3839],[7.01022,62.38297],[7.00845,62.38293],[7.00482,62.38321],[6.99989,62.38226],[6.99679,62.3823],[6.9941,62.38194],[6.99033,62.3818],[6.98658,62.3821],[6.98615,62.38389],[6.98521,62.38431],[6.97517,62.38352],[6.97058,62.38351],[6.96796,62.38392],[6.96364,62.38496],[6.95934,62.3866],[6.95821,62.38721],[6.95759,62.38806],[6.95802,62.39006],[6.95786,62.39118],[6.95,62.41809],[6.94919,62.41917],[6.94687,62.4209],[6.94521,62.4227],[6.94396,62.42614],[6.94212,62.4282],[6.93953,62.42967],[6.93619,62.43079],[6.933,62.43137],[6.92764,62.43185],[6.92608,62.43224],[6.92207,62.43418],[6.91959,62.43571],[6.91466,62.43706],[6.9027,62.44691],[6.89867,62.44851],[6.8989,62.4489],[6.90064,62.44933],[6.90244,62.45079],[6.90383,62.4514],[6.90375,62.45177],[6.89127,62.45292],[6.88832,62.45303],[6.88222,62.45285],[6.88095,62.45453],[6.88109,62.45631],[6.88068,62.45659],[6.8796,62.45659],[6.8793,62.45676],[6.88019,62.45801],[6.87445,62.46109],[6.87161,62.46158],[6.86312,62.46262],[6.8604,62.46256],[6.85532,62.46205],[6.85439,62.46216],[6.85267,62.46287],[6.85121,62.46306],[6.84308,62.46287],[6.83961,62.46227],[6.8335,62.46254],[6.83235,62.4628],[6.83177,62.46358],[6.83311,62.46699],[6.83793,62.47223],[6.84315,62.47559],[6.84497,62.47721],[6.84505,62.47792],[6.84457,62.47847],[6.8408,62.48025],[6.83996,62.48029],[6.83173,62.47943],[6.82915,62.47947],[6.82847,62.47962],[6.82802,62.48014],[6.82626,62.48005],[6.82563,62.48016],[6.82473,62.48161],[6.8249,62.48185],[6.8177,62.48257],[6.80854,62.4826],[6.79886,62.48144],[6.79132,62.48117],[6.78789,62.48077],[6.78542,62.48078],[6.77992,62.48132],[6.77423,62.48087],[6.77241,62.48055],[6.7626,62.47795],[6.75835,62.4775],[6.74626,62.47723],[6.74066,62.4777],[6.7271,62.47746],[6.72192,62.47766],[6.71755,62.47762],[6.71038,62.4786],[6.70913,62.47916],[6.70862,62.48005],[6.70919,62.48091],[6.71158,62.48227],[6.71284,62.4826],[6.71598,62.48278],[6.71742,62.48312],[6.71887,62.48381],[6.72078,62.48541],[6.72529,62.48653],[6.72687,62.48754],[6.72735,62.48983],[6.72683,62.49087],[6.72577,62.49121],[6.71931,62.49159],[6.71343,62.49086],[6.70868,62.49089],[6.7071,62.49057],[6.70445,62.48972],[6.70292,62.48945],[6.69322,62.48907],[6.69138,62.4884],[6.68827,62.48557],[6.68596,62.48449],[6.68343,62.48399],[6.6787,62.48379],[6.67606,62.48341],[6.6739,62.48278],[6.66986,62.48089],[6.66842,62.48041],[6.66607,62.47992],[6.6636,62.47971],[6.6606,62.47982],[6.65714,62.4802],[6.64741,62.48215],[6.64127,62.48407],[6.63826,62.48579],[6.63564,62.4866],[6.62501,62.48744],[6.62227,62.48798],[6.61682,62.48945],[6.61457,62.48974],[6.609,62.48978],[6.6038,62.49001],[6.59726,62.48917],[6.59217,62.48909],[6.57731,62.48668],[6.56725,62.48564],[6.5648,62.4857],[6.55918,62.48672],[6.55675,62.48677],[6.55229,62.48582],[6.55111,62.48512],[6.55549,62.48489]],"type":"LineString"}},{"type":"Feature","properties":{"name":"Alesund, Norway → Trondheim, Norway"},"geometry":{"coordinates":[[6.55549,62.48489],[6.55111,62.48512],[6.55229,62.48582],[6.55675,62.48677],[6.55918,62.48672],[6.5648,62.4857],[6.56725,62.48564],[6.57731,62.48668],[6.59217,62.48909],[6.59726,62.48917],[6.6038,62.49001],[6.609,62.48978],[6.61457,62.48974],[6.61682,62.48945],[6.62227,62.48798],[6.62501,62.48744],[6.63564,62.4866],[6.63826,62.48579],[6.64127,62.48407],[6.64764,62.48209],[6.65758,62.48014],[6.66155,62.47976],[6.66446,62.4797],[6.66706,62.48],[6.66892,62.48049],[6.6735,62.48262],[6.67606,62.48341],[6.6787,62.48379],[6.68343,62.48399],[6.68637,62.48462],[6.68835,62.48563],[6.69117,62.48826],[6.693,62.48902],[6.6945,62.4892],[6.70292,62.48945],[6.70445,62.48972],[6.7071,62.49057],[6.70868,62.49089],[6.71343,62.49086],[6.71931,62.49159],[6.72577,62.49121],[6.72683,62.49087],[6.72735,62.48983],[6.72687,62.48754],[6.72529,62.48653],[6.72078,62.48541],[6.71887,62.48381],[6.71742,62.48312],[6.71598,62.48278],[6.71284,62.4826],[6.71158,62.48227],[6.70919,62.48091],[6.70862,62.48005],[6.70913,62.47916],[6.71038,62.4786],[6.71786,62.4776],[6.72192,62.47766],[6.7271,62.47746],[6.74066,62.4777],[6.74626,62.47723],[6.75835,62.4775],[6.7626,62.47795],[6.77241,62.48055],[6.77423,62.48087],[6.77992,62.48132],[6.78542,62.48078],[6.78789,62.48077],[6.79132,62.48117],[6.79886,62.48144],[6.80854,62.4826],[6.8177,62.48257],[6.8249,62.48185],[6.82903,62.4817],[6.8368,62.4825],[6.84455,62.48287],[6.84681,62.48261],[6.85479,62.48089],[6.85836,62.48052],[6.86179,62.4807],[6.86612,62.48139],[6.86899,62.48241],[6.87054,62.48375],[6.87088,62.48462],[6.87105,62.48805],[6.87352,62.49107],[6.87449,62.49413],[6.87511,62.49506],[6.87616,62.49572],[6.87759,62.49621],[6.88466,62.49728],[6.88809,62.49892],[6.89087,62.50163],[6.89331,62.50306],[6.89607,62.50525],[6.89734,62.5072],[6.89714,62.50958],[6.89746,62.51047],[6.90299,62.51469],[6.90522,62.51567],[6.91387,62.51796],[6.91519,62.51845],[6.91666,62.51948],[6.91855,62.52211],[6.92058,62.52329],[6.93124,62.52595],[6.93983,62.52884],[6.94371,62.53028],[6.95235,62.53425],[6.95383,62.53536],[6.95873,62.54038],[6.95934,62.54137],[6.95947,62.54334],[6.95985,62.54396],[6.96295,62.54555],[6.96601,62.54819],[6.96845,62.55099],[6.97686,62.55604],[6.98379,62.5585],[6.99268,62.55997],[7.01931,62.56272],[7.03158,62.56355],[7.03693,62.56449],[7.04066,62.56549],[7.04792,62.56622],[7.06429,62.56918],[7.0663,62.56937],[7.06978,62.56937],[7.08092,62.57044],[7.08666,62.57068],[7.08936,62.57112],[7.09377,62.57215],[7.09641,62.57321],[7.0983,62.57451],[7.09998,62.57701],[7.10065,62.57917],[7.10088,62.58874],[7.09795,62.59888],[7.09768,62.60219],[7.09803,62.60747],[7.0977,62.60885],[7.10576,62.61106],[7.10818,62.61139],[7.12762,62.6106],[7.13468,62.6106],[7.14092,62.61093],[7.14314,62.61148],[7.14453,62.6121],[7.14809,62.61483],[7.15041,62.61613],[7.15741,62.61874],[7.15942,62.61933],[7.16184,62.61983],[7.16393,62.62005],[7.17874,62.62106],[7.1839,62.62214],[7.18779,62.62253],[7.19461,62.62253],[7.19653,62.62224],[7.20061,62.61977],[7.2037,62.61858],[7.20531,62.61741],[7.21674,62.61258],[7.2218,62.61101],[7.23332,62.60849],[7.23504,62.60836],[7.23654,62.60845],[7.24223,62.60958],[7.25467,62.61558],[7.25617,62.61595],[7.2582,62.61598],[7.25949,62.61575],[7.26345,62.61453],[7.27204,62.61342],[7.27284,62.61307],[7.27497,62.61148],[7.27876,62.60995],[7.28809,62.6073],[7.29175,62.60657],[7.29471,62.60574],[7.30466,62.60421],[7.30697,62.60415],[7.31217,62.60433],[7.31544,62.60408],[7.31789,62.6036],[7.32366,62.60181],[7.32696,62.60021],[7.33218,62.5963],[7.34039,62.59095],[7.34728,62.58783],[7.35078,62.58588],[7.35322,62.58409],[7.35983,62.57816],[7.36253,62.57641],[7.36634,62.57452],[7.3836,62.56745],[7.3878,62.56608],[7.39149,62.56532],[7.39484,62.56492],[7.40358,62.56472],[7.40666,62.56442],[7.40989,62.56365],[7.41413,62.56216],[7.41527,62.56125],[7.4191,62.55583],[7.42097,62.55404],[7.42313,62.55265],[7.43398,62.5468],[7.43606,62.54516],[7.4371,62.54345],[7.43754,62.54092],[7.43723,62.53982],[7.43579,62.53766],[7.43587,62.53732],[7.44497,62.53345],[7.44805,62.53186],[7.4496,62.53147],[7.45152,62.53138],[7.45699,62.53232],[7.46039,62.53239],[7.47986,62.53017],[7.49578,62.53099],[7.50947,62.53072],[7.5127,62.53101],[7.52124,62.53231],[7.52286,62.53225],[7.52424,62.53187],[7.52505,62.53131],[7.52675,62.52842],[7.52987,62.52464],[7.53309,62.51665],[7.53691,62.5108],[7.53927,62.50775],[7.53955,62.50669],[7.5389,62.50457],[7.54021,62.50208],[7.54188,62.50018],[7.5439,62.49884],[7.54818,62.49751],[7.55096,62.49699],[7.5538,62.49675],[7.55697,62.49676],[7.56368,62.49741],[7.5659,62.49793],[7.56651,62.49854],[7.56581,62.49983],[7.56787,62.50297],[7.56779,62.50654],[7.56838,62.50747],[7.56943,62.5082],[7.5849,62.51557],[7.60682,62.52715],[7.62943,62.53757],[7.64302,62.54455],[7.64659,62.5457],[7.65703,62.54748],[7.65934,62.5482],[7.66097,62.54941],[7.66253,62.55441],[7.663,62.55475],[7.66449,62.55481],[7.66777,62.55327],[7.67119,62.55249],[7.67311,62.55233],[7.67638,62.55323],[7.67961,62.55473],[7.6831,62.55844],[7.69271,62.55736],[7.69674,62.5566],[7.70131,62.55533],[7.70486,62.55396],[7.71,62.55143],[7.71413,62.55042],[7.71569,62.54977],[7.71653,62.54885],[7.71689,62.54626],[7.71784,62.54472],[7.7223,62.54067],[7.72788,62.53838],[7.72892,62.53776],[7.72953,62.53688],[7.72969,62.53471],[7.73097,62.53367],[7.73352,62.53306],[7.74028,62.5331],[7.74339,62.53272],[7.75234,62.53017],[7.7537,62.52956],[7.75466,62.5288],[7.75742,62.52546],[7.75738,62.5246],[7.75638,62.52272],[7.75658,62.5213],[7.75758,62.5202],[7.76309,62.51642],[7.7647,62.51476],[7.76566,62.51264],[7.76547,62.50956],[7.76589,62.50772],[7.76679,62.50633],[7.76966,62.50384],[7.77028,62.50278],[7.76995,62.5012],[7.7684,62.49818],[7.76688,62.4969],[7.7625,62.49445],[7.76152,62.49342],[7.76102,62.4923],[7.76132,62.48454],[7.76239,62.48279],[7.76555,62.48003],[7.76777,62.47873],[7.77643,62.47588],[7.78292,62.47453],[7.79015,62.47267],[7.79763,62.46901],[7.79957,62.46873],[7.80399,62.46897],[7.8076,62.46865],[7.81164,62.46773],[7.81546,62.46628],[7.82049,62.46319],[7.82406,62.46028],[7.83829,62.44571],[7.8415,62.44108],[7.84263,62.44014],[7.84433,62.43918],[7.85241,62.43724],[7.85734,62.43633],[7.85958,62.43562],[7.86113,62.43533],[7.86595,62.43521],[7.86931,62.43483],[7.8743,62.43484],[7.88378,62.43345],[7.88634,62.43323],[7.89078,62.43332],[7.89419,62.43417],[7.89618,62.43437],[7.90339,62.43364],[7.91302,62.43166],[7.9178,62.43144],[7.92052,62.43007],[7.92495,62.42916],[7.93043,62.42851],[7.93271,62.42856],[7.93638,62.42907],[7.94097,62.42899],[7.94538,62.42766],[7.94615,62.42785],[7.94905,62.42945],[7.95087,62.42927],[7.95428,62.42831],[7.95511,62.42824],[7.95886,62.42953],[7.96138,62.42983],[7.96598,62.42977],[7.97638,62.42895],[7.97902,62.4284],[7.9845,62.426],[7.99516,62.42286],[7.99678,62.42213],[7.99785,62.4212],[7.99942,62.41876],[8.00372,62.4151],[8.00646,62.41131],[8.00846,62.40355],[8.00958,62.40177],[8.01163,62.40027],[8.01286,62.3975],[8.01465,62.39571],[8.01451,62.39357],[8.01504,62.39238],[8.0175,62.39063],[8.01928,62.38888],[8.02365,62.38666],[8.02651,62.38469],[8.02947,62.38153],[8.03393,62.37886],[8.0345,62.37814],[8.03553,62.37525],[8.03945,62.37274],[8.04117,62.36787],[8.04087,62.36519],[8.04207,62.36342],[8.04223,62.362],[8.04326,62.36044],[8.04318,62.35899],[8.04438,62.35589],[8.04917,62.35286],[8.05015,62.35099],[8.05097,62.35017],[8.05687,62.3472],[8.05793,62.34541],[8.05826,62.34379],[8.06094,62.34159],[8.06251,62.3394],[8.0675,62.33611],[8.06921,62.3343],[8.07157,62.33289],[8.07534,62.3283],[8.0779,62.32656],[8.07865,62.32503],[8.08398,62.32206],[8.08733,62.3197],[8.08986,62.31844],[8.09366,62.31615],[8.09577,62.31449],[8.09865,62.3132],[8.10127,62.31149],[8.10343,62.31066],[8.10468,62.30959],[8.10682,62.30858],[8.10824,62.30682],[8.11122,62.30476],[8.11292,62.30413],[8.1161,62.30375],[8.11804,62.30282],[8.12254,62.29927],[8.12289,62.2973],[8.12554,62.29445],[8.12665,62.29222],[8.13053,62.28997],[8.132,62.28805],[8.13573,62.28673],[8.13855,62.28505],[8.14231,62.28376],[8.14735,62.28048],[8.14985,62.27928],[8.15281,62.27834],[8.15504,62.27727],[8.1579,62.2754],[8.16179,62.27173],[8.16606,62.26909],[8.16825,62.26831],[8.17341,62.26759],[8.17682,62.26599],[8.17882,62.26538],[8.18429,62.26495],[8.1899,62.26504],[8.19148,62.26482],[8.1929,62.26438],[8.19647,62.26215],[8.20504,62.2583],[8.20586,62.25775],[8.20707,62.2574],[8.20999,62.25605],[8.21659,62.25023],[8.222,62.24594],[8.22534,62.24392],[8.22919,62.24242],[8.23256,62.24159],[8.2375,62.24081],[8.24426,62.2393],[8.24736,62.23905],[8.25324,62.23815],[8.25663,62.23795],[8.2598,62.23756],[8.26803,62.23763],[8.27412,62.23742],[8.27787,62.23703],[8.28399,62.23685],[8.28985,62.23683],[8.2931,62.23699],[8.29999,62.23553],[8.30573,62.23491],[8.3097,62.23507],[8.31461,62.23596],[8.31786,62.23593],[8.32644,62.23489],[8.33482,62.23356],[8.33757,62.2329],[8.34183,62.23129],[8.34585,62.23065],[8.35886,62.2304],[8.38007,62.2303],[8.3822,62.23048],[8.38707,62.23136],[8.39729,62.23177],[8.41024,62.23034],[8.4139,62.2295],[8.41863,62.22799],[8.42679,62.22585],[8.43998,62.22058],[8.44357,62.21833],[8.44739,62.21741],[8.46097,62.21292],[8.46551,62.21179],[8.47308,62.20885],[8.4775,62.20781],[8.48334,62.20522],[8.48869,62.20334],[8.49144,62.20208],[8.49627,62.20104],[8.50319,62.20003],[8.50706,62.1986],[8.51181,62.19776],[8.51488,62.19694],[8.5206,62.19484],[8.52331,62.19446],[8.53021,62.194],[8.53952,62.19255],[8.54468,62.19123],[8.55415,62.19078],[8.55948,62.19017],[8.5643,62.18941],[8.56782,62.18917],[8.57102,62.18872],[8.59474,62.1846],[8.5991,62.18407],[8.60295,62.18304],[8.61074,62.18149],[8.61381,62.18066],[8.62571,62.17659],[8.63111,62.1745],[8.63626,62.17285],[8.64548,62.16854],[8.65159,62.16679],[8.65452,62.16505],[8.65731,62.16383],[8.66113,62.16153],[8.66721,62.15935],[8.67561,62.15561],[8.67879,62.15458],[8.68142,62.15336],[8.68448,62.1524],[8.68565,62.15167],[8.68692,62.14988],[8.68961,62.14774],[8.6936,62.14509],[8.69872,62.14211],[8.7033,62.13883],[8.70975,62.13593],[8.71451,62.13438],[8.72046,62.13185],[8.72336,62.13094],[8.73854,62.12766],[8.74218,62.12717],[8.74514,62.12706],[8.7491,62.12662],[8.75789,62.12522],[8.75993,62.12512],[8.76626,62.12535],[8.77445,62.12631],[8.77879,62.12615],[8.78494,62.12494],[8.78887,62.12472],[8.79257,62.12393],[8.79537,62.12385],[8.80027,62.1234],[8.80363,62.12277],[8.8083,62.12243],[8.81171,62.12176],[8.82155,62.12063],[8.82828,62.12031],[8.83343,62.11953],[8.83701,62.11931],[8.8417,62.11842],[8.84719,62.11784],[8.85084,62.11784],[8.85794,62.11843],[8.8664,62.11842],[8.87207,62.11916],[8.88556,62.11967],[8.89234,62.11949],[8.89569,62.11974],[8.89948,62.11956],[8.90284,62.11993],[8.90907,62.1201],[8.91598,62.11993],[8.92048,62.11874],[8.9258,62.11838],[8.93096,62.11768],[8.94144,62.11584],[8.94598,62.11468],[8.95351,62.11351],[8.95998,62.11316],[8.96427,62.11217],[8.96801,62.11163],[8.97183,62.11082],[8.97775,62.10921],[8.98357,62.10737],[8.9889,62.10541],[8.9975,62.10352],[9.00059,62.10321],[9.00497,62.10333],[9.01089,62.10324],[9.01697,62.1021],[9.01872,62.10156],[9.02249,62.09953],[9.02511,62.09799],[9.02708,62.09646],[9.0329,62.09497],[9.03594,62.09466],[9.03942,62.09464],[9.04715,62.09416],[9.05347,62.09417],[9.07218,62.09245],[9.07994,62.09225],[9.0915,62.09014],[9.09261,62.08973],[9.09468,62.08852],[9.09754,62.08781],[9.09947,62.08761],[9.10516,62.08753],[9.11404,62.0863],[9.11652,62.08554],[9.12012,62.0837],[9.12321,62.08249],[9.12404,62.08185],[9.12504,62.08044],[9.12883,62.07788],[9.12918,62.0773],[9.12906,62.07653],[9.12839,62.07586],[9.12757,62.07557],[9.12852,62.07523],[9.12863,62.07494],[9.12651,62.07176],[9.12677,62.07146],[9.12745,62.07145],[9.13197,62.07425],[9.13694,62.07648],[9.13817,62.08005],[9.13814,62.08147],[9.13872,62.08223],[9.13955,62.0827],[9.145,62.08458],[9.15096,62.08552],[9.15622,62.08592],[9.16786,62.08782],[9.17862,62.09075],[9.18209,62.09221],[9.18558,62.09328],[9.19225,62.09483],[9.19841,62.09544],[9.21032,62.09536],[9.21213,62.09548],[9.22329,62.09759],[9.24534,62.10103],[9.24761,62.10162],[9.25923,62.10573],[9.2658,62.1074],[9.28072,62.1106],[9.28588,62.11222],[9.29127,62.11481],[9.30269,62.12255],[9.31118,62.13255],[9.31436,62.13517],[9.32075,62.13881],[9.3225,62.13938],[9.32636,62.14022],[9.32868,62.14111],[9.33566,62.14558],[9.34735,62.15252],[9.35876,62.15752],[9.36146,62.15933],[9.36475,62.16098],[9.36817,62.1642],[9.37614,62.16802],[9.38437,62.1703],[9.39003,62.17125],[9.40478,62.17257],[9.41135,62.1735],[9.41741,62.17363],[9.42214,62.17426],[9.42429,62.17437],[9.42664,62.17425],[9.43206,62.17346],[9.43543,62.17341],[9.45362,62.17529],[9.45883,62.17618],[9.47451,62.18064],[9.49473,62.18891],[9.49917,62.19046],[9.51973,62.1961],[9.53168,62.19881],[9.53723,62.20039],[9.54502,62.20367],[9.55266,62.2059],[9.55673,62.20792],[9.55896,62.20945],[9.55957,62.21092],[9.55888,62.21233],[9.5576,62.21324],[9.55387,62.21482],[9.55263,62.21595],[9.5519,62.21841],[9.55066,62.22087],[9.55026,62.22339],[9.54918,62.2249],[9.54737,62.22588],[9.54332,62.22707],[9.54018,62.22872],[9.53422,62.23081],[9.53247,62.23173],[9.53087,62.23303],[9.52996,62.23438],[9.52965,62.23563],[9.52981,62.2372],[9.5305,62.23912],[9.53264,62.24248],[9.53888,62.24771],[9.53998,62.2491],[9.54144,62.25181],[9.544,62.25399],[9.54621,62.25509],[9.55279,62.25753],[9.56106,62.26223],[9.56386,62.26349],[9.57098,62.26549],[9.57585,62.26599],[9.58281,62.26776],[9.5837,62.26866],[9.58322,62.27272],[9.5845,62.27533],[9.58527,62.27619],[9.58639,62.27688],[9.58798,62.27747],[9.59403,62.27842],[9.5972,62.27934],[9.59855,62.27987],[9.59947,62.28064],[9.59986,62.28568],[9.59905,62.28688],[9.59559,62.28981],[9.59458,62.2937],[9.59456,62.29493],[9.59648,62.2972],[9.6006,62.29965],[9.60243,62.30112],[9.60452,62.30341],[9.60754,62.30534],[9.61036,62.30786],[9.61151,62.30911],[9.6149,62.31462],[9.61845,62.31734],[9.62077,62.31864],[9.62129,62.31923],[9.6214,62.31996],[9.62062,62.32175],[9.62204,62.32641],[9.62155,62.32833],[9.62175,62.33129],[9.6213,62.33305],[9.62181,62.33496],[9.62165,62.33698],[9.62042,62.33961],[9.61896,62.34169],[9.6189,62.34254],[9.61998,62.3437],[9.62264,62.34503],[9.62555,62.34721],[9.63106,62.35008],[9.63186,62.35086],[9.63223,62.35443],[9.6316,62.35603],[9.63168,62.3569],[9.6326,62.35779],[9.63619,62.35959],[9.6377,62.36117],[9.63645,62.36513],[9.63679,62.36852],[9.64101,62.38027],[9.64037,62.38334],[9.63753,62.38682],[9.63729,62.38781],[9.63783,62.38918],[9.63594,62.39248],[9.63617,62.39428],[9.63505,62.39823],[9.63807,62.40725],[9.63819,62.40853],[9.63733,62.41187],[9.63624,62.41394],[9.6359,62.41632],[9.634,62.41862],[9.62926,62.4227],[9.61851,62.42995],[9.60797,62.43518],[9.60148,62.43923],[9.59193,62.44296],[9.58594,62.44643],[9.5772,62.44933],[9.57528,62.45031],[9.57436,62.45132],[9.57519,62.45738],[9.57723,62.45979],[9.57758,62.461],[9.57692,62.46399],[9.57441,62.47094],[9.57411,62.47265],[9.57426,62.47445],[9.57497,62.47615],[9.57595,62.47748],[9.58239,62.48361],[9.58542,62.48799],[9.58627,62.49],[9.58973,62.49499],[9.59043,62.49953],[9.59015,62.50291],[9.58982,62.50357],[9.58837,62.50453],[9.58796,62.50508],[9.58784,62.50579],[9.58822,62.50662],[9.58945,62.50783],[9.59157,62.50895],[9.59397,62.50939],[9.59572,62.50998],[9.59813,62.50999],[9.5996,62.51031],[9.60139,62.51164],[9.60307,62.5134],[9.60631,62.51512],[9.60834,62.518],[9.60967,62.52551],[9.61068,62.52766],[9.6139,62.53011],[9.61561,62.53239],[9.61665,62.53331],[9.61765,62.5337],[9.6217,62.53422],[9.62328,62.53482],[9.62545,62.53666],[9.62846,62.53976],[9.62987,62.54158],[9.63114,62.54484],[9.63208,62.54829],[9.63262,62.55275],[9.63314,62.5539],[9.63619,62.55777],[9.63885,62.56018],[9.64175,62.562],[9.64547,62.56629],[9.64876,62.57317],[9.65087,62.57474],[9.655,62.57713],[9.65843,62.57862],[9.66701,62.58031],[9.67052,62.58146],[9.6841,62.58919],[9.6877,62.5916],[9.68795,62.59198],[9.69155,62.59349],[9.69965,62.59521],[9.70012,62.59557],[9.70188,62.59614],[9.70608,62.59695],[9.71198,62.59779],[9.71864,62.59948],[9.73747,62.60759],[9.74495,62.60984],[9.75359,62.61465],[9.75708,62.61716],[9.76261,62.62038],[9.76699,62.62237],[9.7726,62.62603],[9.77384,62.62646],[9.77737,62.62704],[9.77908,62.62752],[9.7892,62.63233],[9.79941,62.63628],[9.80629,62.63964],[9.82065,62.64343],[9.82279,62.64375],[9.82798,62.64409],[9.82983,62.64436],[9.83431,62.64602],[9.83617,62.64649],[9.85359,62.64889],[9.85747,62.65006],[9.86349,62.65226],[9.87036,62.65345],[9.87323,62.65412],[9.87708,62.65542],[9.88229,62.65748],[9.88492,62.65821],[9.8879,62.6595],[9.8917,62.66182],[9.89264,62.66295],[9.89596,62.66507],[9.89793,62.66692],[9.9025,62.66909],[9.90371,62.66936],[9.90608,62.66955],[9.90738,62.66994],[9.91482,62.67516],[9.91882,62.67703],[9.92133,62.67879],[9.92381,62.67987],[9.92687,62.68164],[9.9287,62.68366],[9.9307,62.6868],[9.93252,62.68877],[9.93439,62.69235],[9.94066,62.69614],[9.94949,62.70195],[9.95203,62.70437],[9.95419,62.70785],[9.95559,62.7095],[9.95807,62.71099],[9.96129,62.71506],[9.96484,62.71753],[9.96609,62.71973],[9.96628,62.72187],[9.96773,62.72478],[9.96909,62.72593],[9.97003,62.72752],[9.97301,62.72901],[9.9749,62.73076],[9.97552,62.73161],[9.9757,62.73309],[9.97752,62.73447],[9.97767,62.73522],[9.97693,62.73684],[9.9791,62.74018],[9.97876,62.74298],[9.98207,62.74777],[9.98311,62.75019],[9.98434,62.75155],[9.98597,62.75266],[9.99305,62.75582],[9.99455,62.75741],[9.99481,62.76062],[9.99317,62.76282],[9.99083,62.76485],[9.98912,62.76738],[9.98868,62.77047],[9.98899,62.77187],[9.98801,62.77401],[9.98896,62.77621],[9.988,62.77811],[9.98818,62.77872],[9.99011,62.77975],[9.99073,62.7807],[9.99266,62.78211],[9.99436,62.78396],[10.00217,62.78798],[10.00394,62.79088],[10.00526,62.79206],[10.00738,62.7929],[10.01342,62.79404],[10.01716,62.79558],[10.02044,62.79625],[10.02177,62.7967],[10.02249,62.79717],[10.02448,62.79961],[10.02578,62.80029],[10.02978,62.80161],[10.03149,62.80282],[10.03319,62.80362],[10.03455,62.80539],[10.03452,62.80606],[10.03319,62.80708],[10.03176,62.80915],[10.0311,62.81176],[10.03202,62.81278],[10.03451,62.81348],[10.03525,62.81397],[10.0354,62.81477],[10.03499,62.81543],[10.03408,62.81589],[10.03292,62.81608],[10.02996,62.81586],[10.02521,62.81581],[10.02355,62.81598],[10.02201,62.81641],[10.01887,62.81825],[10.01353,62.8224],[10.00892,62.82491],[10.00792,62.82603],[10.00812,62.82673],[10.00958,62.82822],[10.01177,62.83237],[10.01369,62.83481],[10.01442,62.83634],[10.01529,62.83899],[10.01609,62.84399],[10.01914,62.84917],[10.01985,62.85166],[10.02105,62.85404],[10.02129,62.85632],[10.02106,62.85991],[10.0218,62.86228],[10.02398,62.86421],[10.02591,62.86697],[10.02748,62.86792],[10.03328,62.86977],[10.03565,62.87015],[10.03929,62.87023],[10.04819,62.87002],[10.06111,62.86733],[10.0633,62.86708],[10.06724,62.86701],[10.07059,62.86602],[10.07563,62.86642],[10.07709,62.86678],[10.08129,62.86888],[10.08419,62.8713],[10.08546,62.87347],[10.08572,62.87491],[10.09001,62.87844],[10.09249,62.88139],[10.09527,62.8829],[10.09849,62.88348],[10.09939,62.88389],[10.1,62.88543],[10.10159,62.88667],[10.10119,62.88915],[10.10247,62.89272],[10.10935,62.89799],[10.11088,62.8996],[10.11459,62.90261],[10.11795,62.90447],[10.12031,62.90526],[10.12296,62.90659],[10.12549,62.9075],[10.12738,62.90856],[10.12962,62.90949],[10.13437,62.91084],[10.13597,62.91157],[10.13896,62.91403],[10.14209,62.91773],[10.14893,62.92337],[10.15169,62.92497],[10.15681,62.92661],[10.16392,62.92817],[10.16634,62.92835],[10.17136,62.92816],[10.1778,62.92876],[10.17953,62.92936],[10.18112,62.9304],[10.18246,62.93084],[10.18451,62.932],[10.18644,62.93361],[10.18703,62.93575],[10.18758,62.93659],[10.1905,62.93866],[10.19146,62.93971],[10.19176,62.94083],[10.19104,62.94327],[10.19096,62.94512],[10.19188,62.94755],[10.19676,62.95568],[10.19915,62.95862],[10.20197,62.96149],[10.20675,62.9654],[10.21239,62.96908],[10.21879,62.97249],[10.2299,62.97733],[10.23303,62.97928],[10.23678,62.98273],[10.243,62.98513],[10.24399,62.986],[10.24497,62.98777],[10.24773,62.99014],[10.24803,62.99142],[10.24716,62.99269],[10.24552,62.9936],[10.24182,62.99489],[10.24002,62.99623],[10.23827,63.00027],[10.23795,63.00225],[10.23841,63.00421],[10.23957,63.00605],[10.24637,63.01237],[10.24668,63.01361],[10.24611,63.01622],[10.24611,63.01834],[10.24688,63.01968],[10.24931,63.02221],[10.25252,63.0245],[10.2581,63.02671],[10.26742,63.02872],[10.27276,63.03073],[10.27568,63.03158],[10.27917,63.03215],[10.28671,63.03288],[10.2895,63.03352],[10.29483,63.03604],[10.29756,63.03805],[10.29861,63.03998],[10.30026,63.04617],[10.30159,63.04846],[10.30166,63.04994],[10.30096,63.05123],[10.29955,63.05252],[10.2928,63.05664],[10.29132,63.05781],[10.29052,63.05927],[10.29048,63.06168],[10.29007,63.06342],[10.28859,63.06563],[10.28637,63.06734],[10.28365,63.06849],[10.27971,63.06917],[10.27072,63.07021],[10.26869,63.07073],[10.26749,63.0713],[10.26076,63.07695],[10.25645,63.08118],[10.25121,63.08483],[10.25042,63.08621],[10.2501,63.0895],[10.24861,63.0913],[10.24721,63.09205],[10.23989,63.09457],[10.2367,63.09611],[10.23486,63.09771],[10.23302,63.10081],[10.23335,63.10236],[10.23534,63.10436],[10.23602,63.10577],[10.23581,63.10696],[10.23436,63.10926],[10.23447,63.11052],[10.23635,63.11197],[10.24042,63.11363],[10.24207,63.11518],[10.24512,63.12116],[10.24485,63.12254],[10.24326,63.12458],[10.24334,63.12599],[10.2456,63.12951],[10.24835,63.13225],[10.25252,63.13558],[10.25425,63.13808],[10.26654,63.14628],[10.27211,63.1492],[10.28194,63.15193],[10.28599,63.1522],[10.28833,63.15262],[10.29167,63.15397],[10.29716,63.15973],[10.31187,63.16665],[10.31398,63.16913],[10.31668,63.1742],[10.3168,63.1771],[10.31646,63.1803],[10.31567,63.1821],[10.31369,63.18516],[10.30243,63.19687],[10.30154,63.19873],[10.30183,63.20534],[10.30044,63.2077],[10.30651,63.21366],[10.30703,63.2153],[10.30628,63.2177],[10.30518,63.2186],[10.30261,63.21967],[10.30088,63.22011],[10.29553,63.22099],[10.29263,63.22211],[10.28828,63.22527],[10.28405,63.22793],[10.28161,63.22904],[10.2773,63.23052],[10.27499,63.23168],[10.27315,63.2332],[10.27224,63.2347],[10.27205,63.23608],[10.27236,63.23727],[10.2751,63.24073],[10.27594,63.24253],[10.27601,63.24641],[10.27639,63.24774],[10.27752,63.24938],[10.2818,63.2536],[10.28351,63.25846],[10.28594,63.2624],[10.28633,63.26443],[10.28613,63.26945],[10.28694,63.27325],[10.28647,63.27491],[10.28499,63.2765],[10.28343,63.27747],[10.27596,63.28106],[10.27449,63.28207],[10.27321,63.28337],[10.27231,63.28465],[10.27186,63.28607],[10.27243,63.29045],[10.273,63.2916],[10.27419,63.29262],[10.28331,63.29729],[10.28606,63.2994],[10.28727,63.30113],[10.2901,63.30823],[10.2957,63.31619],[10.29699,63.31738],[10.29882,63.31856],[10.30123,63.31968],[10.30373,63.3205],[10.30604,63.32104],[10.3144,63.32249],[10.32199,63.32484],[10.32548,63.32562],[10.33084,63.32616],[10.34248,63.32607],[10.3454,63.32642],[10.34824,63.32715],[10.35022,63.32801],[10.35183,63.32909],[10.36248,63.33921],[10.36717,63.34276],[10.3684,63.34396],[10.3694,63.34536],[10.3701,63.34709],[10.37119,63.35642],[10.3719,63.35867],[10.37377,63.36178],[10.37811,63.36662],[10.37965,63.36962],[10.3797,63.3711],[10.3793,63.37234],[10.37592,63.37676],[10.37508,63.37838],[10.37482,63.38028],[10.3754,63.38237],[10.37784,63.3859],[10.38134,63.38949],[10.39085,63.39563],[10.39326,63.39769],[10.39508,63.40047],[10.39885,63.40879],[10.39932,63.41176],[10.39906,63.4133],[10.39468,63.42204],[10.39301,63.42751],[10.39979,63.42794],[10.40146,63.43027],[10.3959,63.43047]],"type":"LineString"}},{"type":"Feature","properties":{"name":"Bergen, Norway"},"geometry":{"type":"Point","coordinates":[5.32592,60.39431]}},{"type":"Feature","properties":{"name":"Voss, Norway"},"geometry":{"type":"Point","coordinates":[6.40791,60.68371]}},{"type":"Feature","properties":{"name":"Flam, Norway"},"geometry":{"type":"Point","coordinates":[7.11318,60.86295]}},{"type":"Feature","properties":{"name":"Geiranger, Norway"},"geometry":{"type":"Point","coordinates":[7.2059,62.10063]}},{"type":"Feature","properties":{"name":"Alesund, Norway"},"geometry":{"type":"Point","coordinates":[6.55507,62.48024]}},{"type":"Feature","properties":{"name":"Trondheim, Norway"},"geometry":{"type":"Point","coordinates":[10.39521,63.43045]}}]}