{"type":"FeatureCollection","features":[{"type":"Feature","properties":{"name":"Puerto Natales, Chile → El Calafate, Argentina"},"geometry":{"coordinates":[[-72.50542,-51.7261],[-72.5059,-51.72504],[-72.50999,-51.72348],[-72.50627,-51.72006],[-72.49472,-51.71528],[-72.48987,-51.71411],[-72.48467,-51.71409],[-72.4825,-51.71385],[-72.48079,-51.71333],[-72.47786,-51.71207],[-72.47624,-51.7117],[-72.4587,-51.71002],[-72.45631,-51.70953],[-72.44571,-51.70588],[-72.4333,-51.69984],[-72.43167,-51.69852],[-72.42928,-51.6956],[-72.42767,-51.69462],[-72.4054,-51.68829],[-72.40357,-51.68812],[-72.40195,-51.68831],[-72.39462,-51.69068],[-72.37101,-51.66882],[-72.36006,-51.66493],[-72.3594,-51.66449],[-72.35835,-51.66307],[-72.35772,-51.6626],[-72.34585,-51.65758],[-72.34484,-51.65693],[-72.34081,-51.65088],[-72.32786,-51.63265],[-72.32759,-51.63191],[-72.3279,-51.63108],[-72.33006,-51.62862],[-72.33047,-51.62751],[-72.33306,-51.60906],[-72.33251,-51.60583],[-72.33264,-51.60518],[-72.33896,-51.59946],[-72.34178,-51.59794],[-72.34495,-51.59711],[-72.34728,-51.59409],[-72.34908,-51.59391],[-72.34971,-51.59367],[-72.35039,-51.59227],[-72.35124,-51.59143],[-72.35059,-51.58862],[-72.34827,-51.58731],[-72.34785,-51.58657],[-72.34821,-51.58609],[-72.3504,-51.58551],[-72.35095,-51.58499],[-72.35077,-51.5827],[-72.35171,-51.58121],[-72.35014,-51.5776],[-72.35022,-51.57652],[-72.35074,-51.57519],[-72.34885,-51.57314],[-72.34665,-51.57147],[-72.34521,-51.5688],[-72.34587,-51.56711],[-72.34571,-51.56237],[-72.34626,-51.56155],[-72.34759,-51.56101],[-72.34791,-51.56047],[-72.34711,-51.55792],[-72.34676,-51.55569],[-72.3456,-51.5539],[-72.34566,-51.55244],[-72.34529,-51.55013],[-72.34539,-51.54787],[-72.34245,-51.54459],[-72.34151,-51.5428],[-72.34143,-51.54188],[-72.33945,-51.54001],[-72.33663,-51.53839],[-72.33413,-51.53742],[-72.33373,-51.53686],[-72.33303,-51.53656],[-72.33101,-51.53697],[-72.32962,-51.53764],[-72.3289,-51.53773],[-72.32707,-51.53782],[-72.32367,-51.53678],[-72.31767,-51.53812],[-72.31063,-51.53817],[-72.30957,-51.53844],[-72.30692,-51.53962],[-72.30484,-51.53987],[-72.3006,-51.53911],[-72.29315,-51.53658],[-72.28681,-51.53533],[-72.28098,-51.53505],[-72.27986,-51.53521],[-72.27666,-51.53611],[-72.2642,-51.53745],[-72.2389,-51.54433],[-72.23635,-51.54464],[-72.23554,-51.54428],[-72.23532,-51.54285],[-72.23549,-51.54198],[-72.23674,-51.54072],[-72.24906,-51.5369],[-72.25841,-51.53318],[-72.26001,-51.53229],[-72.26145,-51.53093],[-72.26563,-51.52585],[-72.26611,-51.52469],[-72.2659,-51.52376],[-72.26398,-51.51979],[-72.26379,-51.51602],[-72.26229,-51.51249],[-72.26108,-51.51123],[-72.25505,-51.50693],[-72.25394,-51.50577],[-72.25336,-51.50472],[-72.25281,-51.50203],[-72.25077,-51.49685],[-72.24801,-51.49397],[-72.24721,-51.49117],[-72.24263,-51.48791],[-72.24181,-51.48535],[-72.23807,-51.48131],[-72.23719,-51.4765],[-72.23644,-51.47568],[-72.23073,-51.47176],[-72.2281,-51.46611],[-72.22802,-51.46479],[-72.22952,-51.45579],[-72.22645,-51.44681],[-72.22642,-51.44589],[-72.22717,-51.4424],[-72.22681,-51.4384],[-72.22713,-51.4376],[-72.22884,-51.43548],[-72.2288,-51.4345],[-72.22796,-51.43249],[-72.22832,-51.43124],[-72.22933,-51.43025],[-72.23359,-51.42774],[-72.23445,-51.42661],[-72.23459,-51.42577],[-72.23429,-51.42434],[-72.23431,-51.42201],[-72.23188,-51.41732],[-72.22869,-51.41395],[-72.2281,-51.41148],[-72.22753,-51.41063],[-72.22593,-51.4097],[-72.22095,-51.40788],[-72.21992,-51.40708],[-72.21932,-51.40602],[-72.21871,-51.4039],[-72.2188,-51.40246],[-72.21954,-51.40004],[-72.21949,-51.39913],[-72.21906,-51.39842],[-72.21672,-51.39665],[-72.21584,-51.39623],[-72.21104,-51.39519],[-72.20911,-51.39441],[-72.20535,-51.39151],[-72.204,-51.38971],[-72.19984,-51.37507],[-72.19952,-51.37318],[-72.19951,-51.36827],[-72.20076,-51.36407],[-72.19995,-51.35792],[-72.20084,-51.35409],[-72.20065,-51.35286],[-72.20001,-51.35163],[-72.19794,-51.34892],[-72.19337,-51.34487],[-72.1925,-51.34338],[-72.19157,-51.34071],[-72.19203,-51.33849],[-72.19207,-51.33531],[-72.19235,-51.33463],[-72.19322,-51.33371],[-72.19657,-51.33162],[-72.19783,-51.3304],[-72.19833,-51.32932],[-72.19841,-51.32713],[-72.19778,-51.32565],[-72.19375,-51.32093],[-72.19322,-51.31953],[-72.19254,-51.31615],[-72.18788,-51.30751],[-72.18597,-51.30603],[-72.1828,-51.30447],[-72.18179,-51.30366],[-72.1814,-51.3029],[-72.18137,-51.30135],[-72.18308,-51.29857],[-72.18364,-51.2967],[-72.18334,-51.28826],[-72.18288,-51.28689],[-72.18129,-51.28519],[-72.14331,-51.25081],[-72.11125,-51.22498],[-72.10986,-51.22352],[-72.10941,-51.22216],[-72.10954,-51.22105],[-72.11087,-51.21761],[-72.11189,-51.21611],[-72.11416,-51.2146],[-72.1214,-51.21099],[-72.12263,-51.21023],[-72.12377,-51.20903],[-72.12415,-51.20821],[-72.12418,-51.20661],[-72.12323,-51.20359],[-72.12258,-51.20271],[-72.12047,-51.20141],[-72.10615,-51.19603],[-72.07941,-51.18984],[-72.05736,-51.1822],[-72.02493,-51.17375],[-72.02268,-51.17283],[-72.00831,-51.16603],[-72.00595,-51.16508],[-71.96318,-51.15074],[-71.96055,-51.14972],[-71.93902,-51.13371],[-71.93636,-51.13218],[-71.93383,-51.1313],[-71.93164,-51.1308],[-71.8974,-51.12457],[-71.89385,-51.12373],[-71.86052,-51.11041],[-71.85917,-51.10926],[-71.83719,-51.08031],[-71.813,-51.05891],[-71.81127,-51.05795],[-71.8096,-51.05745],[-71.80712,-51.05718],[-71.80468,-51.05737],[-71.80317,-51.05469],[-71.80218,-51.05099],[-71.79922,-51.04438],[-71.78163,-51.02693],[-71.78107,-51.02572],[-71.78057,-51.02209],[-71.77651,-51.01796],[-71.77441,-51.01464],[-71.77176,-51.01282],[-71.72638,-50.98521],[-71.6831,-50.93875],[-71.68139,-50.93797],[-71.66608,-50.93366],[-71.66495,-50.93317],[-71.66376,-50.932],[-71.65846,-50.92372],[-71.6576,-50.92311],[-71.61841,-50.91114],[-71.60369,-50.90203],[-71.57214,-50.88197],[-71.57128,-50.88169],[-71.57022,-50.88163],[-71.55598,-50.8827],[-71.54797,-50.8822],[-71.54375,-50.88301],[-71.54232,-50.88292],[-71.53195,-50.87793],[-71.5305,-50.8776],[-71.52613,-50.87724],[-71.52462,-50.87686],[-71.52148,-50.87501],[-71.51798,-50.8718],[-71.5129,-50.86983],[-71.50164,-50.86204],[-71.50025,-50.8614],[-71.4919,-50.85845],[-71.49033,-50.85762],[-71.48979,-50.85703],[-71.48946,-50.85621],[-71.48926,-50.85385],[-71.48858,-50.85306],[-71.48735,-50.85259],[-71.48557,-50.85223],[-71.48159,-50.8518],[-71.48046,-50.85131],[-71.47993,-50.85056],[-71.48002,-50.84968],[-71.48628,-50.8393],[-71.48866,-50.83447],[-71.48883,-50.83355],[-71.48857,-50.83291],[-71.48799,-50.83234],[-71.48022,-50.82698],[-71.479,-50.82519],[-71.47872,-50.82363],[-71.47748,-50.80367],[-71.47714,-50.80182],[-71.47647,-50.8007],[-71.47592,-50.80012],[-71.47475,-50.79938],[-71.43827,-50.78033],[-71.42341,-50.77146],[-71.41587,-50.76645],[-71.41483,-50.76556],[-71.41442,-50.7648],[-71.41435,-50.76394],[-71.4146,-50.76311],[-71.41739,-50.75852],[-71.41837,-50.75738],[-71.43433,-50.74581],[-71.43555,-50.7445],[-71.4361,-50.74334],[-71.43627,-50.74212],[-71.43383,-50.70343],[-71.43358,-50.70239],[-71.43271,-50.7014],[-71.43123,-50.70059],[-71.41603,-50.69694],[-71.41398,-50.69597],[-71.41259,-50.69479],[-71.37294,-50.63221],[-71.37228,-50.63093],[-71.37169,-50.62887],[-71.37162,-50.62662],[-71.37218,-50.62089],[-71.37253,-50.61982],[-71.37307,-50.61916],[-71.37464,-50.61819],[-71.38066,-50.61687],[-71.38276,-50.61566],[-71.41208,-50.59015],[-71.41335,-50.58885],[-71.4141,-50.5873],[-71.41478,-50.5825],[-71.41859,-50.57609],[-71.42517,-50.56327],[-71.42651,-50.56118],[-71.43776,-50.54677],[-71.43819,-50.54492],[-71.43783,-50.54226],[-71.43794,-50.54122],[-71.44454,-50.51805],[-71.44993,-50.51041],[-71.45067,-50.50887],[-71.45085,-50.50764],[-71.45003,-50.49883],[-71.45833,-50.47149],[-71.45928,-50.46961],[-71.46675,-50.46077],[-71.48577,-50.44413],[-71.48779,-50.44296],[-71.50103,-50.4375],[-71.50392,-50.4357],[-71.5055,-50.43405],[-71.5059,-50.43297],[-71.50851,-50.4193],[-71.50916,-50.41831],[-71.51417,-50.41305],[-71.5148,-50.41207],[-71.51512,-50.41047],[-71.51493,-50.4094],[-71.51159,-50.40153],[-71.50716,-50.38195],[-71.50887,-50.36569],[-71.50876,-50.36439],[-71.50697,-50.35682],[-71.50691,-50.355],[-71.50783,-50.35314],[-71.51454,-50.34526],[-71.51562,-50.34455],[-71.51895,-50.34321],[-71.5209,-50.3427],[-71.52219,-50.34262],[-71.52352,-50.34275],[-71.53246,-50.34524],[-71.53795,-50.34611],[-71.54059,-50.34687],[-71.54513,-50.34872],[-71.54714,-50.34925],[-71.55476,-50.34989],[-71.56509,-50.34865],[-71.56653,-50.34797],[-71.56773,-50.34637],[-71.56852,-50.34583],[-71.57259,-50.34485],[-71.57371,-50.34494],[-71.57552,-50.34541],[-71.57851,-50.345],[-71.57972,-50.34523],[-71.58347,-50.34734],[-71.58391,-50.34798],[-71.58384,-50.34949],[-71.58405,-50.34999],[-71.58498,-50.35057],[-71.58602,-50.35073],[-71.58697,-50.35059],[-71.59148,-50.34913],[-71.59342,-50.34745],[-71.59597,-50.34648],[-71.59688,-50.34637],[-71.59989,-50.34647],[-71.60252,-50.34531],[-71.60431,-50.34489],[-71.60577,-50.34481],[-71.60696,-50.34498],[-71.61146,-50.34609],[-71.61515,-50.34639],[-71.61622,-50.34633],[-71.61685,-50.34606],[-71.61981,-50.34359],[-71.62433,-50.34212],[-71.63267,-50.34074],[-71.63413,-50.34033],[-71.64868,-50.33382],[-71.65037,-50.3328],[-71.65154,-50.33157],[-71.65223,-50.33001],[-71.65399,-50.31718],[-71.65433,-50.31616],[-71.65497,-50.31519],[-71.66116,-50.30963],[-71.66328,-50.30889],[-71.66779,-50.30864],[-71.66977,-50.30808],[-71.69024,-50.2988],[-71.70375,-50.29563],[-71.70589,-50.29519],[-71.70822,-50.29501],[-71.7358,-50.29552],[-71.75152,-50.29715],[-71.76089,-50.29894],[-71.76335,-50.29922],[-71.78166,-50.29944],[-71.80103,-50.30078],[-71.81379,-50.30008],[-71.81545,-50.30017],[-71.822,-50.30178],[-71.84711,-50.30708],[-71.85956,-50.31116],[-71.86686,-50.31406],[-71.86911,-50.31459],[-71.89689,-50.3171],[-71.91818,-50.3175],[-71.95781,-50.31978],[-71.96352,-50.32084],[-71.96499,-50.32096],[-71.97266,-50.32078],[-71.98859,-50.3185],[-71.99199,-50.31791],[-72.00507,-50.31502],[-72.02002,-50.31256],[-72.06834,-50.31105],[-72.08279,-50.31255],[-72.09039,-50.31367],[-72.10425,-50.3166],[-72.11614,-50.32128],[-72.12297,-50.32333],[-72.1245,-50.32362],[-72.13418,-50.32472],[-72.13553,-50.32473],[-72.13766,-50.32446],[-72.14118,-50.32349],[-72.15758,-50.31736],[-72.16571,-50.31633],[-72.16915,-50.31628],[-72.17163,-50.31676],[-72.19052,-50.32256],[-72.19227,-50.32329],[-72.20006,-50.32775],[-72.21267,-50.33175],[-72.21615,-50.332],[-72.22572,-50.33137],[-72.22812,-50.33169],[-72.23123,-50.33254],[-72.23209,-50.33263],[-72.23303,-50.33244],[-72.23464,-50.33163],[-72.23585,-50.33149],[-72.24544,-50.33447],[-72.24616,-50.33359],[-72.2484,-50.33343],[-72.25679,-50.33567],[-72.25727,-50.33588],[-72.25785,-50.33651],[-72.25732,-50.33823],[-72.2575,-50.33835],[-72.25873,-50.33849],[-72.26138,-50.33774],[-72.27548,-50.33881],[-72.27545,-50.33892],[-72.27371,-50.33879]],"type":"LineString"}},{"type":"Feature","properties":{"name":"El Calafate, Argentina → El Chalten, Argentina"},"geometry":{"coordinates":[[-72.27371,-50.33879],[-72.26135,-50.33786],[-72.25883,-50.33857],[-72.25752,-50.33846],[-72.25007,-50.34129],[-72.24964,-50.34234],[-72.24915,-50.34269],[-72.24861,-50.34274],[-72.2471,-50.34228],[-72.24645,-50.34229],[-72.24588,-50.34254],[-72.2447,-50.34383],[-72.24273,-50.34428],[-72.24191,-50.34384],[-72.23993,-50.34322],[-72.23865,-50.34232],[-72.23805,-50.34156],[-72.23472,-50.33473],[-72.23348,-50.33366],[-72.2319,-50.33328],[-72.23123,-50.33254],[-72.22852,-50.33178],[-72.22597,-50.33139],[-72.22359,-50.33142],[-72.21574,-50.33201],[-72.21333,-50.33186],[-72.21146,-50.33145],[-72.20006,-50.32775],[-72.19227,-50.32329],[-72.19052,-50.32256],[-72.17163,-50.31676],[-72.16915,-50.31628],[-72.16571,-50.31633],[-72.15758,-50.31736],[-72.14118,-50.32349],[-72.13714,-50.32457],[-72.13478,-50.32474],[-72.1245,-50.32362],[-72.12212,-50.32312],[-72.11614,-50.32128],[-72.10425,-50.3166],[-72.09501,-50.31462],[-72.08681,-50.31305],[-72.06871,-50.31107],[-72.02002,-50.31256],[-72.00507,-50.31502],[-71.99199,-50.31791],[-71.98859,-50.3185],[-71.97266,-50.32078],[-71.96499,-50.32096],[-71.96352,-50.32084],[-71.95781,-50.31978],[-71.91818,-50.3175],[-71.89689,-50.3171],[-71.8697,-50.31466],[-71.86686,-50.31406],[-71.85956,-50.31116],[-71.85494,-50.30971],[-71.85604,-50.30861],[-71.85994,-50.30691],[-71.86224,-50.30536],[-71.86355,-50.30403],[-71.86646,-50.30019],[-71.87256,-50.29445],[-71.87342,-50.29306],[-71.87454,-50.2847],[-71.87541,-50.28223],[-71.87617,-50.28142],[-71.87888,-50.27934],[-71.88604,-50.27425],[-71.88865,-50.27105],[-71.88889,-50.27014],[-71.88845,-50.26916],[-71.88738,-50.26841],[-71.88272,-50.26626],[-71.88225,-50.26553],[-71.88249,-50.26474],[-71.8832,-50.26421],[-71.88397,-50.26392],[-71.88672,-50.26343],[-71.88827,-50.26295],[-71.88926,-50.2624],[-71.89018,-50.26157],[-71.90005,-50.24561],[-71.9017,-50.24317],[-71.90392,-50.24091],[-71.90614,-50.23937],[-71.91234,-50.23629],[-71.92885,-50.22481],[-71.93162,-50.22219],[-71.93383,-50.21897],[-71.93477,-50.21641],[-71.93633,-50.20558],[-71.93711,-50.20383],[-71.93828,-50.20235],[-71.93992,-50.201],[-71.94304,-50.19942],[-71.95441,-50.19593],[-71.9564,-50.19497],[-71.95812,-50.19311],[-71.95903,-50.18952],[-71.96183,-50.1835],[-71.9625,-50.18253],[-71.96386,-50.18139],[-71.96483,-50.18091],[-71.97058,-50.17918],[-71.97268,-50.17814],[-71.98248,-50.17093],[-71.98328,-50.17016],[-71.98383,-50.16951],[-71.98451,-50.16798],[-71.98587,-50.16262],[-71.98537,-50.15881],[-71.98578,-50.15801],[-71.98664,-50.15765],[-71.9931,-50.15661],[-71.99479,-50.15671],[-71.99801,-50.15746],[-72.00012,-50.15749],[-72.00729,-50.15535],[-72.01071,-50.15408],[-72.01492,-50.15162],[-72.02265,-50.14566],[-72.02726,-50.1429],[-72.07532,-50.12363],[-72.07801,-50.12205],[-72.07944,-50.12063],[-72.08717,-50.11121],[-72.08975,-50.10957],[-72.09078,-50.10915],[-72.09535,-50.10803],[-72.09712,-50.10727],[-72.09806,-50.10633],[-72.09991,-50.10165],[-72.10127,-50.09959],[-72.10221,-50.09875],[-72.12212,-50.08427],[-72.12332,-50.08286],[-72.12522,-50.07664],[-72.12638,-50.07481],[-72.12933,-50.07127],[-72.12971,-50.07054],[-72.12966,-50.06973],[-72.12856,-50.06856],[-72.12729,-50.06808],[-72.12664,-50.06803],[-72.12485,-50.06816],[-72.11905,-50.06931],[-72.11711,-50.06925],[-72.1157,-50.06872],[-72.11513,-50.06819],[-72.11473,-50.06723],[-72.11517,-50.06608],[-72.11664,-50.06513],[-72.12869,-50.05949],[-72.12924,-50.05911],[-72.12998,-50.05825],[-72.1303,-50.05741],[-72.13015,-50.05634],[-72.12928,-50.0542],[-72.12961,-50.05232],[-72.13015,-50.05133],[-72.13172,-50.04994],[-72.15882,-50.03038],[-72.16333,-50.02525],[-72.16373,-50.02382],[-72.16297,-50.02212],[-72.16172,-50.02136],[-72.14728,-50.01669],[-72.14542,-50.01555],[-72.14475,-50.01485],[-72.14434,-50.01389],[-72.14321,-50.00834],[-72.14248,-50.00753],[-72.14176,-50.00711],[-72.13629,-50.0063],[-72.13504,-50.00632],[-72.12989,-50.00867],[-72.12917,-50.00888],[-72.12767,-50.00888],[-72.12593,-50.00818],[-72.12551,-50.00784],[-72.12436,-50.00571],[-72.12149,-50.00394],[-72.11969,-50.00375],[-72.11514,-50.00498],[-72.11331,-50.00487],[-72.11106,-50.00355],[-72.10596,-50.00168],[-72.10514,-50.00122],[-72.09718,-49.99419],[-72.09685,-49.99305],[-72.09776,-49.99117],[-72.09791,-49.99005],[-72.09666,-49.98143],[-72.0963,-49.98043],[-72.09494,-49.97876],[-72.09096,-49.97635],[-72.08831,-49.97415],[-72.08663,-49.97207],[-72.0856,-49.96964],[-72.08078,-49.94343],[-72.07995,-49.94227],[-72.06652,-49.92847],[-72.06574,-49.92697],[-72.06526,-49.92419],[-72.06432,-49.92293],[-72.06285,-49.92159],[-72.06213,-49.92046],[-72.06201,-49.91919],[-72.06271,-49.91219],[-72.06074,-49.90325],[-72.05931,-49.90185],[-72.05637,-49.90067],[-72.05287,-49.89876],[-72.03912,-49.88509],[-72.03727,-49.8837],[-72.02791,-49.87819],[-72.02714,-49.87727],[-72.02691,-49.87636],[-72.02711,-49.87544],[-72.0295,-49.87236],[-72.03012,-49.87096],[-72.03263,-49.85153],[-72.03331,-49.8508],[-72.03454,-49.85028],[-72.03828,-49.84969],[-72.0404,-49.84884],[-72.044,-49.84592],[-72.04952,-49.84297],[-72.05075,-49.84188],[-72.05139,-49.84073],[-72.05158,-49.83906],[-72.05087,-49.83359],[-72.04888,-49.82965],[-72.0486,-49.82861],[-72.04746,-49.81911],[-72.04806,-49.81434],[-72.04841,-49.81358],[-72.04925,-49.81276],[-72.05042,-49.81218],[-72.05544,-49.81064],[-72.0562,-49.81002],[-72.05646,-49.80918],[-72.05612,-49.80842],[-72.05526,-49.80777],[-72.05089,-49.80693],[-72.04993,-49.80646],[-72.04945,-49.80597],[-72.04923,-49.80488],[-72.05011,-49.80311],[-72.0503,-49.80191],[-72.05009,-49.80088],[-72.04932,-49.79962],[-72.03998,-49.79028],[-72.03824,-49.78883],[-72.03513,-49.78671],[-72.03285,-49.78548],[-72.00389,-49.7724],[-72.0008,-49.77055],[-71.98643,-49.76076],[-71.98455,-49.75931],[-71.95756,-49.73377],[-71.95675,-49.73275],[-71.95647,-49.73191],[-71.9565,-49.73074],[-71.95689,-49.72987],[-71.95804,-49.72873],[-71.9609,-49.72731],[-71.9622,-49.72633],[-71.96615,-49.71932],[-71.96632,-49.7184],[-71.96612,-49.71757],[-71.96569,-49.71691],[-71.96474,-49.71623],[-71.95721,-49.71278],[-71.94977,-49.71098],[-71.93625,-49.70644],[-71.93066,-49.70511],[-71.92665,-49.70457],[-71.92255,-49.70433],[-71.89859,-49.70422],[-71.89581,-49.70385],[-71.8705,-49.69925],[-71.89382,-49.68283],[-71.90092,-49.67813],[-71.92487,-49.66718],[-72.00491,-49.62504],[-72.00755,-49.62391],[-72.01051,-49.62302],[-72.04835,-49.61529],[-72.09047,-49.60922],[-72.13425,-49.60358],[-72.13626,-49.60342],[-72.13905,-49.6036],[-72.14186,-49.60421],[-72.14634,-49.6057],[-72.15252,-49.60712],[-72.16229,-49.60754],[-72.16606,-49.60847],[-72.17044,-49.6089],[-72.17278,-49.60891],[-72.20839,-49.60605],[-72.24996,-49.59683],[-72.2838,-49.58438],[-72.33759,-49.57604],[-72.38946,-49.56427],[-72.45894,-49.54721],[-72.46291,-49.54608],[-72.54851,-49.51803],[-72.58782,-49.50134],[-72.59183,-49.49938],[-72.60208,-49.4912],[-72.64503,-49.45935],[-72.67085,-49.43778],[-72.67423,-49.43557],[-72.75154,-49.40727],[-72.75389,-49.40603],[-72.75481,-49.40527],[-72.7557,-49.40304],[-72.7571,-49.40186],[-72.75744,-49.39964],[-72.75857,-49.39863],[-72.75963,-49.39809],[-72.76089,-49.39776],[-72.76703,-49.39683],[-72.76784,-49.39636],[-72.76989,-49.39448],[-72.77194,-49.39371],[-72.779,-49.39347],[-72.78145,-49.39321],[-72.78338,-49.39326],[-72.78514,-49.39255],[-72.78913,-49.3903],[-72.79132,-49.38792],[-72.79314,-49.38689],[-72.80138,-49.37925],[-72.80641,-49.37693],[-72.80974,-49.37402],[-72.81239,-49.37318],[-72.8157,-49.37139],[-72.83444,-49.36213],[-72.83926,-49.35993],[-72.8402,-49.35925],[-72.84378,-49.35575],[-72.85669,-49.34887],[-72.86062,-49.34514],[-72.86429,-49.34271],[-72.86585,-49.34196],[-72.87249,-49.33943],[-72.87507,-49.33813],[-72.8791,-49.33688],[-72.88082,-49.33656],[-72.88276,-49.33536],[-72.8837,-49.33412],[-72.88365,-49.3335],[-72.88593,-49.33189]],"type":"LineString"}},{"type":"Feature","properties":{"name":"El Chalten, Argentina → Perito Moreno, Argentina"},"geometry":{"coordinates":[[-72.88593,-49.33189],[-72.88628,-49.33164],[-72.88651,-49.33179],[-72.88391,-49.33361],[-72.88276,-49.33536],[-72.88082,-49.33656],[-72.8791,-49.33688],[-72.87507,-49.33813],[-72.87249,-49.33943],[-72.86585,-49.34196],[-72.86429,-49.34271],[-72.86062,-49.34514],[-72.85669,-49.34887],[-72.84378,-49.35575],[-72.8402,-49.35925],[-72.83926,-49.35993],[-72.83444,-49.36213],[-72.8157,-49.37139],[-72.81239,-49.37318],[-72.80974,-49.37402],[-72.80641,-49.37693],[-72.80138,-49.37925],[-72.79314,-49.38689],[-72.79132,-49.38792],[-72.78913,-49.3903],[-72.78514,-49.39255],[-72.78338,-49.39326],[-72.78145,-49.39321],[-72.779,-49.39347],[-72.77194,-49.39371],[-72.77082,-49.39401],[-72.76989,-49.39448],[-72.76784,-49.39636],[-72.76703,-49.39683],[-72.76089,-49.39776],[-72.75963,-49.39809],[-72.75857,-49.39863],[-72.75744,-49.39964],[-72.7571,-49.40186],[-72.7557,-49.40304],[-72.75481,-49.40527],[-72.75389,-49.40603],[-72.75154,-49.40727],[-72.67423,-49.43557],[-72.67085,-49.43778],[-72.64503,-49.45935],[-72.60208,-49.4912],[-72.59183,-49.49938],[-72.58782,-49.50134],[-72.54851,-49.51803],[-72.46291,-49.54608],[-72.45894,-49.54721],[-72.38946,-49.56427],[-72.33759,-49.57604],[-72.2838,-49.58438],[-72.24996,-49.59683],[-72.20839,-49.60605],[-72.17278,-49.60891],[-72.17044,-49.6089],[-72.16606,-49.60847],[-72.16229,-49.60754],[-72.15252,-49.60712],[-72.14634,-49.6057],[-72.14186,-49.60421],[-72.13905,-49.6036],[-72.13626,-49.60342],[-72.13425,-49.60358],[-72.09047,-49.60922],[-72.04835,-49.61529],[-72.01051,-49.62302],[-72.00755,-49.62391],[-72.00491,-49.62504],[-71.92487,-49.66718],[-71.90092,-49.67813],[-71.89382,-49.68283],[-71.8705,-49.69925],[-71.86799,-49.69898],[-71.85998,-49.69889],[-71.85685,-49.69863],[-71.82784,-49.69287],[-71.82516,-49.69252],[-71.82238,-49.69277],[-71.81155,-49.69512],[-71.8093,-49.69529],[-71.807,-49.69499],[-71.75937,-49.67952],[-71.75678,-49.67843],[-71.7483,-49.67371],[-71.74599,-49.67291],[-71.74329,-49.67238],[-71.73915,-49.67226],[-71.72368,-49.67305],[-71.7215,-49.67353],[-71.71803,-49.67466],[-71.71564,-49.67503],[-71.71217,-49.67489],[-71.7097,-49.67441],[-71.70281,-49.67244],[-71.67127,-49.65882],[-71.66977,-49.65833],[-71.6533,-49.6543],[-71.65131,-49.65366],[-71.62549,-49.63806],[-71.62327,-49.637],[-71.62027,-49.63614],[-71.61779,-49.63583],[-71.61499,-49.63581],[-71.5944,-49.63756],[-71.59245,-49.63754],[-71.59104,-49.63737],[-71.58964,-49.63699],[-71.58085,-49.63334],[-71.57826,-49.63258],[-71.56549,-49.63123],[-71.56348,-49.63117],[-71.55769,-49.63199],[-71.55597,-49.63244],[-71.5547,-49.633],[-71.55139,-49.63568],[-71.54965,-49.63657],[-71.54802,-49.63691],[-71.54192,-49.63745],[-71.5396,-49.63737],[-71.53719,-49.63647],[-71.53498,-49.63517],[-71.53387,-49.63416],[-71.53339,-49.63313],[-71.53213,-49.62768],[-71.53143,-49.62648],[-71.53036,-49.62534],[-71.52868,-49.62417],[-71.51585,-49.6171],[-71.51323,-49.61635],[-71.5102,-49.61607],[-71.48587,-49.61692],[-71.48324,-49.61654],[-71.4811,-49.61565],[-71.47982,-49.61468],[-71.47897,-49.61351],[-71.4739,-49.6002],[-71.47331,-49.59953],[-71.4723,-49.59897],[-71.47132,-49.59871],[-71.47027,-49.59867],[-71.46527,-49.59923],[-71.45836,-49.59855],[-71.439,-49.59837],[-71.43756,-49.59806],[-71.4281,-49.5951],[-71.42707,-49.5944],[-71.42654,-49.59345],[-71.42663,-49.59264],[-71.42729,-49.59176],[-71.45487,-49.57412],[-71.45987,-49.57078],[-71.46084,-49.56977],[-71.46202,-49.56638],[-71.46846,-49.54238],[-71.46902,-49.54136],[-71.46977,-49.54064],[-71.47255,-49.53907],[-71.47394,-49.53799],[-71.47445,-49.53722],[-71.47558,-49.53401],[-71.47572,-49.53306],[-71.47492,-49.5285],[-71.47492,-49.52732],[-71.47644,-49.51675],[-71.47679,-49.51573],[-71.47746,-49.51477],[-71.48701,-49.50665],[-71.48943,-49.5053],[-71.49164,-49.50481],[-71.50623,-49.5033],[-71.50827,-49.5026],[-71.51333,-49.50005],[-71.51442,-49.49898],[-71.51721,-49.49514],[-71.51955,-49.49292],[-71.52196,-49.48981],[-71.54735,-49.46666],[-71.5489,-49.46414],[-71.55091,-49.46002],[-71.55083,-49.45833],[-71.54857,-49.45264],[-71.54843,-49.45055],[-71.54876,-49.44687],[-71.54845,-49.4451],[-71.53852,-49.42248],[-71.53747,-49.42149],[-71.53553,-49.42038],[-71.5309,-49.41819],[-71.52968,-49.41712],[-71.529,-49.4157],[-71.52855,-49.41085],[-71.52796,-49.40969],[-71.52686,-49.40862],[-71.51361,-49.39996],[-71.50295,-49.39244],[-71.50068,-49.3906],[-71.49942,-49.38871],[-71.49902,-49.38742],[-71.49849,-49.37906],[-71.4919,-49.34617],[-71.49079,-49.34407],[-71.4873,-49.33971],[-71.48557,-49.33813],[-71.48194,-49.3357],[-71.48028,-49.33508],[-71.47818,-49.33469],[-71.464,-49.33431],[-71.44315,-49.3375],[-71.42603,-49.33799],[-71.42364,-49.33791],[-71.42152,-49.33757],[-71.4103,-49.33425],[-71.40809,-49.33315],[-71.39303,-49.32285],[-71.38501,-49.30982],[-71.38368,-49.30852],[-71.38244,-49.30782],[-71.37937,-49.30652],[-71.3735,-49.30422],[-71.35943,-49.30253],[-71.35744,-49.30216],[-71.35613,-49.30173],[-71.34844,-49.29576],[-71.33829,-49.28648],[-71.33679,-49.2847],[-71.32908,-49.27322],[-71.32867,-49.27223],[-71.3287,-49.27102],[-71.3354,-49.25919],[-71.33826,-49.25281],[-71.33835,-49.25196],[-71.33773,-49.24911],[-71.33767,-49.2478],[-71.33801,-49.247],[-71.33912,-49.24571],[-71.33975,-49.24459],[-71.3395,-49.24144],[-71.33973,-49.23959],[-71.34104,-49.23649],[-71.33982,-49.23205],[-71.33997,-49.23128],[-71.34047,-49.23089],[-71.34174,-49.23049],[-71.34689,-49.23084],[-71.34874,-49.23082],[-71.35152,-49.23053],[-71.35256,-49.23009],[-71.35383,-49.22867],[-71.35406,-49.22454],[-71.35507,-49.22058],[-71.35472,-49.2191],[-71.34478,-49.20046],[-71.34377,-49.19722],[-71.34339,-49.19545],[-71.34356,-49.19453],[-71.34393,-49.19376],[-71.34601,-49.19151],[-71.34632,-49.19065],[-71.34625,-49.1899],[-71.3442,-49.18729],[-71.34208,-49.18541],[-71.33004,-49.18126],[-71.32615,-49.17814],[-71.31958,-49.17427],[-71.31784,-49.17185],[-71.31656,-49.17065],[-71.30724,-49.16594],[-71.30629,-49.16487],[-71.30061,-49.15451],[-71.29429,-49.14861],[-71.2919,-49.14745],[-71.28331,-49.14424],[-71.28141,-49.14382],[-71.27542,-49.14332],[-71.27339,-49.14297],[-71.26393,-49.14002],[-71.26053,-49.13873],[-71.19835,-49.10375],[-71.19457,-49.10253],[-71.10308,-49.07646],[-71.101,-49.07572],[-71.09944,-49.07482],[-71.08333,-49.06148],[-71.08208,-49.06112],[-71.08084,-49.06109],[-71.0767,-49.06194],[-71.07542,-49.06181],[-71.07385,-49.06112],[-71.07173,-49.05909],[-71.07077,-49.05663],[-71.07004,-49.05568],[-71.06796,-49.05444],[-71.0624,-49.05172],[-71.05799,-49.04801],[-71.05703,-49.04647],[-71.05673,-49.04453],[-71.05937,-49.03575],[-71.05931,-49.03442],[-71.05824,-49.03297],[-71.05215,-49.02813],[-71.0513,-49.02714],[-71.05105,-49.02627],[-71.05113,-49.02555],[-71.05524,-49.01708],[-71.05541,-49.016],[-71.05507,-49.015],[-71.0477,-49.00696],[-71.04089,-49.00111],[-71.03983,-48.99948],[-71.03505,-48.98976],[-71.03088,-48.98356],[-71.02957,-48.98193],[-71.02476,-48.97826],[-71.02378,-48.9765],[-71.02383,-48.97552],[-71.02522,-48.97031],[-71.02602,-48.96066],[-71.0268,-48.95957],[-71.02931,-48.95772],[-71.03223,-48.95464],[-71.03336,-48.95333],[-71.03381,-48.95231],[-71.03544,-48.93066],[-71.03589,-48.92128],[-71.03531,-48.92033],[-71.02653,-48.91155],[-71.02495,-48.9107],[-71.02143,-48.90979],[-71.02023,-48.90894],[-71.01869,-48.90726],[-71.01724,-48.90421],[-71.01612,-48.90277],[-71.00508,-48.89838],[-70.93846,-48.87888],[-70.91603,-48.8699],[-70.91446,-48.86957],[-70.91166,-48.86959],[-70.89261,-48.8718],[-70.88877,-48.87198],[-70.67648,-48.86205],[-70.67115,-48.86157],[-70.66522,-48.86065],[-70.6621,-48.85994],[-70.62479,-48.84988],[-70.61911,-48.8478],[-70.61701,-48.84719],[-70.61441,-48.8467],[-70.59881,-48.84511],[-70.59554,-48.84461],[-70.59351,-48.84397],[-70.58873,-48.84203],[-70.57892,-48.83787],[-70.57554,-48.83688],[-70.55455,-48.83216],[-70.55093,-48.8319],[-70.54428,-48.83217],[-70.54149,-48.83186],[-70.53111,-48.8292],[-70.52843,-48.82831],[-70.52607,-48.82714],[-70.52437,-48.82598],[-70.5231,-48.82485],[-70.52176,-48.82311],[-70.52088,-48.82083],[-70.52017,-48.81442],[-70.51747,-48.80879],[-70.51761,-48.80721],[-70.51817,-48.8064],[-70.51889,-48.80565],[-70.52195,-48.80371],[-70.52282,-48.80255],[-70.52302,-48.80108],[-70.5227,-48.80012],[-70.52204,-48.79925],[-70.52102,-48.79848],[-70.51953,-48.79784],[-70.51212,-48.79645],[-70.50655,-48.79462],[-70.49407,-48.78986],[-70.48826,-48.78694],[-70.4872,-48.78655],[-70.48238,-48.78573],[-70.47691,-48.78541],[-70.473,-48.78373],[-70.47122,-48.78323],[-70.4697,-48.78306],[-70.46375,-48.78288],[-70.45987,-48.78202],[-70.45477,-48.78126],[-70.45127,-48.78032],[-70.44747,-48.78001],[-70.44052,-48.77876],[-70.43671,-48.77726],[-70.43177,-48.77617],[-70.42709,-48.77473],[-70.41922,-48.77295],[-70.41545,-48.7724],[-70.412,-48.7713],[-70.40801,-48.77056],[-70.40221,-48.76843],[-70.39823,-48.76745],[-70.3947,-48.7652],[-70.38747,-48.76233],[-70.38581,-48.76196],[-70.38335,-48.76206],[-70.3814,-48.76286],[-70.38037,-48.76383],[-70.37943,-48.76596],[-70.37857,-48.76705],[-70.37693,-48.76813],[-70.37499,-48.76869],[-70.34668,-48.76994],[-70.34317,-48.76959],[-70.34114,-48.76912],[-70.32278,-48.76346],[-70.32102,-48.76304],[-70.31678,-48.7624],[-70.31433,-48.76226],[-70.31186,-48.76233],[-70.31194,-48.76191],[-70.30844,-48.76121],[-70.30808,-48.761],[-70.30829,-48.7604],[-70.31169,-48.75785],[-70.31806,-48.75501],[-70.32059,-48.75307],[-70.32093,-48.75256],[-70.32056,-48.7512],[-70.32014,-48.75059],[-70.29777,-48.73575],[-70.34731,-48.71863],[-70.34943,-48.71812],[-70.35143,-48.71799],[-70.35369,-48.71824],[-70.36367,-48.72103],[-70.36623,-48.72189],[-70.37259,-48.7246],[-70.38251,-48.72991],[-70.38833,-48.73197],[-70.39787,-48.73439],[-70.40946,-48.73679],[-70.42591,-48.73882],[-70.4297,-48.73869],[-70.45113,-48.73528],[-70.48453,-48.73467],[-70.49055,-48.73379],[-70.51098,-48.73224],[-70.52577,-48.73086],[-70.52796,-48.7304],[-70.52967,-48.72974],[-70.5314,-48.72872],[-70.53593,-48.72409],[-70.53654,-48.72334],[-70.53709,-48.7221],[-70.53715,-48.72043],[-70.53661,-48.71909],[-70.53556,-48.71791],[-70.53338,-48.71626],[-70.53228,-48.71466],[-70.53175,-48.71129],[-70.53216,-48.70979],[-70.5328,-48.70876],[-70.5393,-48.70242],[-70.54072,-48.70152],[-70.54453,-48.69959],[-70.54581,-48.69909],[-70.54721,-48.69879],[-70.55372,-48.69822],[-70.55549,-48.69783],[-70.56047,-48.69528],[-70.56258,-48.69384],[-70.56386,-48.69249],[-70.56465,-48.6912],[-70.56781,-48.68318],[-70.57256,-48.67868],[-70.57344,-48.67776],[-70.57402,-48.67674],[-70.57447,-48.67513],[-70.57408,-48.67313],[-70.56697,-48.65935],[-70.56638,-48.65274],[-70.56538,-48.65115],[-70.55964,-48.6458],[-70.55855,-48.64407],[-70.55805,-48.64245],[-70.55801,-48.64091],[-70.55828,-48.63964],[-70.56312,-48.62566],[-70.56312,-48.62375],[-70.56283,-48.62289],[-70.56206,-48.62179],[-70.56067,-48.62062],[-70.55892,-48.61975],[-70.54352,-48.61427],[-70.54105,-48.61332],[-70.53833,-48.61188],[-70.51494,-48.59213],[-70.51433,-48.59128],[-70.51386,-48.59003],[-70.51151,-48.57247],[-70.51104,-48.57134],[-70.50953,-48.56965],[-70.50773,-48.56859],[-70.49142,-48.56131],[-70.48911,-48.56063],[-70.48387,-48.55985],[-70.48193,-48.55912],[-70.48082,-48.55849],[-70.44282,-48.5327],[-70.44106,-48.53085],[-70.43624,-48.52432],[-70.43521,-48.52224],[-70.43499,-48.52076],[-70.43477,-48.50888],[-70.43419,-48.50784],[-70.43316,-48.50689],[-70.43056,-48.50564],[-70.42948,-48.50483],[-70.42888,-48.5041],[-70.42841,-48.50286],[-70.42883,-48.49425],[-70.42708,-48.48343],[-70.42741,-48.48118],[-70.4343,-48.46298],[-70.43676,-48.45735],[-70.45429,-48.43713],[-70.45584,-48.43573],[-70.47462,-48.42082],[-70.49831,-48.41023],[-70.51664,-48.40499],[-70.51921,-48.40455],[-70.53985,-48.40246],[-70.54186,-48.40255],[-70.54593,-48.40351],[-70.55227,-48.40368],[-70.5612,-48.40305],[-70.56583,-48.40252],[-70.58937,-48.39702],[-70.66226,-48.38355],[-70.79542,-48.35455],[-70.87106,-48.33326],[-70.96066,-48.30775],[-70.96353,-48.30668],[-70.96807,-48.30405],[-70.97098,-48.30304],[-70.97396,-48.30256],[-70.97648,-48.30252],[-70.98567,-48.30359],[-70.9877,-48.30366],[-70.98974,-48.30352],[-70.99249,-48.30299],[-71.15436,-48.25747],[-71.17687,-48.251],[-71.17934,-48.24994],[-71.18242,-48.248],[-71.1989,-48.23529],[-71.20032,-48.234],[-71.20166,-48.23233],[-71.20303,-48.22947],[-71.20341,-48.22695],[-71.20232,-48.21079],[-71.20154,-48.20819],[-71.19961,-48.20538],[-71.19787,-48.20373],[-71.16807,-48.17881],[-71.16559,-48.17648],[-71.01088,-48.02768],[-70.88256,-47.90335],[-70.88116,-47.90182],[-70.84093,-47.8501],[-70.80976,-47.8209],[-70.80897,-47.8199],[-70.80856,-47.8189],[-70.80849,-47.81723],[-70.80933,-47.81549],[-70.8234,-47.79707],[-70.82449,-47.79608],[-70.82784,-47.7946],[-70.8288,-47.794],[-70.8297,-47.79267],[-70.82455,-47.70589],[-70.82464,-47.70487],[-70.82509,-47.70366],[-70.82826,-47.69852],[-70.82859,-47.69738],[-70.82735,-47.67774],[-70.82677,-47.67547],[-70.82548,-47.67326],[-70.82332,-47.67119],[-70.82027,-47.66945],[-70.81448,-47.66685],[-70.81374,-47.66613],[-70.81339,-47.66526],[-70.81349,-47.66312],[-70.81532,-47.65861],[-70.81536,-47.65698],[-70.81464,-47.65588],[-70.81229,-47.65354],[-70.80739,-47.64973],[-70.8019,-47.64423],[-70.80095,-47.64302],[-70.80092,-47.64188],[-70.80124,-47.64105],[-70.81392,-47.61714],[-70.82628,-47.59223],[-70.83365,-47.58369],[-70.83704,-47.58098],[-70.84783,-47.57334],[-70.85733,-47.56781],[-70.89654,-47.55172],[-70.89893,-47.55058],[-70.90016,-47.54972],[-70.90158,-47.5482],[-70.90514,-47.542],[-70.90603,-47.54028],[-70.90742,-47.53615],[-70.91109,-47.52958],[-70.9208,-47.51812],[-70.92815,-47.51155],[-70.93006,-47.51081],[-70.93697,-47.5092],[-70.93816,-47.50852],[-70.93887,-47.50777],[-70.93923,-47.50664],[-70.93889,-47.50523],[-70.93452,-47.49954],[-70.93422,-47.49883],[-70.93444,-47.49779],[-70.93676,-47.49453],[-70.93785,-47.49378],[-70.93911,-47.4935],[-70.94384,-47.49374],[-70.94521,-47.49353],[-70.94628,-47.49307],[-70.94711,-47.49233],[-70.94774,-47.49086],[-70.94845,-47.48987],[-70.95151,-47.48781],[-70.95293,-47.48643],[-70.95539,-47.48452],[-70.95627,-47.4835],[-70.95664,-47.48217],[-70.95608,-47.48061],[-70.94646,-47.46794],[-70.92495,-47.4442],[-70.92467,-47.44329],[-70.92478,-47.44086],[-70.92613,-47.4219],[-70.92693,-47.42062],[-70.92819,-47.41957],[-70.94572,-47.40897],[-70.94815,-47.40822],[-70.95229,-47.40771],[-70.95425,-47.40728],[-70.96783,-47.40213],[-70.97543,-47.40048],[-70.97698,-47.4],[-70.97929,-47.39859],[-70.98099,-47.3965],[-70.9824,-47.39529],[-70.98433,-47.39449],[-70.98956,-47.39347],[-70.99124,-47.3928],[-70.99283,-47.39137],[-70.99331,-47.39014],[-70.99283,-47.38534],[-70.99398,-47.38157],[-70.99505,-47.37911],[-70.99622,-47.37786],[-70.99812,-47.3769],[-70.99967,-47.37645],[-71.00362,-47.37586],[-71.0051,-47.37522],[-71.00598,-47.37452],[-71.00664,-47.37301],[-71.00623,-47.37147],[-71.00463,-47.36976],[-71.00257,-47.3668],[-70.99922,-47.36454],[-70.99774,-47.36253],[-70.98996,-47.34144],[-70.98987,-47.3407],[-70.99013,-47.33965],[-70.99112,-47.33853],[-70.99289,-47.33775],[-71.0005,-47.33529],[-71.00183,-47.33442],[-71.00265,-47.333],[-71.00275,-47.33189],[-71.0024,-47.32893],[-70.99964,-47.3253],[-70.99907,-47.32397],[-70.99897,-47.32288],[-70.99989,-47.31916],[-70.99959,-47.31835],[-70.99828,-47.31674],[-70.99816,-47.31568],[-70.99861,-47.31477],[-70.99998,-47.31378],[-71.00349,-47.31262],[-71.00768,-47.31024],[-71.01188,-47.30927],[-71.01271,-47.3089],[-71.0139,-47.30783],[-71.01433,-47.3062],[-71.01396,-47.30523],[-71.01247,-47.30396],[-71.00413,-47.30068],[-71.00205,-47.29949],[-70.96812,-47.27076],[-70.95584,-47.26097],[-70.95297,-47.2592],[-70.95234,-47.25797],[-70.95244,-47.25618],[-70.9521,-47.25525],[-70.94076,-47.24487],[-70.93919,-47.24202],[-70.93828,-47.24099],[-70.93378,-47.2381],[-70.93302,-47.23744],[-70.9324,-47.23629],[-70.93203,-47.23398],[-70.93137,-47.23308],[-70.93014,-47.23226],[-70.92506,-47.22983],[-70.92364,-47.22852],[-70.92307,-47.2274],[-70.92296,-47.22616],[-70.92457,-47.22137],[-70.92424,-47.2201],[-70.92344,-47.21914],[-70.92226,-47.21844],[-70.92013,-47.21793],[-70.90503,-47.21621],[-70.90137,-47.21609],[-70.88864,-47.2164],[-70.887,-47.21627],[-70.88539,-47.21578],[-70.88413,-47.21489],[-70.8833,-47.21361],[-70.88344,-47.20825],[-70.88322,-47.20757],[-70.88224,-47.20614],[-70.85501,-47.18296],[-70.85395,-47.18173],[-70.85335,-47.18002],[-70.85343,-47.17856],[-70.85456,-47.17218],[-70.85624,-47.16704],[-70.85589,-47.16325],[-70.85661,-47.16216],[-70.85944,-47.16034],[-70.86074,-47.1592],[-70.86184,-47.15678],[-70.86179,-47.15551],[-70.86087,-47.15343],[-70.8602,-47.15248],[-70.85824,-47.15052],[-70.85791,-47.14973],[-70.85814,-47.14874],[-70.86059,-47.14705],[-70.86081,-47.1461],[-70.85851,-47.14151],[-70.85823,-47.13918],[-70.8577,-47.13729],[-70.85793,-47.13611],[-70.85854,-47.13538],[-70.85963,-47.13475],[-70.86208,-47.13409],[-70.86324,-47.13353],[-70.86373,-47.13269],[-70.86405,-47.13117],[-70.86501,-47.13016],[-70.87219,-47.12618],[-70.87328,-47.12574],[-70.87482,-47.12534],[-70.87645,-47.12525],[-70.8804,-47.12589],[-70.88326,-47.12597],[-70.88477,-47.12577],[-70.88719,-47.12484],[-70.88877,-47.12367],[-70.88957,-47.1226],[-70.88991,-47.12169],[-70.88973,-47.12008],[-70.88889,-47.11849],[-70.88762,-47.11745],[-70.88585,-47.11665],[-70.88476,-47.11634],[-70.88228,-47.11617],[-70.86678,-47.11615],[-70.86385,-47.11666],[-70.8597,-47.11802],[-70.85774,-47.11828],[-70.85653,-47.11812],[-70.85504,-47.11769],[-70.85391,-47.11706],[-70.85215,-47.11548],[-70.85001,-47.11402],[-70.8328,-47.10485],[-70.83224,-47.10441],[-70.83166,-47.10334],[-70.83204,-47.10178],[-70.83317,-47.10064],[-70.83689,-47.09907],[-70.83807,-47.09816],[-70.83867,-47.09692],[-70.83903,-47.09285],[-70.83954,-47.09142],[-70.84073,-47.09018],[-70.84465,-47.08788],[-70.8466,-47.08622],[-70.84731,-47.08501],[-70.84745,-47.08434],[-70.84711,-47.08202],[-70.84601,-47.08034],[-70.84468,-47.07929],[-70.84336,-47.07858],[-70.82129,-47.07098],[-70.81998,-47.0703],[-70.81877,-47.06905],[-70.81849,-47.06818],[-70.81907,-47.06642],[-70.82012,-47.06522],[-70.82055,-47.06435],[-70.82061,-47.06341],[-70.82033,-47.06284],[-70.81979,-47.06236],[-70.81824,-47.06186],[-70.81688,-47.06181],[-70.81385,-47.06228],[-70.81235,-47.06207],[-70.81146,-47.06163],[-70.81101,-47.06065],[-70.81103,-47.05744],[-70.81069,-47.05677],[-70.8099,-47.05612],[-70.80826,-47.05591],[-70.80546,-47.05668],[-70.80353,-47.0567],[-70.79522,-47.0545],[-70.7887,-47.05137],[-70.78463,-47.04963],[-70.78189,-47.04886],[-70.77807,-47.04809],[-70.77628,-47.04753],[-70.76565,-47.04212],[-70.76347,-47.04134],[-70.76144,-47.04089],[-70.75762,-47.04067],[-70.75432,-47.04097],[-70.75039,-47.04205],[-70.74404,-47.04429],[-70.74206,-47.0447],[-70.7409,-47.04474],[-70.73985,-47.04468],[-70.72204,-47.04142],[-70.72057,-47.04104],[-70.71924,-47.04038],[-70.71103,-47.03447],[-70.69676,-47.0256],[-70.6949,-47.02411],[-70.69406,-47.02296],[-70.69372,-47.02206],[-70.69201,-47.01296],[-70.69127,-47.0111],[-70.68982,-47.00942],[-70.68466,-47.00497],[-70.68377,-47.00396],[-70.68286,-47.00161],[-70.68007,-46.99828],[-70.67921,-46.99492],[-70.6787,-46.99389],[-70.67671,-46.99169],[-70.6763,-46.99023],[-70.67653,-46.9893],[-70.67719,-46.98842],[-70.68481,-46.98144],[-70.68638,-46.97982],[-70.68694,-46.97882],[-70.68775,-46.97239],[-70.68714,-46.97114],[-70.68586,-46.97022],[-70.68543,-46.96975],[-70.68527,-46.96914],[-70.68683,-46.96659],[-70.68986,-46.96374],[-70.69007,-46.96309],[-70.68981,-46.96099],[-70.69149,-46.9592],[-70.69157,-46.9587],[-70.69053,-46.95675],[-70.69042,-46.95612],[-70.69106,-46.95002],[-70.69148,-46.94902],[-70.69269,-46.94792],[-70.70297,-46.94207],[-70.70586,-46.93962],[-70.70724,-46.93902],[-70.71059,-46.93831],[-70.71174,-46.93793],[-70.71299,-46.937],[-70.71378,-46.93601],[-70.7142,-46.93416],[-70.71333,-46.9326],[-70.71156,-46.93122],[-70.70526,-46.92768],[-70.70419,-46.92621],[-70.7041,-46.9254],[-70.70443,-46.92425],[-70.71084,-46.91166],[-70.72169,-46.89606],[-70.72908,-46.88855],[-70.73702,-46.87683],[-70.73889,-46.87358],[-70.73901,-46.87182],[-70.73867,-46.87089],[-70.73786,-46.86989],[-70.7304,-46.86543],[-70.72925,-46.86414],[-70.72886,-46.86218],[-70.72897,-46.85892],[-70.72922,-46.8573],[-70.72963,-46.85637],[-70.7324,-46.85377],[-70.74725,-46.84146],[-70.7625,-46.82986],[-70.76523,-46.82822],[-70.78383,-46.82033],[-70.78467,-46.81976],[-70.79043,-46.81442],[-70.79126,-46.81322],[-70.79189,-46.81147],[-70.79191,-46.80983],[-70.79151,-46.80821],[-70.79046,-46.80632],[-70.7867,-46.80278],[-70.78619,-46.80212],[-70.78562,-46.80069],[-70.78555,-46.79965],[-70.7876,-46.79006],[-70.79225,-46.7772],[-70.80517,-46.75393],[-70.81046,-46.74537],[-70.81132,-46.7445],[-70.81248,-46.74389],[-70.82696,-46.73933],[-70.83841,-46.73506],[-70.84612,-46.73183],[-70.84806,-46.73064],[-70.84902,-46.72945],[-70.8516,-46.72476],[-70.85626,-46.7116],[-70.86262,-46.70321],[-70.87008,-46.69158],[-70.87198,-46.6891],[-70.87292,-46.68809],[-70.87382,-46.68746],[-70.88022,-46.6841],[-70.88119,-46.68338],[-70.90853,-46.65421],[-70.9097,-46.65256],[-70.91372,-46.64223],[-70.91499,-46.6413],[-70.92503,-46.63602],[-70.92615,-46.63502],[-70.92653,-46.63431],[-70.92666,-46.63343],[-70.92439,-46.62799],[-70.92423,-46.62399],[-70.92365,-46.62302],[-70.9214,-46.62091],[-70.92078,-46.61807],[-70.92102,-46.61685],[-70.92594,-46.60747],[-70.92569,-46.60598],[-70.92383,-46.60384],[-70.92338,-46.60146],[-70.92353,-46.6005],[-70.92407,-46.59938],[-70.92486,-46.59493],[-70.92652,-46.59508],[-70.92712,-46.59173],[-70.92552,-46.59159]],"type":"LineString"}},{"type":"Feature","properties":{"name":"Perito Moreno, Argentina → Bariloche, Argentina"},"geometry":{"coordinates":[[-70.92552,-46.59159],[-70.92676,-46.5842],[-70.92649,-46.5835],[-70.92517,-46.58325],[-70.92185,-46.58318],[-70.913,-46.58261],[-70.91076,-46.58216],[-70.88872,-46.57152],[-70.88768,-46.57076],[-70.88695,-46.56975],[-70.88678,-46.56846],[-70.88885,-46.55961],[-70.88859,-46.55886],[-70.88787,-46.55828],[-70.88678,-46.55796],[-70.88063,-46.55704],[-70.8714,-46.55637],[-70.86973,-46.55664],[-70.86654,-46.5586],[-70.86471,-46.55897],[-70.85471,-46.55897],[-70.85264,-46.55863],[-70.85,-46.55771],[-70.81444,-46.53658],[-70.7849,-46.529],[-70.78401,-46.52834],[-70.7836,-46.52755],[-70.78358,-46.52671],[-70.78409,-46.52475],[-70.784,-46.52409],[-70.78346,-46.5233],[-70.78229,-46.5226],[-70.76364,-46.51811],[-70.74847,-46.51688],[-70.74637,-46.51633],[-70.74541,-46.51574],[-70.74459,-46.51486],[-70.72835,-46.49525],[-70.73004,-46.49418],[-70.73082,-46.49334],[-70.73112,-46.49234],[-70.73084,-46.49132],[-70.71918,-46.47939],[-70.71853,-46.47848],[-70.71805,-46.47728],[-70.71801,-46.4754],[-70.7186,-46.47378],[-70.72771,-46.45545],[-70.72831,-46.45376],[-70.72858,-46.45064],[-70.72779,-46.43769],[-70.7279,-46.43651],[-70.72823,-46.43568],[-70.72903,-46.43463],[-70.73014,-46.43373],[-70.73669,-46.43038],[-70.74195,-46.4267],[-70.74293,-46.42537],[-70.74324,-46.42395],[-70.74297,-46.42269],[-70.74233,-46.42173],[-70.73822,-46.41816],[-70.73735,-46.41676],[-70.73421,-46.3933],[-70.73437,-46.39181],[-70.7348,-46.39071],[-70.74216,-46.37967],[-70.74256,-46.37851],[-70.74246,-46.3773],[-70.74194,-46.37626],[-70.74115,-46.37542],[-70.72921,-46.36564],[-70.728,-46.36419],[-70.72718,-46.36207],[-70.72652,-46.35388],[-70.72706,-46.35233],[-70.72792,-46.35115],[-70.74323,-46.33594],[-70.74446,-46.33429],[-70.75097,-46.31221],[-70.75133,-46.31049],[-70.75161,-46.30627],[-70.75247,-46.30295],[-70.7545,-46.29934],[-70.76013,-46.29327],[-70.76048,-46.292],[-70.76009,-46.29085],[-70.75887,-46.28972],[-70.74169,-46.28017],[-70.74039,-46.27869],[-70.73928,-46.27578],[-70.73804,-46.27424],[-70.73688,-46.27354],[-70.73168,-46.27129],[-70.73001,-46.26988],[-70.72936,-46.26897],[-70.72878,-46.26734],[-70.72819,-46.26113],[-70.72819,-46.25886],[-70.72914,-46.25632],[-70.72941,-46.25491],[-70.72925,-46.25361],[-70.72846,-46.25199],[-70.72741,-46.25082],[-70.72573,-46.24971],[-70.70952,-46.24218],[-70.70776,-46.24093],[-70.70649,-46.23969],[-70.66147,-46.17317],[-70.65864,-46.17031],[-70.6572,-46.16929],[-70.60795,-46.13936],[-70.54491,-46.10068],[-70.5149,-46.08168],[-70.50186,-46.0744],[-70.48894,-46.06688],[-70.486,-46.06475],[-70.48427,-46.06291],[-70.4707,-46.04476],[-70.43678,-45.99686],[-70.4044,-45.95169],[-70.40343,-45.9496],[-70.40317,-45.94781],[-70.40337,-45.94631],[-70.40557,-45.93936],[-70.40545,-45.9372],[-70.4047,-45.93526],[-70.40328,-45.93341],[-70.39301,-45.92407],[-70.38293,-45.91454],[-70.38102,-45.91239],[-70.37792,-45.90814],[-70.3371,-45.83867],[-70.26172,-45.70824],[-70.26109,-45.70678],[-70.26039,-45.70231],[-70.25866,-45.70097],[-70.25681,-45.69984],[-70.25613,-45.69882],[-70.25402,-45.69808],[-70.2532,-45.69732],[-70.25293,-45.6956],[-70.25217,-45.69426],[-70.25225,-45.69379],[-70.25299,-45.69278],[-70.25294,-45.69221],[-70.25244,-45.6917],[-70.25156,-45.69121],[-70.24974,-45.69064],[-70.24934,-45.69025],[-70.25137,-45.68674],[-70.25148,-45.68624],[-70.25074,-45.68549],[-70.25092,-45.68454],[-70.24807,-45.67669],[-70.24796,-45.67593],[-70.24816,-45.67542],[-70.24933,-45.67435],[-70.25096,-45.6737],[-70.25208,-45.67353],[-70.25327,-45.67373],[-70.25803,-45.67525],[-70.25909,-45.67522],[-70.26136,-45.67463],[-70.26447,-45.67486],[-70.26548,-45.67473],[-70.26661,-45.67418],[-70.26871,-45.6724],[-70.26912,-45.67134],[-70.26877,-45.67007],[-70.26459,-45.66651],[-70.20395,-45.60026],[-70.20129,-45.59825],[-70.19642,-45.5961],[-70.19551,-45.59555],[-70.19381,-45.59408],[-70.16486,-45.56477],[-70.12707,-45.52808],[-70.10903,-45.51018],[-70.06189,-45.46413],[-70.0606,-45.46307],[-70.05782,-45.46157],[-70.05534,-45.46072],[-70.05233,-45.46016],[-70.05024,-45.46002],[-69.84706,-45.46383],[-69.84196,-45.46445],[-69.84062,-45.46485],[-69.83983,-45.46567],[-69.8399,-45.46751],[-69.83961,-45.46857],[-69.83914,-45.46907],[-69.83797,-45.46976],[-69.83628,-45.47003],[-69.83054,-45.47013],[-69.82967,-45.46998],[-69.82876,-45.46951],[-69.82406,-45.46532],[-69.82437,-45.46314],[-69.81795,-45.45294],[-69.8166,-45.4489],[-69.81681,-45.44827],[-69.81752,-45.44759],[-69.86284,-45.4167],[-69.86471,-45.41528],[-69.86679,-45.41317],[-69.89692,-45.37606],[-69.89808,-45.37401],[-69.91523,-45.33744],[-69.94502,-45.28393],[-69.94536,-45.28254],[-69.94508,-45.28075],[-69.93595,-45.26282],[-69.93571,-45.26131],[-69.93581,-45.25302],[-69.93654,-45.25066],[-69.94511,-45.23895],[-69.94581,-45.23701],[-69.94764,-45.2281],[-69.95165,-45.2195],[-69.95253,-45.2183],[-69.95385,-45.21717],[-69.96556,-45.20969],[-69.98602,-45.19782],[-69.98757,-45.19615],[-69.99534,-45.18451],[-69.99844,-45.17879],[-69.99927,-45.17663],[-70.00026,-45.1602],[-69.99985,-45.15915],[-69.99285,-45.15051],[-69.99208,-45.14914],[-69.99198,-45.14715],[-70.03874,-44.98859],[-70.03947,-44.98705],[-70.04076,-44.98563],[-70.04329,-44.98353],[-70.04663,-44.98116],[-70.0478,-44.97991],[-70.05077,-44.97555],[-70.05236,-44.969],[-70.05335,-44.96715],[-70.08332,-44.92396],[-70.10628,-44.89137],[-70.10688,-44.88955],[-70.10682,-44.88749],[-70.10275,-44.87052],[-70.10555,-44.84656],[-70.10612,-44.84498],[-70.10704,-44.84384],[-70.11484,-44.83722],[-70.11701,-44.83253],[-70.11752,-44.83191],[-70.11892,-44.83097],[-70.11957,-44.83072],[-70.12159,-44.83047],[-70.13337,-44.83026],[-70.13515,-44.83006],[-70.13693,-44.82961],[-70.13886,-44.82879],[-70.15783,-44.81773],[-70.15944,-44.8164],[-70.16854,-44.80532],[-70.17433,-44.8007],[-70.17506,-44.7999],[-70.20858,-44.74847],[-70.20967,-44.74704],[-70.24506,-44.71372],[-70.27881,-44.68142],[-70.36037,-44.60465],[-70.36211,-44.60243],[-70.39085,-44.55416],[-70.39684,-44.54536],[-70.41068,-44.51617],[-70.42233,-44.49744],[-70.44288,-44.46718],[-70.44338,-44.46583],[-70.44351,-44.46407],[-70.44012,-44.41495],[-70.4407,-44.40502],[-70.44137,-44.38542],[-70.44118,-44.38389],[-70.44053,-44.38231],[-70.42255,-44.34969],[-70.41548,-44.33636],[-70.39991,-44.29064],[-70.39439,-44.27756],[-70.3944,-44.276],[-70.39775,-44.26703],[-70.3983,-44.26572],[-70.39914,-44.26448],[-70.40147,-44.26207],[-70.40486,-44.26001],[-70.40566,-44.25929],[-70.40753,-44.25691],[-70.40899,-44.25554],[-70.41551,-44.25136],[-70.4176,-44.24983],[-70.42687,-44.23772],[-70.42784,-44.23561],[-70.42998,-44.22492],[-70.43401,-44.21311],[-70.43509,-44.21154],[-70.43658,-44.21042],[-70.44073,-44.2085],[-70.44202,-44.20767],[-70.44302,-44.20643],[-70.44473,-44.20347],[-70.44587,-44.20209],[-70.46869,-44.18414],[-70.47061,-44.18213],[-70.50784,-44.09984],[-70.51092,-44.09348],[-70.51247,-44.09206],[-70.51368,-44.09135],[-70.54247,-44.07545],[-70.54697,-44.07314],[-70.55071,-44.07071],[-70.55211,-44.06911],[-70.55286,-44.06679],[-70.55346,-44.06047],[-70.55262,-44.05914],[-70.55285,-44.0587],[-70.55321,-44.05853],[-70.55449,-44.05846],[-70.5733,-44.05457],[-70.58077,-44.05151],[-70.60014,-44.04649],[-70.61041,-44.0458],[-70.63153,-44.04575],[-70.63792,-44.04559],[-70.73577,-44.02401],[-70.73812,-44.02386],[-70.74021,-44.02407],[-70.75232,-44.02709],[-70.75362,-44.02713],[-70.75532,-44.02673],[-70.76171,-44.02299],[-70.76514,-44.02053],[-70.76586,-44.01982],[-70.77072,-44.01336],[-70.77465,-44.00749],[-70.77863,-44.00234],[-70.7802,-44.00114],[-70.78179,-44.00056],[-70.81184,-43.99445],[-70.81421,-43.99424],[-70.82435,-43.99461],[-70.82771,-43.99406],[-70.82968,-43.99345],[-70.83091,-43.9927],[-70.83632,-43.98808],[-70.83979,-43.98551],[-70.85849,-43.97312],[-70.88151,-43.96288],[-70.88576,-43.96032],[-70.89064,-43.95677],[-70.892,-43.95518],[-70.89284,-43.95349],[-70.90396,-43.89617],[-70.9115,-43.87278],[-70.92063,-43.84112],[-70.92094,-43.83866],[-70.91967,-43.83014],[-70.92009,-43.82661],[-70.92138,-43.82389],[-70.93509,-43.80497],[-70.93601,-43.80321],[-70.93594,-43.80024],[-70.93404,-43.77669],[-70.93343,-43.77502],[-70.93227,-43.77331],[-70.89739,-43.73192],[-70.87286,-43.70753],[-70.87073,-43.70572],[-70.85634,-43.69572],[-70.85437,-43.69381],[-70.83854,-43.6692],[-70.8297,-43.65639],[-70.82789,-43.65244],[-70.82821,-43.6511],[-70.82893,-43.65025],[-70.84119,-43.63911],[-70.84182,-43.63829],[-70.84203,-43.63759],[-70.84022,-43.62086],[-70.83573,-43.61237],[-70.83461,-43.60797],[-70.83477,-43.60595],[-70.83667,-43.60303],[-70.83706,-43.60079],[-70.83694,-43.59932],[-70.83292,-43.59254],[-70.82564,-43.57181],[-70.82503,-43.57071],[-70.8135,-43.55801],[-70.80859,-43.55403],[-70.80291,-43.54813],[-70.79475,-43.53403],[-70.79419,-43.53196],[-70.79424,-43.53078],[-70.79464,-43.52942],[-70.79729,-43.52422],[-70.79851,-43.52261],[-70.8021,-43.51917],[-70.80254,-43.51848],[-70.80304,-43.50865],[-70.80348,-43.50578],[-70.80895,-43.49034],[-70.8099,-43.48862],[-70.81566,-43.48328],[-70.82072,-43.47956],[-70.82663,-43.47473],[-70.82845,-43.47353],[-70.83446,-43.47025],[-70.84032,-43.46862],[-70.85433,-43.46427],[-70.85586,-43.46325],[-70.86018,-43.45883],[-70.86416,-43.45612],[-70.88058,-43.43602],[-70.88095,-43.4351],[-70.88239,-43.42848],[-70.88288,-43.42765],[-70.88463,-43.4259],[-70.88537,-43.42485],[-70.88603,-43.42215],[-70.88737,-43.41835],[-70.88731,-43.41697],[-70.88706,-43.4163],[-70.88436,-43.4126],[-70.87833,-43.40879],[-70.87517,-43.40564],[-70.87461,-43.40476],[-70.87441,-43.40381],[-70.87461,-43.40278],[-70.87648,-43.39983],[-70.87674,-43.39906],[-70.87678,-43.39598],[-70.87618,-43.39464],[-70.87327,-43.39211],[-70.87286,-43.3911],[-70.87287,-43.39038],[-70.87324,-43.3894],[-70.87714,-43.38362],[-70.88039,-43.37883],[-70.8831,-43.37528],[-70.88356,-43.37418],[-70.88356,-43.37288],[-70.88293,-43.37001],[-70.8807,-43.36586],[-70.88026,-43.36134],[-70.87763,-43.35714],[-70.87776,-43.35566],[-70.88016,-43.35259],[-70.88104,-43.35015],[-70.88092,-43.34869],[-70.87924,-43.34583],[-70.87915,-43.34444],[-70.87971,-43.34348],[-70.8859,-43.33803],[-70.89506,-43.32872],[-70.896,-43.32732],[-70.89628,-43.32463],[-70.89651,-43.31012],[-70.89589,-43.30855],[-70.87995,-43.27931],[-70.87926,-43.27837],[-70.86572,-43.26784],[-70.8577,-43.26317],[-70.85675,-43.26248],[-70.85579,-43.26144],[-70.85358,-43.25719],[-70.85306,-43.25269],[-70.85385,-43.248],[-70.85526,-43.24474],[-70.85575,-43.24296],[-70.8559,-43.23832],[-70.85477,-43.23152],[-70.85366,-43.22925],[-70.85047,-43.22618],[-70.84818,-43.22456],[-70.84417,-43.22272],[-70.84237,-43.22122],[-70.83349,-43.20836],[-70.83253,-43.20657],[-70.83175,-43.20395],[-70.83197,-43.20108],[-70.83248,-43.20021],[-70.83324,-43.1995],[-70.84012,-43.19358],[-70.84097,-43.19263],[-70.84403,-43.18454],[-70.84561,-43.17738],[-70.84548,-43.17609],[-70.84494,-43.17486],[-70.83937,-43.16584],[-70.83888,-43.16457],[-70.83816,-43.15572],[-70.83913,-43.15117],[-70.84194,-43.14434],[-70.84268,-43.14318],[-70.84339,-43.14263],[-70.84691,-43.14105],[-70.8499,-43.1381],[-70.85076,-43.13766],[-70.85728,-43.13603],[-70.85865,-43.13501],[-70.86234,-43.13164],[-70.86399,-43.13067],[-70.86562,-43.13039],[-70.87257,-43.13024],[-70.87363,-43.12997],[-70.87488,-43.12924],[-70.87585,-43.12785],[-70.87573,-43.12489],[-70.87641,-43.12333],[-70.8778,-43.12235],[-70.88275,-43.12043],[-70.88392,-43.11928],[-70.88644,-43.10916],[-70.88681,-43.10838],[-70.8877,-43.10735],[-70.88859,-43.10669],[-70.92345,-43.08724],[-70.9252,-43.0865],[-70.92774,-43.08591],[-70.92991,-43.08506],[-70.9361,-43.07969],[-70.93783,-43.07769],[-70.93877,-43.07543],[-70.94016,-43.0693],[-70.94108,-43.06775],[-70.94193,-43.06707],[-70.94773,-43.06375],[-70.96668,-43.05061],[-70.97849,-43.04445],[-70.98669,-43.04056],[-71.00287,-43.03308],[-71.02026,-43.02578],[-71.03829,-43.01709],[-71.06606,-43.0057],[-71.08688,-42.99753],[-71.08857,-42.99655],[-71.09203,-42.99396],[-71.09368,-42.99295],[-71.13057,-42.97567],[-71.13316,-42.97499],[-71.1402,-42.97429],[-71.14207,-42.97398],[-71.14931,-42.97165],[-71.15099,-42.97154],[-71.15362,-42.97168],[-71.15499,-42.97151],[-71.1563,-42.97091],[-71.15816,-42.96931],[-71.15973,-42.96876],[-71.16516,-42.96892],[-71.17369,-42.97058],[-71.17563,-42.9705],[-71.17654,-42.97012],[-71.17741,-42.9695],[-71.17967,-42.96611],[-71.1804,-42.96549],[-71.18149,-42.9649],[-71.18962,-42.96322],[-71.1945,-42.96298],[-71.19605,-42.96274],[-71.19759,-42.96217],[-71.20414,-42.95893],[-71.20661,-42.95752],[-71.21384,-42.95205],[-71.21477,-42.95111],[-71.21566,-42.94939],[-71.21546,-42.94908],[-71.21508,-42.94898],[-71.21119,-42.94946],[-71.20942,-42.94928],[-71.20597,-42.9472],[-71.20093,-42.9456],[-71.19783,-42.94435],[-71.16915,-42.92813],[-71.16674,-42.92632],[-71.16619,-42.92547],[-71.16587,-42.92438],[-71.1659,-42.92344],[-71.16663,-42.92044],[-71.16657,-42.91927],[-71.16617,-42.91797],[-71.15461,-42.90017],[-71.15265,-42.89868],[-71.14856,-42.89649],[-71.14682,-42.89481],[-71.12315,-42.84983],[-71.12116,-42.84677],[-71.11777,-42.84332],[-71.11712,-42.84235],[-71.11665,-42.84114],[-71.11638,-42.83749],[-71.11596,-42.81741],[-71.12163,-42.79386],[-71.12113,-42.78853],[-71.12148,-42.78722],[-71.12281,-42.78468],[-71.12296,-42.78368],[-71.12282,-42.78254],[-71.1217,-42.78048],[-71.1141,-42.77137],[-71.11259,-42.76623],[-71.10483,-42.75586],[-71.09757,-42.74381],[-71.09719,-42.74213],[-71.09745,-42.73622],[-71.0966,-42.73445],[-71.09542,-42.73333],[-71.09464,-42.73294],[-71.09125,-42.73198],[-71.08881,-42.73183],[-71.08173,-42.73215],[-71.08033,-42.73191],[-71.07867,-42.73131],[-71.07374,-42.72918],[-71.06263,-42.72406],[-71.06094,-42.72314],[-71.05968,-42.72187],[-71.05661,-42.71682],[-71.05399,-42.71342],[-71.05314,-42.71271],[-71.05195,-42.71242],[-71.04632,-42.71212],[-71.04026,-42.71084],[-71.03334,-42.71081],[-71.03146,-42.7105],[-71.02043,-42.70441],[-71.01732,-42.70328],[-71.01308,-42.70238],[-71.01191,-42.70183],[-71.01122,-42.70118],[-71.00943,-42.69801],[-71.0096,-42.69682],[-71.01055,-42.69572],[-71.01834,-42.69053],[-71.01908,-42.68979],[-71.01946,-42.68853],[-71.01897,-42.68558],[-71.01963,-42.68444],[-71.02082,-42.68391],[-71.0274,-42.68292],[-71.03102,-42.68153],[-71.03541,-42.67946],[-71.03586,-42.67892],[-71.03599,-42.67831],[-71.03481,-42.67379],[-71.03488,-42.67309],[-71.03559,-42.67227],[-71.04005,-42.67014],[-71.04146,-42.66867],[-71.04267,-42.66836],[-71.04777,-42.66928],[-71.05035,-42.66885],[-71.05452,-42.6692],[-71.05586,-42.66894],[-71.05889,-42.66786],[-71.06021,-42.66759],[-71.06933,-42.66743],[-71.07012,-42.66711],[-71.07883,-42.6606],[-71.07976,-42.65959],[-71.08047,-42.65808],[-71.08088,-42.65466],[-71.08107,-42.64362],[-71.08089,-42.64228],[-71.07942,-42.6404],[-71.06596,-42.62838],[-71.06544,-42.62743],[-71.06564,-42.62644],[-71.06648,-42.62569],[-71.06971,-42.6247],[-71.07223,-42.62414],[-71.07753,-42.62221],[-71.07845,-42.62149],[-71.07876,-42.6208],[-71.07867,-42.62],[-71.07676,-42.61662],[-71.0766,-42.61563],[-71.07676,-42.61503],[-71.07906,-42.61102],[-71.07952,-42.6091],[-71.07941,-42.60828],[-71.07563,-42.59753],[-71.06819,-42.57686],[-71.068,-42.57529],[-71.06849,-42.57367],[-71.06911,-42.57293],[-71.07941,-42.56484],[-71.08143,-42.56294],[-71.09268,-42.54732],[-71.09952,-42.54018],[-71.10198,-42.53546],[-71.10181,-42.53457],[-71.09625,-42.52531],[-71.09569,-42.52363],[-71.09411,-42.48317],[-71.10643,-42.41354],[-71.10957,-42.40486],[-71.10998,-42.40243],[-71.11114,-42.38485],[-71.11279,-42.36914],[-71.10722,-42.35528],[-71.10702,-42.35367],[-71.10786,-42.35041],[-71.1087,-42.34867],[-71.10981,-42.34735],[-71.13126,-42.32333],[-71.13235,-42.3223],[-71.13371,-42.32151],[-71.21229,-42.29835],[-71.2271,-42.29414],[-71.23297,-42.29313],[-71.23826,-42.29294],[-71.25245,-42.29461],[-71.26264,-42.29482],[-71.26537,-42.2945],[-71.27352,-42.2926],[-71.27591,-42.2925],[-71.27731,-42.29283],[-71.28583,-42.29603],[-71.28684,-42.29674],[-71.2894,-42.29939],[-71.29102,-42.30025],[-71.29902,-42.30257],[-71.30136,-42.30297],[-71.30378,-42.30267],[-71.31217,-42.29991],[-71.34755,-42.29255],[-71.34876,-42.29237],[-71.35201,-42.2924],[-71.35268,-42.2923],[-71.35338,-42.29193],[-71.35375,-42.29106],[-71.35329,-42.28585],[-71.35338,-42.28479],[-71.3541,-42.28335],[-71.36069,-42.27447],[-71.36254,-42.26926],[-71.36258,-42.26815],[-71.36224,-42.2671],[-71.36143,-42.26605],[-71.35619,-42.26264],[-71.35493,-42.2613],[-71.35435,-42.26012],[-71.35388,-42.24994],[-71.35615,-42.24227],[-71.35623,-42.24005],[-71.35438,-42.2357],[-71.35134,-42.23044],[-71.3501,-42.2293],[-71.34769,-42.22796],[-71.34706,-42.22701],[-71.34701,-42.22599],[-71.34823,-42.22441],[-71.34978,-42.22338],[-71.3509,-42.22307],[-71.35793,-42.22212],[-71.35879,-42.22172],[-71.36021,-42.22055],[-71.36127,-42.21998],[-71.36669,-42.21879],[-71.37637,-42.21456],[-71.38071,-42.21157],[-71.38166,-42.21064],[-71.38301,-42.20875],[-71.38394,-42.20791],[-71.38977,-42.20374],[-71.39406,-42.20201],[-71.39636,-42.19978],[-71.39668,-42.19883],[-71.39651,-42.19781],[-71.39452,-42.19529],[-71.39412,-42.19435],[-71.39417,-42.19333],[-71.39465,-42.19178],[-71.39427,-42.18985],[-71.39436,-42.18901],[-71.39512,-42.18737],[-71.39551,-42.1849],[-71.39604,-42.18356],[-71.39895,-42.18059],[-71.39993,-42.17802],[-71.40292,-42.17368],[-71.4034,-42.17239],[-71.40215,-42.16685],[-71.40202,-42.16528],[-71.40222,-42.16019],[-71.40386,-42.15581],[-71.40365,-42.15181],[-71.40316,-42.15032],[-71.39924,-42.14405],[-71.39919,-42.14323],[-71.39967,-42.14193],[-71.40032,-42.14138],[-71.40178,-42.14071],[-71.4049,-42.1399],[-71.40624,-42.13925],[-71.4202,-42.13065],[-71.42158,-42.12949],[-71.42755,-42.12317],[-71.43324,-42.11866],[-71.43843,-42.11541],[-71.43937,-42.11439],[-71.43996,-42.11318],[-71.44113,-42.10518],[-71.44204,-42.10367],[-71.44379,-42.10231],[-71.44777,-42.10095],[-71.45358,-42.09934],[-71.45762,-42.09717],[-71.45897,-42.09685],[-71.46247,-42.09669],[-71.46441,-42.09643],[-71.47392,-42.09448],[-71.47559,-42.09394],[-71.47788,-42.09254],[-71.48202,-42.09089],[-71.48319,-42.08991],[-71.48441,-42.08827],[-71.48546,-42.08736],[-71.49108,-42.08375],[-71.49292,-42.08316],[-71.50316,-42.08079],[-71.50952,-42.07823],[-71.51085,-42.07725],[-71.5116,-42.0763],[-71.51483,-42.07041],[-71.51667,-42.06843],[-71.51806,-42.06726],[-71.51914,-42.06667],[-71.52489,-42.06444],[-71.52764,-42.06237],[-71.52905,-42.06171],[-71.53095,-42.06123],[-71.53453,-42.0608],[-71.536,-42.06016],[-71.53797,-42.05767],[-71.54159,-42.0559],[-71.54244,-42.05502],[-71.54235,-42.05378],[-71.54005,-42.0516],[-71.53915,-42.04937],[-71.53914,-42.0482],[-71.54033,-42.04515],[-71.54139,-42.04132],[-71.54553,-42.03523],[-71.54622,-42.03369],[-71.546,-42.02634],[-71.54559,-42.02405],[-71.53858,-42.01365],[-71.53412,-42.0027],[-71.53263,-42.00052],[-71.5317,-41.99962],[-71.52992,-41.99858],[-71.52592,-41.99693],[-71.52467,-41.99602],[-71.52414,-41.99524],[-71.52216,-41.98968],[-71.5226,-41.98726],[-71.52472,-41.98261],[-71.52474,-41.98188],[-71.52385,-41.97791],[-71.524,-41.9771],[-71.52509,-41.97469],[-71.52612,-41.97353],[-71.52829,-41.97203],[-71.53284,-41.97006],[-71.53601,-41.96728],[-71.53684,-41.96681],[-71.53709,-41.96425],[-71.5367,-41.95939],[-71.5362,-41.9571],[-71.53672,-41.95187],[-71.5366,-41.94917],[-71.53367,-41.93797],[-71.53405,-41.93639],[-71.53635,-41.93309],[-71.5365,-41.93201],[-71.53617,-41.93102],[-71.5306,-41.92517],[-71.5208,-41.91415],[-71.51532,-41.91048],[-71.51426,-41.9096],[-71.51133,-41.9056],[-71.50486,-41.89859],[-71.49839,-41.89425],[-71.49004,-41.88712],[-71.4874,-41.88511],[-71.4807,-41.88162],[-71.47842,-41.88063],[-71.47343,-41.87988],[-71.46856,-41.8808],[-71.46658,-41.88076],[-71.46513,-41.88008],[-71.46371,-41.87857],[-71.46261,-41.87792],[-71.46057,-41.87721],[-71.45797,-41.87717],[-71.45667,-41.87685],[-71.45403,-41.8756],[-71.45169,-41.8739],[-71.44897,-41.87236],[-71.44725,-41.87045],[-71.44522,-41.86897],[-71.44127,-41.86702],[-71.44026,-41.86634],[-71.4366,-41.86247],[-71.43438,-41.85966],[-71.43104,-41.85373],[-71.42787,-41.85038],[-71.42489,-41.84846],[-71.42328,-41.84688],[-71.41953,-41.83978],[-71.4192,-41.83855],[-71.41974,-41.83296],[-71.41955,-41.82966],[-71.4198,-41.82814],[-71.42042,-41.82694],[-71.42373,-41.82329],[-71.42905,-41.81245],[-71.42934,-41.81061],[-71.42828,-41.80504],[-71.42842,-41.80341],[-71.43192,-41.79675],[-71.43253,-41.79395],[-71.43497,-41.79033],[-71.43588,-41.78795],[-71.43539,-41.78655],[-71.42999,-41.77895],[-71.42969,-41.77755],[-71.4301,-41.77477],[-71.43074,-41.77262],[-71.43191,-41.77111],[-71.43858,-41.76726],[-71.44374,-41.76241],[-71.44397,-41.7612],[-71.44372,-41.76064],[-71.44178,-41.75908],[-71.44106,-41.75819],[-71.44097,-41.75532],[-71.44145,-41.75402],[-71.44209,-41.75327],[-71.44398,-41.75241],[-71.47498,-41.74629],[-71.47613,-41.74559],[-71.47657,-41.7447],[-71.47656,-41.74393],[-71.47624,-41.74338],[-71.47487,-41.74252],[-71.47256,-41.74168],[-71.46791,-41.74061],[-71.46625,-41.73973],[-71.46586,-41.73928],[-71.46569,-41.73825],[-71.46632,-41.73559],[-71.46574,-41.73497],[-71.46383,-41.73439],[-71.4634,-41.73395],[-71.46338,-41.73339],[-71.46375,-41.73238],[-71.46339,-41.73139],[-71.46333,-41.73018],[-71.4615,-41.72896],[-71.45955,-41.72812],[-71.45901,-41.7276],[-71.45837,-41.72647],[-71.45694,-41.7257],[-71.45655,-41.72507],[-71.45593,-41.72291],[-71.45433,-41.72083],[-71.45364,-41.72062],[-71.45238,-41.72066],[-71.45125,-41.72028],[-71.45073,-41.71929],[-71.45057,-41.71765],[-71.45022,-41.71684],[-71.44908,-41.71575],[-71.44364,-41.71166],[-71.44164,-41.70891],[-71.44039,-41.70844],[-71.43792,-41.70851],[-71.43686,-41.70789],[-71.43667,-41.70697],[-71.43745,-41.70572],[-71.43759,-41.70481],[-71.43684,-41.70276],[-71.43488,-41.7007],[-71.43463,-41.69967],[-71.43522,-41.69852],[-71.43617,-41.69797],[-71.44363,-41.69635],[-71.44539,-41.69573],[-71.44633,-41.69516],[-71.44774,-41.69346],[-71.45163,-41.68642],[-71.4521,-41.68477],[-71.45189,-41.6835],[-71.44964,-41.67741],[-71.44935,-41.67611],[-71.44943,-41.67496],[-71.45123,-41.67087],[-71.45523,-41.66763],[-71.45589,-41.66687],[-71.4562,-41.666],[-71.45598,-41.66335],[-71.45619,-41.66252],[-71.45695,-41.66163],[-71.4598,-41.65944],[-71.46046,-41.65823],[-71.45987,-41.65386],[-71.45702,-41.65053],[-71.45576,-41.64772],[-71.45598,-41.64651],[-71.45753,-41.64469],[-71.45814,-41.64273],[-71.4578,-41.64162],[-71.45639,-41.63985],[-71.45599,-41.63885],[-71.45609,-41.63673],[-71.45533,-41.6337],[-71.45646,-41.63021],[-71.45657,-41.6293],[-71.45646,-41.62856],[-71.45525,-41.62584],[-71.45521,-41.625],[-71.45552,-41.62396],[-71.45769,-41.62043],[-71.46072,-41.61731],[-71.46188,-41.61663],[-71.46558,-41.61521],[-71.46878,-41.61242],[-71.46996,-41.61076],[-71.47186,-41.60998],[-71.4728,-41.60928],[-71.47322,-41.60801],[-71.4725,-41.60419],[-71.47309,-41.60321],[-71.47416,-41.60274],[-71.4759,-41.60268],[-71.47685,-41.60248],[-71.47743,-41.60213],[-71.47892,-41.60034],[-71.47962,-41.60008],[-71.48225,-41.59959],[-71.48345,-41.59893],[-71.48389,-41.59772],[-71.48342,-41.59507],[-71.48376,-41.5942],[-71.48502,-41.59228],[-71.4857,-41.5917],[-71.48847,-41.59105],[-71.48915,-41.59063],[-71.49141,-41.58781],[-71.49338,-41.5848],[-71.49407,-41.58432],[-71.49531,-41.58387],[-71.49619,-41.58164],[-71.49692,-41.58101],[-71.49828,-41.58051],[-71.49911,-41.57893],[-71.49866,-41.57734],[-71.49934,-41.57553],[-71.4991,-41.5746],[-71.49838,-41.57414],[-71.49692,-41.57388],[-71.49617,-41.57352],[-71.49575,-41.57271],[-71.496,-41.57155],[-71.49582,-41.57104],[-71.49389,-41.57008],[-71.49165,-41.56807],[-71.49048,-41.56621],[-71.48861,-41.56548],[-71.48611,-41.56499],[-71.48412,-41.56379],[-71.48331,-41.56282],[-71.48289,-41.5619],[-71.48264,-41.55927],[-71.48147,-41.55721],[-71.48068,-41.55642],[-71.4785,-41.5548],[-71.47617,-41.55378],[-71.47346,-41.55175],[-71.46996,-41.55015],[-71.46919,-41.54912],[-71.46778,-41.54827],[-71.4668,-41.54647],[-71.46639,-41.5461],[-71.46574,-41.54587],[-71.46488,-41.54587],[-71.46211,-41.54674],[-71.46125,-41.5466],[-71.46053,-41.54606],[-71.45896,-41.54316],[-71.45876,-41.54186],[-71.45883,-41.53927],[-71.45799,-41.53675],[-71.45739,-41.53571],[-71.45824,-41.53246],[-71.45802,-41.53116],[-71.45818,-41.5298],[-71.45796,-41.52894],[-71.45817,-41.52779],[-71.45917,-41.5263],[-71.46132,-41.52522],[-71.46217,-41.5252],[-71.46298,-41.52546],[-71.46564,-41.52722],[-71.46636,-41.52727],[-71.46714,-41.52703],[-71.46765,-41.52611],[-71.46737,-41.52555],[-71.46697,-41.52529],[-71.46609,-41.52514],[-71.46493,-41.52535],[-71.46417,-41.52521],[-71.46291,-41.52429],[-71.46074,-41.52351],[-71.45539,-41.52111],[-71.45445,-41.52037],[-71.4542,-41.51969],[-71.45429,-41.51898],[-71.45492,-41.51823],[-71.45914,-41.51635],[-71.46042,-41.51627],[-71.46274,-41.51674],[-71.4634,-41.51667],[-71.46487,-41.51611],[-71.46542,-41.51536],[-71.46535,-41.51482],[-71.46405,-41.51274],[-71.46446,-41.51166],[-71.46564,-41.51101],[-71.46884,-41.51114],[-71.46956,-41.51084],[-71.47003,-41.51019],[-71.46985,-41.50939],[-71.4671,-41.50776],[-71.46635,-41.50665],[-71.46633,-41.50565],[-71.46702,-41.50172],[-71.4658,-41.49809],[-71.46607,-41.49721],[-71.46974,-41.49131],[-71.4707,-41.48827],[-71.47057,-41.48409],[-71.46954,-41.48096],[-71.47215,-41.47686],[-71.47135,-41.4732],[-71.4713,-41.47134],[-71.4724,-41.46877],[-71.47498,-41.4667],[-71.48055,-41.46074],[-71.48181,-41.45863],[-71.48183,-41.45798],[-71.48091,-41.45492],[-71.48066,-41.45276],[-71.48083,-41.45125],[-71.48238,-41.44707],[-71.4831,-41.44633],[-71.48441,-41.44555],[-71.48496,-41.44467],[-71.4847,-41.44261],[-71.48615,-41.43484],[-71.4895,-41.42935],[-71.48992,-41.42806],[-71.49062,-41.42326],[-71.49148,-41.42131],[-71.49259,-41.41978],[-71.49305,-41.4181],[-71.49309,-41.41586],[-71.49215,-41.41309],[-71.49241,-41.41154],[-71.49317,-41.41025],[-71.49351,-41.40888],[-71.49397,-41.40406],[-71.49624,-41.39984],[-71.49646,-41.39824],[-71.49838,-41.39648],[-71.49921,-41.395],[-71.49932,-41.39316],[-71.50004,-41.39146],[-71.50051,-41.38832],[-71.50129,-41.38579],[-71.50308,-41.38236],[-71.50567,-41.37929],[-71.50995,-41.37612],[-71.51148,-41.37156],[-71.51438,-41.3687],[-71.51669,-41.3646],[-71.51646,-41.36294],[-71.51683,-41.36067],[-71.51541,-41.35887],[-71.51563,-41.35693],[-71.51454,-41.35574],[-71.51145,-41.35077],[-71.5096,-41.34955],[-71.50742,-41.34704],[-71.50648,-41.34493],[-71.50559,-41.34389],[-71.50502,-41.34124],[-71.50267,-41.33542],[-71.5016,-41.33378],[-71.49911,-41.3277],[-71.49752,-41.32546],[-71.49614,-41.319],[-71.49413,-41.31615],[-71.49207,-41.31039],[-71.49162,-41.30662],[-71.49174,-41.30316],[-71.4925,-41.30167],[-71.49197,-41.29985],[-71.49226,-41.29712],[-71.49382,-41.29329],[-71.49517,-41.2907],[-71.49572,-41.28814],[-71.4968,-41.28626],[-71.49797,-41.28245],[-71.498,-41.28077],[-71.49712,-41.27762],[-71.4978,-41.27407],[-71.49696,-41.26941],[-71.49641,-41.26836],[-71.495,-41.26702],[-71.49362,-41.26403],[-71.49298,-41.26336],[-71.49213,-41.26286],[-71.48825,-41.26123],[-71.48246,-41.2596],[-71.47426,-41.25855],[-71.45681,-41.2517],[-71.4529,-41.25105],[-71.45056,-41.25026],[-71.44841,-41.24918],[-71.44666,-41.24767],[-71.44509,-41.24688],[-71.44324,-41.24648],[-71.44204,-41.24568],[-71.44032,-41.24512],[-71.43939,-41.24452],[-71.43772,-41.24181],[-71.43523,-41.24045],[-71.4345,-41.23975],[-71.43331,-41.238],[-71.43233,-41.23587],[-71.43115,-41.23471],[-71.42929,-41.2341],[-71.42553,-41.23414],[-71.42382,-41.23334],[-71.42236,-41.23288],[-71.42193,-41.23241],[-71.42081,-41.22986],[-71.42034,-41.22931],[-71.41921,-41.22868],[-71.41675,-41.22805],[-71.41544,-41.2272],[-71.41411,-41.22498],[-71.41315,-41.22384],[-71.4128,-41.22144],[-71.41098,-41.21966],[-71.40987,-41.21808],[-71.40897,-41.21751],[-71.40663,-41.21654],[-71.40378,-41.2145],[-71.40295,-41.21364],[-71.40223,-41.21145],[-71.40157,-41.21038],[-71.40085,-41.20849],[-71.4008,-41.20605],[-71.39928,-41.20406],[-71.39861,-41.2006],[-71.39757,-41.1982],[-71.39563,-41.19613],[-71.39488,-41.19493],[-71.39333,-41.19358],[-71.39101,-41.18913],[-71.38792,-41.18681],[-71.38724,-41.18653],[-71.38453,-41.18616],[-71.37994,-41.18503],[-71.37429,-41.18233],[-71.3701,-41.18087],[-71.34777,-41.17519],[-71.33881,-41.17256],[-71.33712,-41.17244],[-71.33549,-41.17158],[-71.32549,-41.16859],[-71.3228,-41.16712],[-71.32096,-41.16541],[-71.31819,-41.16158],[-71.31691,-41.16066],[-71.31745,-41.16005],[-71.31794,-41.15721],[-71.31302,-41.14742],[-71.31273,-41.146],[-71.31367,-41.14368],[-71.31376,-41.14277],[-71.313,-41.13919],[-71.3122,-41.13667],[-71.31259,-41.13549],[-71.31346,-41.13493],[-71.31295,-41.1347],[-71.31269,-41.13393],[-71.31221,-41.13356],[-71.31174,-41.13347],[-71.31017,-41.13362]],"type":"LineString"}},{"type":"Feature","properties":{"name":"Puerto Natales, Chile"},"geometry":{"type":"Point","coordinates":[-72.506,-51.7262]}},{"type":"Feature","properties":{"name":"El Calafate, Argentina"},"geometry":{"type":"Point","coordinates":[-72.27372,-50.33874]}},{"type":"Feature","properties":{"name":"El Chalten, Argentina"},"geometry":{"type":"Point","coordinates":[-72.88604,-49.33196]}},{"type":"Feature","properties":{"name":"Perito Moreno, Argentina"},"geometry":{"type":"Point","coordinates":[-70.92552,-46.59159]}},{"type":"Feature","properties":{"name":"Bariloche, Argentina"},"geometry":{"type":"Point","coordinates":[-71.31015,-41.13348]}}]}