{"type":"FeatureCollection","features":[{"type":"Feature","properties":{"name":"Porto, Portugal → Aveiro, Portugal"},"geometry":{"coordinates":[[-8.61032,41.15022],[-8.61024,41.15061],[-8.60945,41.15021],[-8.60949,41.14914],[-8.60786,41.14876],[-8.60718,41.1501],[-8.60092,41.14876],[-8.59882,41.14837],[-8.59828,41.1484],[-8.59736,41.14597],[-8.59534,41.14602],[-8.58906,41.14714],[-8.5872,41.14728],[-8.58449,41.14648],[-8.58295,41.14506],[-8.58195,41.14481],[-8.57993,41.14529],[-8.57943,41.14584],[-8.57889,41.14599],[-8.57898,41.14621],[-8.57939,41.14626],[-8.58055,41.14687],[-8.58116,41.14747],[-8.58134,41.14792],[-8.58118,41.14824],[-8.58083,41.1484],[-8.58036,41.14826],[-8.58028,41.14791],[-8.58097,41.14671],[-8.58117,41.1456],[-8.58067,41.13772],[-8.57988,41.13651],[-8.57745,41.13472],[-8.57662,41.13336],[-8.57603,41.12983],[-8.57432,41.1262],[-8.57297,41.12212],[-8.57234,41.11997],[-8.57195,41.11703],[-8.5716,41.11607],[-8.5709,41.11504],[-8.56663,41.11035],[-8.56597,41.10929],[-8.56563,41.1081],[-8.56584,41.10612],[-8.5674,41.10292],[-8.56868,41.10165],[-8.57135,41.09962],[-8.57248,41.098],[-8.57356,41.09398],[-8.57556,41.08958],[-8.57585,41.08848],[-8.57589,41.087],[-8.57543,41.08275],[-8.5758,41.08057],[-8.57707,41.07827],[-8.57969,41.07516],[-8.58065,41.0737],[-8.58155,41.07175],[-8.58202,41.07009],[-8.58205,41.06814],[-8.58178,41.06696],[-8.57914,41.06103],[-8.57783,41.05672],[-8.57654,41.05482],[-8.57279,41.05153],[-8.57173,41.04973],[-8.57138,41.04853],[-8.57094,41.0448],[-8.5701,41.042],[-8.56997,41.04084],[-8.5704,41.03858],[-8.57153,41.03642],[-8.57212,41.03473],[-8.57225,41.03349],[-8.57207,41.03016],[-8.57257,41.02836],[-8.57344,41.02691],[-8.57529,41.02475],[-8.57971,41.02121],[-8.5809,41.0196],[-8.58221,41.01714],[-8.583,41.01211],[-8.58243,41.00741],[-8.58262,41.00401],[-8.58382,40.99772],[-8.58418,40.99636],[-8.58543,40.99377],[-8.58579,40.99248],[-8.58581,40.99114],[-8.5853,40.9889],[-8.58459,40.98768],[-8.58338,40.98636],[-8.5821,40.98532],[-8.57929,40.98342],[-8.57767,40.98154],[-8.57684,40.97982],[-8.57584,40.97615],[-8.57521,40.97509],[-8.57316,40.97278],[-8.57109,40.96938],[-8.56883,40.96688],[-8.56819,40.96578],[-8.56785,40.96464],[-8.56775,40.96239],[-8.56838,40.96035],[-8.56919,40.95906],[-8.57124,40.95675],[-8.57239,40.95457],[-8.57277,40.95259],[-8.57299,40.94925],[-8.57416,40.94567],[-8.57445,40.94372],[-8.5744,40.94179],[-8.57371,40.93842],[-8.57253,40.93552],[-8.56943,40.92955],[-8.56832,40.92621],[-8.56784,40.92358],[-8.56772,40.92116],[-8.56797,40.91311],[-8.56692,40.90417],[-8.56703,40.90239],[-8.56848,40.89558],[-8.56851,40.89211],[-8.56828,40.89042],[-8.56779,40.88871],[-8.56715,40.88753],[-8.56541,40.88561],[-8.56304,40.88366],[-8.56206,40.88252],[-8.56137,40.88134],[-8.56094,40.87996],[-8.56016,40.87065],[-8.55975,40.86814],[-8.5585,40.86392],[-8.55605,40.85867],[-8.55559,40.85716],[-8.55557,40.85466],[-8.55743,40.84976],[-8.55763,40.8487],[-8.55753,40.8464],[-8.55713,40.84504],[-8.5559,40.84232],[-8.55526,40.84007],[-8.55476,40.83155],[-8.55414,40.82754],[-8.5531,40.82421],[-8.54989,40.81735],[-8.54844,40.81235],[-8.54823,40.81031],[-8.54827,40.80688],[-8.54955,40.79688],[-8.54953,40.79329],[-8.54888,40.79045],[-8.54502,40.78269],[-8.54407,40.77976],[-8.54347,40.77522],[-8.54382,40.76984],[-8.5436,40.76765],[-8.5426,40.76551],[-8.53477,40.75337],[-8.52981,40.7467],[-8.52701,40.74239],[-8.52456,40.73719],[-8.52319,40.73276],[-8.52233,40.72708],[-8.52244,40.71744],[-8.52173,40.70975],[-8.52191,40.70669],[-8.52313,40.69983],[-8.52318,40.69707],[-8.52284,40.6935],[-8.52468,40.68986],[-8.52549,40.68655],[-8.52645,40.68461],[-8.52735,40.68356],[-8.52838,40.68288],[-8.52943,40.68245],[-8.53083,40.68217],[-8.53232,40.68219],[-8.53439,40.68272],[-8.54523,40.68904],[-8.54806,40.6904],[-8.54996,40.69097],[-8.55271,40.69133],[-8.55527,40.69115],[-8.55819,40.69035],[-8.56021,40.68929],[-8.56289,40.68708],[-8.57491,40.67392],[-8.57615,40.67307],[-8.57758,40.67243],[-8.58276,40.67082],[-8.58499,40.66992],[-8.58722,40.66862],[-8.58936,40.66671],[-8.59043,40.66523],[-8.59128,40.66354],[-8.59316,40.65591],[-8.59538,40.6502],[-8.59712,40.64699],[-8.59875,40.64455],[-8.59964,40.64348],[-8.6007,40.64282],[-8.60143,40.64256],[-8.60288,40.6424],[-8.60618,40.64307],[-8.60858,40.64411],[-8.61242,40.64677],[-8.61411,40.64758],[-8.6162,40.64804],[-8.62038,40.64829],[-8.62179,40.64855],[-8.63228,40.6535],[-8.63496,40.65428],[-8.63731,40.65442],[-8.63945,40.6541],[-8.64204,40.65308],[-8.64883,40.6491],[-8.65622,40.64519],[-8.66105,40.64206],[-8.66194,40.6419],[-8.66227,40.64241],[-8.66131,40.64321],[-8.66061,40.64352],[-8.65921,40.64256],[-8.65912,40.64227],[-8.65939,40.64174],[-8.65918,40.64141],[-8.65874,40.64137],[-8.65803,40.64164],[-8.65706,40.64081],[-8.65658,40.64066],[-8.655,40.64112],[-8.65481,40.64084],[-8.65422,40.64076],[-8.65397,40.64043]],"type":"LineString"}},{"type":"Feature","properties":{"name":"Aveiro, Portugal → Nazare, Portugal"},"geometry":{"coordinates":[[-8.65397,40.64043],[-8.65339,40.63918],[-8.65432,40.63888],[-8.65324,40.63712],[-8.65532,40.63554],[-8.6555,40.63569],[-8.65578,40.63564],[-8.65588,40.635],[-8.65641,40.63426],[-8.65438,40.63082],[-8.65436,40.63051],[-8.65404,40.63028],[-8.6527,40.62802],[-8.65165,40.62556],[-8.65074,40.62491],[-8.64702,40.62325],[-8.6448,40.62098],[-8.64253,40.61974],[-8.64067,40.61823],[-8.63584,40.61564],[-8.63498,40.61492],[-8.63266,40.6122],[-8.63183,40.61159],[-8.63058,40.61111],[-8.62693,40.6106],[-8.62538,40.60989],[-8.61575,40.59863],[-8.61351,40.5972],[-8.61277,40.59647],[-8.61237,40.5957],[-8.61164,40.59301],[-8.60945,40.59078],[-8.60622,40.58531],[-8.60546,40.58466],[-8.60467,40.58429],[-8.60243,40.58377],[-8.60224,40.5835],[-8.60232,40.58317],[-8.60384,40.58107],[-8.61049,40.57342],[-8.61243,40.57041],[-8.61344,40.56784],[-8.61967,40.54763],[-8.62039,40.546],[-8.6215,40.5445],[-8.62391,40.54257],[-8.63394,40.53742],[-8.63685,40.5357],[-8.65295,40.52477],[-8.65486,40.52258],[-8.6568,40.5179],[-8.65812,40.51616],[-8.67326,40.5033],[-8.67477,40.50185],[-8.67627,40.50005],[-8.67789,40.49717],[-8.68072,40.48924],[-8.68172,40.48714],[-8.68773,40.47898],[-8.68885,40.47677],[-8.68947,40.47424],[-8.68945,40.46916],[-8.68961,40.46786],[-8.69003,40.46632],[-8.69079,40.46461],[-8.69289,40.46178],[-8.69711,40.45788],[-8.69908,40.45487],[-8.69992,40.45258],[-8.70484,40.43369],[-8.70939,40.41985],[-8.70964,40.41802],[-8.70946,40.41529],[-8.70746,40.4088],[-8.70731,40.40701],[-8.7076,40.40453],[-8.70845,40.4021],[-8.70921,40.40072],[-8.71207,40.39699],[-8.71366,40.3945],[-8.71455,40.3922],[-8.71493,40.39006],[-8.71487,40.38766],[-8.71399,40.38451],[-8.70975,40.37742],[-8.70839,40.37262],[-8.70755,40.37063],[-8.70401,40.36547],[-8.70346,40.36388],[-8.70335,40.36158],[-8.70367,40.36018],[-8.70419,40.35901],[-8.70502,40.35774],[-8.70602,40.35665],[-8.70777,40.3554],[-8.71343,40.35263],[-8.71525,40.35138],[-8.7174,40.34904],[-8.71859,40.34669],[-8.71904,40.3439],[-8.71881,40.34059],[-8.71894,40.33892],[-8.71945,40.33709],[-8.722,40.33061],[-8.72237,40.32913],[-8.7223,40.32624],[-8.7207,40.32173],[-8.72042,40.32003],[-8.72063,40.31749],[-8.72139,40.31549],[-8.7226,40.31368],[-8.72409,40.31221],[-8.736,40.30344],[-8.73831,40.30136],[-8.73946,40.29989],[-8.74024,40.29851],[-8.74201,40.29284],[-8.74263,40.29142],[-8.74403,40.28921],[-8.74615,40.28696],[-8.75284,40.28166],[-8.75436,40.28014],[-8.75594,40.2782],[-8.75766,40.27544],[-8.75897,40.2722],[-8.76217,40.25802],[-8.76283,40.25628],[-8.76344,40.25539],[-8.76485,40.25394],[-8.76688,40.25265],[-8.7688,40.25192],[-8.77472,40.25067],[-8.77661,40.2501],[-8.7789,40.24896],[-8.78115,40.24717],[-8.78218,40.24588],[-8.7833,40.24354],[-8.7848,40.23755],[-8.78579,40.23475],[-8.787,40.23251],[-8.78826,40.23067],[-8.78978,40.22892],[-8.79193,40.22695],[-8.80654,40.21675],[-8.80974,40.21402],[-8.81205,40.21108],[-8.81311,40.20901],[-8.81385,40.20709],[-8.81454,40.20384],[-8.81479,40.2009],[-8.81469,40.19813],[-8.81428,40.19544],[-8.81324,40.19177],[-8.81195,40.18902],[-8.81043,40.18641],[-8.80913,40.18462],[-8.8063,40.18151],[-8.80267,40.17843],[-8.80056,40.17696],[-8.79202,40.17208],[-8.7879,40.16932],[-8.78379,40.16599],[-8.77815,40.16041],[-8.77401,40.15702],[-8.76837,40.15334],[-8.7598,40.14882],[-8.75675,40.14665],[-8.74554,40.13608],[-8.74494,40.13522],[-8.74422,40.13339],[-8.74409,40.13128],[-8.74438,40.13004],[-8.74796,40.12167],[-8.74841,40.11959],[-8.74826,40.11785],[-8.74766,40.11615],[-8.74458,40.11185],[-8.74391,40.10986],[-8.74384,40.10804],[-8.74401,40.10724],[-8.74467,40.10564],[-8.74536,40.1047],[-8.74716,40.10291],[-8.76166,40.09086],[-8.76443,40.08803],[-8.76823,40.08337],[-8.77129,40.08018],[-8.77471,40.07715],[-8.77952,40.07374],[-8.78275,40.07181],[-8.79084,40.06778],[-8.79322,40.0662],[-8.79545,40.06437],[-8.79908,40.06038],[-8.80309,40.05529],[-8.80805,40.05048],[-8.81022,40.04813],[-8.81218,40.04465],[-8.81273,40.04316],[-8.81323,40.04082],[-8.81366,40.02459],[-8.81334,40.02255],[-8.81282,40.02087],[-8.81118,40.01815],[-8.80147,40.00689],[-8.79972,40.00437],[-8.79898,40.00269],[-8.79852,40.00071],[-8.79832,39.99607],[-8.79806,39.99424],[-8.79743,39.99234],[-8.79632,39.99029],[-8.79489,39.98854],[-8.79284,39.98677],[-8.78889,39.9844],[-8.78673,39.98285],[-8.78492,39.98092],[-8.78383,39.97923],[-8.78283,39.97635],[-8.78243,39.97256],[-8.782,39.9711],[-8.78089,39.96922],[-8.77756,39.96529],[-8.7762,39.96296],[-8.77542,39.9609],[-8.77442,39.95643],[-8.77364,39.9548],[-8.77248,39.9532],[-8.77161,39.95136],[-8.77015,39.94235],[-8.77014,39.94063],[-8.77044,39.93909],[-8.77147,39.93706],[-8.77251,39.93583],[-8.77452,39.93423],[-8.77822,39.93185],[-8.77929,39.93072],[-8.7816,39.92753],[-8.78293,39.92635],[-8.78533,39.92501],[-8.7906,39.92303],[-8.79328,39.9213],[-8.79472,39.91991],[-8.7961,39.91801],[-8.80288,39.90654],[-8.80439,39.90303],[-8.80721,39.89482],[-8.80901,39.89132],[-8.81076,39.88896],[-8.82152,39.87669],[-8.82327,39.87429],[-8.82426,39.87206],[-8.82469,39.87025],[-8.82463,39.86215],[-8.82526,39.85909],[-8.82638,39.85689],[-8.83448,39.84467],[-8.83571,39.84195],[-8.83598,39.84047],[-8.83597,39.83888],[-8.83569,39.83741],[-8.83401,39.83267],[-8.83381,39.83109],[-8.83391,39.82914],[-8.83437,39.82721],[-8.83771,39.81923],[-8.83995,39.81277],[-8.84079,39.81141],[-8.8422,39.80969],[-8.85416,39.79816],[-8.86457,39.78737],[-8.86699,39.78415],[-8.86808,39.7819],[-8.86879,39.77943],[-8.86905,39.77741],[-8.86916,39.77309],[-8.86951,39.77114],[-8.87002,39.76965],[-8.87093,39.76789],[-8.87413,39.76359],[-8.8753,39.76134],[-8.87599,39.75849],[-8.87617,39.75435],[-8.87685,39.75194],[-8.87846,39.74926],[-8.8815,39.74597],[-8.88379,39.74308],[-8.88514,39.74081],[-8.88735,39.7361],[-8.8891,39.73327],[-8.89209,39.72913],[-8.89357,39.72768],[-8.89541,39.72632],[-8.89823,39.72486],[-8.9085,39.72098],[-8.91047,39.71985],[-8.91232,39.71816],[-8.91317,39.71701],[-8.92309,39.70002],[-8.92474,39.69792],[-8.92926,39.69363],[-8.93159,39.69092],[-8.93335,39.68818],[-8.93581,39.68345],[-8.93745,39.68114],[-8.94035,39.67821],[-8.94657,39.67368],[-8.95031,39.67048],[-8.95373,39.66693],[-8.95654,39.66333],[-8.95917,39.65907],[-8.96939,39.63919],[-8.97193,39.63558],[-8.97401,39.63335],[-8.97625,39.63138],[-8.99471,39.61783],[-8.99625,39.61654],[-8.99757,39.61513],[-8.99914,39.61265],[-8.99997,39.61024],[-9.001,39.59811],[-9.00135,39.59638],[-9.00199,39.59469],[-9.0039,39.5918],[-9.00626,39.58962],[-9.00987,39.58747],[-9.01082,39.58727],[-9.01113,39.5875],[-9.01116,39.58777],[-9.01078,39.58809],[-9.01024,39.588],[-9.00887,39.58636],[-9.00885,39.58322],[-9.00906,39.58264],[-9.00968,39.58229],[-9.01109,39.58217],[-9.01174,39.58243],[-9.01274,39.58493],[-9.01328,39.58576],[-9.01501,39.58745],[-9.01619,39.58784],[-9.0175,39.5881],[-9.01803,39.58801],[-9.03008,39.58881],[-9.03098,39.58907],[-9.0347,39.59097],[-9.04019,39.59218],[-9.04283,39.59238],[-9.04325,39.59222],[-9.04394,39.59142],[-9.04527,39.59149],[-9.04714,39.59307],[-9.04728,39.59451],[-9.04803,39.59534],[-9.05452,39.59739],[-9.05727,39.59782],[-9.05842,39.59873],[-9.05911,39.59859],[-9.05975,39.59897],[-9.06071,39.59895],[-9.06254,39.59942],[-9.06462,39.59911],[-9.06519,39.59975],[-9.06542,39.6006],[-9.06774,39.60174],[-9.06781,39.60281],[-9.06761,39.60349],[-9.06723,39.60364],[-9.06732,39.60381],[-9.06823,39.60387],[-9.0688,39.60353],[-9.0686,39.6026],[-9.06906,39.60146],[-9.07131,39.60133],[-9.07135,39.60169],[-9.07021,39.60195],[-9.06962,39.60233],[-9.07002,39.60225],[-9.07021,39.60265]],"type":"LineString"}},{"type":"Feature","properties":{"name":"Nazare, Portugal → Lisbon, Portugal"},"geometry":{"coordinates":[[-9.07021,39.60265],[-9.07002,39.60225],[-9.06962,39.60233],[-9.0685,39.60296],[-9.06877,39.60357],[-9.0683,39.60385],[-9.0679,39.60383],[-9.06754,39.60365],[-9.06783,39.60272],[-9.06778,39.60143],[-9.06709,39.60139],[-9.06549,39.60065],[-9.06516,39.5997],[-9.06455,39.59908],[-9.06268,39.59943],[-9.06092,39.59905],[-9.06046,39.59867],[-9.05973,39.59888],[-9.0587,39.59827],[-9.05804,39.59825],[-9.05756,39.59786],[-9.0564,39.59743],[-9.05452,39.59739],[-9.04803,39.59534],[-9.04728,39.59451],[-9.04714,39.59307],[-9.04527,39.59149],[-9.04394,39.59142],[-9.04325,39.59222],[-9.04283,39.59238],[-9.04019,39.59218],[-9.0347,39.59097],[-9.03098,39.58907],[-9.03008,39.58881],[-9.01619,39.58784],[-9.0155,39.58758],[-9.01527,39.58721],[-9.01481,39.58713],[-9.01305,39.58546],[-9.0119,39.58257],[-9.01211,39.58208],[-9.01194,39.58182],[-9.00946,39.58226],[-9.00881,39.58283],[-9.00865,39.58483],[-9.00878,39.58638],[-9.01018,39.58805],[-9.01079,39.58817],[-9.0112,39.58791],[-9.01183,39.58666],[-9.01296,39.58578],[-9.02942,39.57688],[-9.03348,39.57494],[-9.03466,39.57416],[-9.03623,39.57242],[-9.04503,39.5588],[-9.04607,39.55748],[-9.04758,39.55634],[-9.05111,39.55455],[-9.05303,39.55304],[-9.061,39.54553],[-9.06239,39.54367],[-9.06408,39.54048],[-9.06544,39.53882],[-9.06687,39.53767],[-9.07208,39.53427],[-9.07464,39.53228],[-9.0785,39.52878],[-9.08074,39.52635],[-9.08456,39.52119],[-9.0867,39.51736],[-9.08801,39.51438],[-9.0896,39.50923],[-9.09083,39.5018],[-9.09163,39.49838],[-9.0928,39.49492],[-9.09465,39.49094],[-9.10178,39.47877],[-9.10448,39.47502],[-9.10826,39.47085],[-9.1161,39.46384],[-9.11743,39.46221],[-9.1182,39.46049],[-9.1213,39.44818],[-9.12235,39.44582],[-9.12431,39.4427],[-9.12577,39.44079],[-9.12785,39.43858],[-9.13695,39.43076],[-9.14312,39.42488],[-9.14561,39.42321],[-9.15041,39.42092],[-9.15189,39.41993],[-9.15289,39.4188],[-9.15543,39.41509],[-9.15594,39.41375],[-9.156,39.41234],[-9.15469,39.40892],[-9.15444,39.40743],[-9.15559,39.4021],[-9.15553,39.39958],[-9.15474,39.39739],[-9.15007,39.38788],[-9.14888,39.38607],[-9.14732,39.38457],[-9.13587,39.37682],[-9.13456,39.37508],[-9.13418,39.37309],[-9.13566,39.36737],[-9.13635,39.36611],[-9.13753,39.36482],[-9.14166,39.36162],[-9.14842,39.35538],[-9.15269,39.35255],[-9.15684,39.34917],[-9.16098,39.3464],[-9.17244,39.34015],[-9.17375,39.33894],[-9.17439,39.33767],[-9.17454,39.33667],[-9.17421,39.33369],[-9.1743,39.33239],[-9.17645,39.32336],[-9.17559,39.31805],[-9.17574,39.31463],[-9.17554,39.31363],[-9.17446,39.31208],[-9.17116,39.30968],[-9.17016,39.30872],[-9.16946,39.3076],[-9.16882,39.30534],[-9.16823,39.3042],[-9.16748,39.30339],[-9.1647,39.3012],[-9.163,39.29854],[-9.16195,39.2973],[-9.15864,39.29475],[-9.15784,39.29364],[-9.15748,39.29244],[-9.15758,39.29112],[-9.1581,39.28999],[-9.16562,39.28073],[-9.16738,39.27494],[-9.16734,39.27267],[-9.16557,39.26446],[-9.16474,39.25586],[-9.16509,39.25335],[-9.1679,39.24568],[-9.17288,39.23707],[-9.17413,39.23593],[-9.18397,39.22905],[-9.18501,39.22811],[-9.18577,39.22702],[-9.1863,39.2253],[-9.18823,39.20871],[-9.18885,39.20648],[-9.19627,39.19858],[-9.19807,39.19713],[-9.20398,39.19316],[-9.2047,39.19252],[-9.20565,39.19119],[-9.20611,39.18995],[-9.20613,39.18783],[-9.20435,39.18131],[-9.20408,39.17922],[-9.20444,39.17748],[-9.20508,39.1762],[-9.20608,39.17492],[-9.21585,39.16479],[-9.21965,39.16149],[-9.22421,39.15867],[-9.23998,39.15058],[-9.24206,39.14918],[-9.24769,39.14105],[-9.24834,39.13881],[-9.24938,39.13049],[-9.25009,39.12893],[-9.25487,39.12135],[-9.25545,39.11956],[-9.25539,39.11847],[-9.25493,39.11735],[-9.25331,39.11569],[-9.24273,39.11022],[-9.24173,39.10955],[-9.24073,39.10853],[-9.24013,39.10744],[-9.23977,39.10554],[-9.24047,39.09926],[-9.24047,39.09804],[-9.24018,39.09682],[-9.23958,39.0957],[-9.23882,39.09489],[-9.23259,39.08996],[-9.23178,39.08887],[-9.23126,39.08759],[-9.23121,39.08602],[-9.23216,39.08219],[-9.23229,39.0808],[-9.23196,39.07937],[-9.2305,39.07659],[-9.23007,39.07514],[-9.23006,39.07355],[-9.23044,39.07217],[-9.23157,39.06972],[-9.23227,39.06863],[-9.23343,39.0677],[-9.23651,39.06645],[-9.2379,39.06564],[-9.23929,39.06417],[-9.23979,39.06278],[-9.23911,39.05554],[-9.23784,39.05175],[-9.23753,39.05024],[-9.23748,39.04856],[-9.23795,39.04354],[-9.23776,39.04216],[-9.23723,39.04054],[-9.23575,39.03827],[-9.23351,39.03631],[-9.22896,39.03377],[-9.22428,39.03065],[-9.21908,39.0285],[-9.21762,39.02722],[-9.21677,39.02576],[-9.21653,39.0246],[-9.21662,39.02342],[-9.21754,39.02014],[-9.21738,39.01856],[-9.21681,39.01753],[-9.21353,39.01417],[-9.21271,39.0128],[-9.21229,39.0116],[-9.21213,39.01032],[-9.21249,39.00794],[-9.21643,38.9964],[-9.2165,38.9945],[-9.21568,38.99077],[-9.21592,38.98886],[-9.22199,38.97812],[-9.22269,38.97628],[-9.22275,38.9753],[-9.22225,38.97349],[-9.22166,38.97262],[-9.22085,38.97179],[-9.21684,38.96891],[-9.21376,38.96535],[-9.21245,38.96334],[-9.21215,38.96209],[-9.21225,38.96079],[-9.21382,38.95689],[-9.21404,38.95493],[-9.21345,38.95299],[-9.21065,38.94759],[-9.21004,38.94553],[-9.21022,38.94401],[-9.21131,38.94216],[-9.21313,38.94073],[-9.21583,38.93931],[-9.21762,38.93809],[-9.21892,38.93647],[-9.21934,38.93534],[-9.21937,38.93364],[-9.21908,38.93266],[-9.21743,38.92943],[-9.21722,38.92859],[-9.21702,38.92468],[-9.21628,38.92331],[-9.21323,38.92007],[-9.21177,38.91807],[-9.20943,38.91288],[-9.20639,38.90883],[-9.20498,38.9048],[-9.20422,38.90344],[-9.20322,38.90226],[-9.2003,38.89956],[-9.19863,38.8968],[-9.19709,38.89477],[-9.19633,38.89324],[-9.19579,38.88835],[-9.19623,38.8853],[-9.19754,38.88106],[-9.19929,38.87735],[-9.20149,38.8736],[-9.20188,38.87163],[-9.20161,38.86995],[-9.20066,38.86807],[-9.19968,38.86664],[-9.19896,38.86569],[-9.1972,38.864],[-9.1952,38.86296],[-9.19391,38.86264],[-9.18979,38.86213],[-9.1877,38.86124],[-9.18662,38.86039],[-9.18596,38.85962],[-9.18435,38.85558],[-9.18355,38.85448],[-9.18242,38.85349],[-9.18035,38.8524],[-9.1755,38.85086],[-9.17355,38.8498],[-9.17221,38.8488],[-9.17072,38.84727],[-9.16872,38.8439],[-9.16775,38.84264],[-9.16519,38.84018],[-9.16153,38.83743],[-9.16086,38.83675],[-9.16009,38.83581],[-9.15937,38.8345],[-9.15891,38.83273],[-9.15875,38.83016],[-9.15913,38.8254],[-9.15895,38.82421],[-9.15842,38.82274],[-9.15676,38.82041],[-9.15569,38.81948],[-9.15273,38.81753],[-9.15142,38.81636],[-9.15074,38.81544],[-9.15013,38.81392],[-9.15007,38.812],[-9.1507,38.80993],[-9.15375,38.8041],[-9.15499,38.8007],[-9.156,38.79898],[-9.15734,38.79756],[-9.15929,38.79621],[-9.16114,38.79539],[-9.16447,38.79443],[-9.16691,38.79331],[-9.16892,38.79182],[-9.16995,38.79031],[-9.17012,38.78945],[-9.16999,38.78849],[-9.16866,38.78549],[-9.16746,38.78402],[-9.16507,38.78221],[-9.16453,38.78147],[-9.16436,38.7807],[-9.16461,38.77714],[-9.16363,38.77523],[-9.1637,38.77417],[-9.16354,38.77381],[-9.16373,38.77294],[-9.16437,38.77217],[-9.16773,38.76998],[-9.17071,38.76844],[-9.17233,38.76677],[-9.17295,38.76516],[-9.17304,38.76376],[-9.17193,38.75578],[-9.17132,38.75432],[-9.16939,38.75164],[-9.16902,38.75061],[-9.16853,38.74997],[-9.16578,38.75003],[-9.16521,38.74981],[-9.15854,38.73995],[-9.15619,38.73693],[-9.14864,38.72801],[-9.14977,38.72598],[-9.15056,38.72546],[-9.15053,38.72507],[-9.14927,38.72443],[-9.14229,38.71643],[-9.14152,38.7153],[-9.1408,38.71473],[-9.13995,38.71437],[-9.13757,38.70811],[-9.13681,38.70829]],"type":"LineString"}},{"type":"Feature","properties":{"name":"Lisbon, Portugal → Lagos, Portugal"},"geometry":{"coordinates":[[-9.13681,38.70829],[-9.14151,38.70718],[-9.14169,38.70664],[-9.14338,38.70635],[-9.15104,38.70665],[-9.15505,38.7066],[-9.15628,38.70627],[-9.16022,38.7044],[-9.163,38.70371],[-9.16411,38.7036],[-9.17075,38.70364],[-9.17378,38.70279],[-9.17454,38.70274],[-9.1749,38.70313],[-9.17377,38.7067],[-9.17365,38.70859],[-9.17377,38.70936],[-9.17489,38.71215],[-9.1752,38.71209],[-9.17409,38.70981],[-9.17389,38.70894],[-9.17395,38.70716],[-9.17411,38.70692],[-9.17615,38.70695],[-9.1789,38.70755],[-9.17925,38.70823],[-9.17903,38.7103],[-9.17878,38.71054],[-9.17828,38.71055],[-9.17803,38.71039],[-9.17785,38.70982],[-9.17807,38.70803],[-9.1797,38.70352],[-9.1798,38.70214],[-9.17963,38.70078],[-9.1749,38.67946],[-9.17456,38.6762],[-9.1735,38.67303],[-9.16868,38.65127],[-9.16775,38.64878],[-9.16653,38.64692],[-9.1649,38.64515],[-9.16365,38.64411],[-9.13263,38.62242],[-9.12568,38.61765],[-9.12259,38.61584],[-9.12086,38.615],[-9.10334,38.60788],[-9.10134,38.60679],[-9.09624,38.60347],[-9.09121,38.60083],[-9.08486,38.59847],[-9.07511,38.59535],[-9.06598,38.59157],[-9.05794,38.58747],[-9.05472,38.58569],[-9.04914,38.58224],[-9.0464,38.58085],[-9.04156,38.57902],[-9.03895,38.57832],[-9.0337,38.5774],[-9.0284,38.57711],[-9.02329,38.57749],[-9.01475,38.57893],[-9.01053,38.57941],[-9.00582,38.57954],[-8.99672,38.57914],[-8.9921,38.57929],[-8.988,38.57977],[-8.9796,38.58127],[-8.97219,38.58187],[-8.96356,38.5834],[-8.95478,38.58359],[-8.94845,38.58404],[-8.9388,38.58418],[-8.92733,38.58553],[-8.92425,38.58571],[-8.91923,38.58563],[-8.91109,38.58504],[-8.9078,38.58512],[-8.899,38.58588],[-8.89306,38.58576],[-8.89001,38.58542],[-8.88436,38.58443],[-8.87935,38.58334],[-8.87185,38.58143],[-8.86929,38.58103],[-8.86682,38.58089],[-8.8639,38.58103],[-8.86167,38.58136],[-8.85303,38.58371],[-8.84592,38.58502],[-8.83986,38.58658],[-8.83592,38.58707],[-8.83421,38.5871],[-8.83092,38.58683],[-8.82389,38.58516],[-8.82087,38.58468],[-8.81804,38.58448],[-8.81151,38.58449],[-8.80887,38.58434],[-8.80403,38.5837],[-8.8006,38.58304],[-8.79659,38.58277],[-8.79476,38.58294],[-8.79212,38.58353],[-8.78726,38.58532],[-8.78443,38.58604],[-8.78176,38.58632],[-8.77416,38.58641],[-8.77069,38.5871],[-8.76291,38.59021],[-8.75401,38.59271],[-8.75047,38.5939],[-8.7463,38.59593],[-8.74059,38.5994],[-8.73862,38.60024],[-8.73609,38.60096],[-8.73308,38.60131],[-8.73091,38.6013],[-8.72801,38.60083],[-8.7205,38.59812],[-8.71593,38.59693],[-8.71125,38.59624],[-8.70694,38.59607],[-8.70389,38.5962],[-8.6991,38.59685],[-8.69666,38.59738],[-8.68857,38.59963],[-8.68392,38.60041],[-8.64976,38.60268],[-8.64572,38.60271],[-8.64209,38.60201],[-8.63937,38.60091],[-8.62934,38.59446],[-8.62717,38.59289],[-8.62578,38.59164],[-8.62475,38.59054],[-8.62323,38.58843],[-8.62189,38.58529],[-8.61706,38.55733],[-8.61558,38.55257],[-8.61419,38.54955],[-8.61212,38.54608],[-8.60978,38.54297],[-8.60782,38.54078],[-8.59829,38.53115],[-8.5933,38.52563],[-8.59055,38.5222],[-8.57547,38.50198],[-8.57126,38.49752],[-8.56775,38.49466],[-8.56312,38.49169],[-8.54647,38.4833],[-8.5426,38.48101],[-8.54009,38.47921],[-8.53746,38.47698],[-8.53366,38.47287],[-8.53065,38.4684],[-8.52851,38.46365],[-8.52751,38.45986],[-8.52471,38.44299],[-8.52348,38.43878],[-8.52112,38.43242],[-8.51943,38.42892],[-8.51624,38.42356],[-8.5114,38.41717],[-8.49468,38.39922],[-8.49311,38.39731],[-8.49003,38.39241],[-8.48905,38.39034],[-8.48757,38.38589],[-8.48696,38.38229],[-8.4868,38.37793],[-8.48713,38.37465],[-8.48841,38.36955],[-8.49478,38.35258],[-8.49603,38.34977],[-8.49805,38.34627],[-8.50242,38.33993],[-8.50346,38.33814],[-8.50514,38.33467],[-8.50687,38.32948],[-8.5077,38.32419],[-8.50886,38.29576],[-8.50944,38.29053],[-8.51019,38.28628],[-8.51153,38.28085],[-8.51278,38.27684],[-8.52185,38.25421],[-8.52288,38.25078],[-8.5234,38.24778],[-8.52359,38.24278],[-8.52302,38.23856],[-8.52248,38.23629],[-8.51522,38.21185],[-8.51364,38.20356],[-8.51238,38.19861],[-8.5103,38.19276],[-8.50783,38.18747],[-8.50426,38.1815],[-8.49981,38.17555],[-8.49452,38.16979],[-8.4876,38.16376],[-8.48027,38.15868],[-8.45012,38.14095],[-8.44221,38.13727],[-8.42465,38.13063],[-8.42183,38.12932],[-8.41856,38.1275],[-8.41622,38.12594],[-8.41174,38.1223],[-8.40801,38.11834],[-8.40619,38.11586],[-8.40227,38.10877],[-8.40065,38.1062],[-8.39789,38.10225],[-8.3945,38.09807],[-8.38972,38.09309],[-8.38513,38.089],[-8.38273,38.08711],[-8.37669,38.08289],[-8.37319,38.08076],[-8.36857,38.07826],[-8.36489,38.07648],[-8.33399,38.06327],[-8.3243,38.0583],[-8.31613,38.05329],[-8.31136,38.04995],[-8.30623,38.04599],[-8.29947,38.04],[-8.29484,38.03525],[-8.29126,38.03121],[-8.28697,38.02572],[-8.2848,38.02264],[-8.27942,38.01348],[-8.2708,37.9964],[-8.26735,37.99125],[-8.26234,37.98523],[-8.26032,37.98251],[-8.25764,37.9784],[-8.25607,37.97548],[-8.25425,37.97139],[-8.25309,37.96823],[-8.2505,37.95683],[-8.24836,37.94997],[-8.2453,37.94244],[-8.24408,37.9383],[-8.24305,37.93255],[-8.24277,37.92917],[-8.24282,37.91934],[-8.24251,37.91428],[-8.23971,37.88912],[-8.23854,37.88358],[-8.23769,37.88064],[-8.23573,37.87546],[-8.23261,37.86838],[-8.23159,37.86547],[-8.23052,37.86157],[-8.22957,37.85647],[-8.22923,37.85273],[-8.2292,37.84773],[-8.23118,37.82751],[-8.23128,37.82085],[-8.2304,37.81352],[-8.22922,37.80841],[-8.22819,37.80512],[-8.22658,37.80109],[-8.22451,37.79686],[-8.21208,37.77609],[-8.21022,37.77247],[-8.20815,37.7675],[-8.20614,37.76103],[-8.20523,37.75701],[-8.20145,37.73372],[-8.20011,37.72888],[-8.19812,37.72402],[-8.19534,37.71889],[-8.1911,37.71305],[-8.1877,37.70936],[-8.17194,37.6943],[-8.16802,37.68951],[-8.16579,37.68624],[-8.16292,37.68085],[-8.16107,37.6762],[-8.15889,37.66894],[-8.15776,37.66484],[-8.15658,37.65896],[-8.15595,37.65359],[-8.15574,37.64836],[-8.15593,37.64271],[-8.15668,37.6365],[-8.15744,37.63247],[-8.1589,37.62696],[-8.16186,37.61894],[-8.16389,37.61463],[-8.1661,37.61055],[-8.18837,37.57568],[-8.18992,37.57249],[-8.19092,37.5698],[-8.19197,37.56527],[-8.19231,37.56053],[-8.19197,37.55694],[-8.19101,37.55261],[-8.18933,37.54807],[-8.18325,37.53427],[-8.18191,37.529],[-8.18169,37.52509],[-8.18193,37.52166],[-8.18261,37.51821],[-8.18357,37.51542],[-8.18481,37.51276],[-8.18622,37.51039],[-8.1877,37.50829],[-8.19004,37.50558],[-8.19275,37.50305],[-8.20343,37.49445],[-8.20604,37.49176],[-8.20723,37.49007],[-8.20819,37.48828],[-8.212,37.47849],[-8.21451,37.47387],[-8.21609,37.4718],[-8.21799,37.46975],[-8.22406,37.4643],[-8.22573,37.46253],[-8.22683,37.46103],[-8.22822,37.45794],[-8.22874,37.45555],[-8.2286,37.45197],[-8.22731,37.44696],[-8.22688,37.44411],[-8.2272,37.4416],[-8.22758,37.44042],[-8.22869,37.43825],[-8.23005,37.43656],[-8.23555,37.43172],[-8.23729,37.42995],[-8.24281,37.42352],[-8.2468,37.42031],[-8.2482,37.41889],[-8.25015,37.41511],[-8.25181,37.4129],[-8.25408,37.41123],[-8.25742,37.40949],[-8.25958,37.40781],[-8.26114,37.40565],[-8.26195,37.40305],[-8.26193,37.40126],[-8.26063,37.39664],[-8.26042,37.39412],[-8.26237,37.38469],[-8.26248,37.3819],[-8.2622,37.38046],[-8.26157,37.37885],[-8.26087,37.37764],[-8.25801,37.37379],[-8.25714,37.37139],[-8.25716,37.36863],[-8.25901,37.36371],[-8.25938,37.36112],[-8.25901,37.35856],[-8.25698,37.35353],[-8.2567,37.35213],[-8.25665,37.35031],[-8.25696,37.34867],[-8.2582,37.34608],[-8.26168,37.34234],[-8.26265,37.34106],[-8.26364,37.33869],[-8.26381,37.33617],[-8.26301,37.33341],[-8.25912,37.32811],[-8.25737,37.32456],[-8.25535,37.31687],[-8.2543,37.31175],[-8.25405,37.30925],[-8.25422,37.30716],[-8.25468,37.30518],[-8.25576,37.30249],[-8.2575,37.29971],[-8.26507,37.28999],[-8.26573,37.28876],[-8.26648,37.28638],[-8.2664,37.28384],[-8.26537,37.28131],[-8.26136,37.27567],[-8.26052,37.2739],[-8.25996,37.27206],[-8.25964,37.26961],[-8.25977,37.26466],[-8.25946,37.2622],[-8.25867,37.25983],[-8.25594,37.25418],[-8.25535,37.25206],[-8.25541,37.24949],[-8.25671,37.24476],[-8.25662,37.24277],[-8.25617,37.24126],[-8.25539,37.23982],[-8.248,37.22938],[-8.24562,37.22561],[-8.24368,37.22193],[-8.24005,37.21413],[-8.23652,37.20801],[-8.23463,37.20512],[-8.22855,37.19715],[-8.22752,37.19624],[-8.2266,37.19496],[-8.21938,37.18731],[-8.21743,37.18447],[-8.21667,37.18256],[-8.21626,37.18034],[-8.2166,37.173],[-8.21628,37.17162],[-8.21531,37.16906],[-8.21503,37.16765],[-8.21503,37.16615],[-8.21565,37.16294],[-8.21556,37.16107],[-8.21522,37.15985],[-8.21454,37.15854],[-8.21187,37.15562],[-8.21134,37.15481],[-8.21123,37.15377],[-8.2117,37.15281],[-8.21269,37.1519],[-8.21734,37.14844],[-8.22092,37.14542],[-8.23179,37.13914],[-8.23393,37.1383],[-8.23594,37.1378],[-8.24881,37.13596],[-8.25224,37.13591],[-8.25427,37.13617],[-8.25656,37.1367],[-8.26196,37.13857],[-8.26453,37.13904],[-8.26682,37.1392],[-8.27308,37.13887],[-8.27838,37.13925],[-8.28131,37.13918],[-8.29289,37.13699],[-8.29632,37.13664],[-8.30022,37.13695],[-8.30854,37.13878],[-8.31133,37.13921],[-8.31421,37.13934],[-8.32271,37.13914],[-8.32928,37.13953],[-8.33166,37.13953],[-8.33457,37.13927],[-8.34083,37.13796],[-8.35292,37.13579],[-8.35577,37.13555],[-8.35798,37.13571],[-8.36041,37.13619],[-8.36238,37.13691],[-8.36765,37.13928],[-8.36964,37.13982],[-8.3722,37.14015],[-8.37465,37.14009],[-8.37673,37.13976],[-8.37855,37.13923],[-8.38205,37.13789],[-8.38473,37.13741],[-8.38761,37.13754],[-8.39179,37.13864],[-8.39387,37.13889],[-8.39597,37.13879],[-8.40085,37.138],[-8.40487,37.13802],[-8.40728,37.13837],[-8.40956,37.13897],[-8.41158,37.13976],[-8.41361,37.14082],[-8.4163,37.14282],[-8.42391,37.14994],[-8.42613,37.15123],[-8.42881,37.15219],[-8.43087,37.15255],[-8.43347,37.15262],[-8.44674,37.15086],[-8.4493,37.15077],[-8.45123,37.15094],[-8.45389,37.1515],[-8.4555,37.15206],[-8.46489,37.15633],[-8.46756,37.15715],[-8.47118,37.15754],[-8.48238,37.15667],[-8.48634,37.15688],[-8.48908,37.15748],[-8.50746,37.16303],[-8.50962,37.16393],[-8.51119,37.16499],[-8.51229,37.16607],[-8.51483,37.16944],[-8.51629,37.17082],[-8.51778,37.17192],[-8.52685,37.177],[-8.52982,37.17814],[-8.5314,37.17842],[-8.53374,37.17849],[-8.54008,37.17754],[-8.54369,37.17734],[-8.54656,37.17748],[-8.55199,37.17807],[-8.55485,37.17809],[-8.55784,37.17777],[-8.56833,37.17583],[-8.57135,37.17573],[-8.57384,37.17616],[-8.57571,37.17683],[-8.58526,37.18166],[-8.58752,37.18261],[-8.58925,37.18308],[-8.59125,37.18341],[-8.59298,37.18352],[-8.59519,37.1834],[-8.59842,37.18275],[-8.60609,37.18001],[-8.60919,37.17912],[-8.6123,37.17845],[-8.61827,37.17755],[-8.62039,37.17705],[-8.62276,37.17624],[-8.62752,37.17417],[-8.6298,37.17347],[-8.63102,37.17323],[-8.63189,37.17323],[-8.6325,37.17346],[-8.63387,37.17442],[-8.6343,37.17432],[-8.6343,37.17404],[-8.6339,37.17374],[-8.63341,37.16669],[-8.63303,37.1657],[-8.63208,37.16414],[-8.63211,37.1638],[-8.63157,37.16343],[-8.63138,37.1628],[-8.63167,37.16114],[-8.63257,37.15888],[-8.63303,37.15868],[-8.63475,37.15875],[-8.63591,37.15859],[-8.63952,37.15772],[-8.64124,37.15712],[-8.64284,37.15625],[-8.65014,37.15136],[-8.65124,37.15087],[-8.65681,37.14909],[-8.6585,37.14815],[-8.66056,37.14594],[-8.6619,37.14352],[-8.6629,37.14005],[-8.66335,37.1395],[-8.6631,37.1388],[-8.66338,37.13659],[-8.66398,37.13467],[-8.66492,37.13349],[-8.66678,37.13206],[-8.66946,37.1295],[-8.6722,37.12571],[-8.6728,37.12532],[-8.6727,37.12495],[-8.67319,37.1227],[-8.67321,37.11786],[-8.67371,37.11659],[-8.6744,37.11588],[-8.67744,37.11361],[-8.6781,37.11363],[-8.68024,37.11425],[-8.68062,37.11456],[-8.68098,37.11444],[-8.68094,37.1141],[-8.68165,37.11259],[-8.68125,37.11113],[-8.68102,37.11106],[-8.68065,37.11129],[-8.67795,37.11044],[-8.67765,37.11021],[-8.67868,37.10804],[-8.67852,37.1079],[-8.678,37.10791],[-8.67747,37.10757],[-8.67765,37.10695],[-8.67729,37.10625],[-8.67736,37.10576],[-8.67767,37.10554],[-8.67743,37.10504],[-8.67449,37.10458],[-8.67473,37.10445],[-8.67467,37.10388],[-8.67412,37.10291],[-8.67342,37.10302],[-8.6732,37.10278],[-8.67299,37.10289]],"type":"LineString"}},{"type":"Feature","properties":{"name":"Lagos, Portugal → Faro, Portugal"},"geometry":{"coordinates":[[-8.67299,37.10289],[-8.6732,37.10278],[-8.67342,37.10302],[-8.67318,37.10385],[-8.67397,37.10367],[-8.67429,37.10455],[-8.67475,37.10472],[-8.67316,37.10463],[-8.67274,37.10382],[-8.67248,37.10358],[-8.6724,37.1037],[-8.67654,37.10963],[-8.67725,37.11035],[-8.67727,37.11063],[-8.67554,37.1135],[-8.67588,37.11413],[-8.67582,37.1148],[-8.67409,37.11616],[-8.67335,37.11729],[-8.67306,37.12314],[-8.67255,37.12505],[-8.66969,37.1291],[-8.66687,37.13171],[-8.66639,37.13183],[-8.6663,37.13219],[-8.665,37.1334],[-8.66398,37.13467],[-8.66349,37.1359],[-8.66304,37.13903],[-8.66268,37.13939],[-8.6629,37.14005],[-8.66209,37.14302],[-8.66111,37.14506],[-8.65995,37.14669],[-8.65818,37.14842],[-8.65737,37.14887],[-8.65124,37.15087],[-8.65014,37.15136],[-8.64284,37.15625],[-8.64124,37.15712],[-8.63933,37.15777],[-8.6354,37.15868],[-8.63353,37.15868],[-8.63287,37.15857],[-8.63233,37.15828],[-8.63199,37.15845],[-8.63236,37.15942],[-8.63167,37.16114],[-8.63142,37.16304],[-8.63162,37.16395],[-8.63208,37.16427],[-8.63306,37.16586],[-8.6335,37.16756],[-8.63367,37.17126],[-8.63349,37.17203],[-8.63289,37.17263],[-8.63224,37.17291],[-8.62987,37.17334],[-8.62801,37.1739],[-8.62294,37.17607],[-8.62055,37.17691],[-8.61815,37.17748],[-8.61227,37.17836],[-8.60921,37.17902],[-8.60612,37.17991],[-8.59843,37.18265],[-8.59553,37.18328],[-8.59328,37.18343],[-8.5914,37.18334],[-8.58785,37.18261],[-8.58529,37.18157],[-8.57574,37.17674],[-8.57375,37.17604],[-8.57137,37.17562],[-8.56826,37.17573],[-8.55834,37.17759],[-8.55521,37.17798],[-8.55203,37.17798],[-8.54616,37.17735],[-8.54347,37.17725],[-8.53979,37.17748],[-8.5338,37.17839],[-8.53204,37.17837],[-8.5302,37.17811],[-8.52854,37.17763],[-8.52703,37.17695],[-8.51777,37.17179],[-8.51627,37.17068],[-8.51495,37.16941],[-8.51247,37.16613],[-8.51151,37.16513],[-8.50984,37.16394],[-8.50745,37.16293],[-8.48916,37.15741],[-8.48622,37.15677],[-8.48241,37.15658],[-8.4712,37.15744],[-8.46759,37.15706],[-8.46492,37.15623],[-8.45528,37.15184],[-8.45394,37.1514],[-8.4513,37.15086],[-8.44879,37.15065],[-8.44674,37.15074],[-8.43363,37.15252],[-8.43096,37.15245],[-8.42892,37.1521],[-8.42637,37.15122],[-8.4238,37.1497],[-8.4159,37.14233],[-8.41332,37.14054],[-8.41124,37.13951],[-8.40874,37.13863],[-8.40638,37.13811],[-8.40394,37.13786],[-8.40086,37.13791],[-8.39577,37.13868],[-8.39382,37.13876],[-8.39146,37.13847],[-8.38763,37.13745],[-8.38477,37.13731],[-8.38208,37.13778],[-8.37677,37.13965],[-8.3742,37.14003],[-8.37209,37.14005],[-8.36969,37.13974],[-8.36771,37.1392],[-8.36186,37.13659],[-8.35989,37.13594],[-8.3576,37.13555],[-8.35561,37.13544],[-8.3521,37.13583],[-8.34079,37.13788],[-8.33494,37.1391],[-8.33182,37.13944],[-8.3292,37.13945],[-8.32301,37.13905],[-8.312,37.13918],[-8.30844,37.13868],[-8.30027,37.13686],[-8.29697,37.13656],[-8.29288,37.13689],[-8.28082,37.13914],[-8.27836,37.13917],[-8.27307,37.13879],[-8.26641,37.13909],[-8.26396,37.13888],[-8.26156,37.13837],[-8.25714,37.13679],[-8.25458,37.13611],[-8.25173,37.13577],[-8.24831,37.13591],[-8.23562,37.13777],[-8.23388,37.13821],[-8.23176,37.13906],[-8.22092,37.1453],[-8.21643,37.14904],[-8.21214,37.15215],[-8.20569,37.15771],[-8.20444,37.15858],[-8.19801,37.16153],[-8.19585,37.16198],[-8.19367,37.16201],[-8.19152,37.16162],[-8.18307,37.15913],[-8.18136,37.15822],[-8.17807,37.15535],[-8.17643,37.15419],[-8.17206,37.152],[-8.16775,37.14956],[-8.16477,37.14861],[-8.16158,37.14843],[-8.14962,37.15023],[-8.14177,37.15039],[-8.1354,37.151],[-8.1329,37.15086],[-8.13062,37.15033],[-8.12902,37.14966],[-8.12735,37.14864],[-8.11782,37.14061],[-8.11067,37.13675],[-8.10638,37.13318],[-8.10442,37.13188],[-8.10141,37.13048],[-8.09441,37.12835],[-8.08478,37.12454],[-8.08204,37.12395],[-8.07956,37.12375],[-8.07697,37.12384],[-8.07296,37.1243],[-8.06965,37.12414],[-8.06745,37.12365],[-8.05692,37.12021],[-8.05332,37.11957],[-8.04974,37.11957],[-8.04237,37.12047],[-8.03912,37.12028],[-8.03713,37.11975],[-8.02971,37.11703],[-8.02656,37.11554],[-8.02081,37.1115],[-8.01946,37.11033],[-8.01845,37.10907],[-8.01402,37.10228],[-8.01248,37.10084],[-8.0102,37.09987],[-8.00605,37.0992],[-8.00444,37.09875],[-7.99935,37.09644],[-7.99575,37.09509],[-7.99377,37.09352],[-7.99229,37.09128],[-7.99145,37.09048],[-7.99024,37.08981],[-7.98744,37.08885],[-7.98617,37.08815],[-7.97959,37.08281],[-7.97877,37.08155],[-7.97845,37.08017],[-7.97861,37.07895],[-7.97942,37.07631],[-7.97941,37.07567],[-7.97853,37.07377],[-7.97821,37.0722],[-7.97615,37.06844],[-7.97453,37.06661],[-7.96995,37.06298],[-7.9604,37.05711],[-7.95554,37.05368],[-7.95471,37.0529],[-7.95315,37.05021],[-7.95266,37.04572],[-7.95172,37.04258],[-7.94996,37.03865],[-7.95024,37.03493],[-7.94867,37.03149],[-7.94626,37.02817],[-7.94604,37.0276],[-7.94517,37.02697],[-7.94385,37.02528],[-7.94375,37.02467],[-7.93937,37.02099],[-7.94028,37.02042],[-7.93888,37.0189],[-7.93952,37.01857],[-7.93915,37.01794],[-7.93687,37.01701],[-7.93553,37.01628],[-7.93515,37.01619],[-7.93504,37.0163],[-7.93522,37.01644],[-7.9353,37.01632]],"type":"LineString"}},{"type":"Feature","properties":{"name":"Porto, Portugal"},"geometry":{"type":"Point","coordinates":[-8.61035,41.15022]}},{"type":"Feature","properties":{"name":"Aveiro, Portugal"},"geometry":{"type":"Point","coordinates":[-8.65378,40.6405]}},{"type":"Feature","properties":{"name":"Nazare, Portugal"},"geometry":{"type":"Point","coordinates":[-9.07016,39.60291]}},{"type":"Feature","properties":{"name":"Lisbon, Portugal"},"geometry":{"type":"Point","coordinates":[-9.13659,38.70775]}},{"type":"Feature","properties":{"name":"Lagos, Portugal"},"geometry":{"type":"Point","coordinates":[-8.67287,37.1028]}},{"type":"Feature","properties":{"name":"Faro, Portugal"},"geometry":{"type":"Point","coordinates":[-7.93518,37.01629]}}]}