{"type":"FeatureCollection","features":[{"type":"Feature","properties":{"name":"Las Vegas, Nevada → Springdale, Utah"},"geometry":{"coordinates":[[-115.14819,36.16777],[-115.1486,36.16817],[-115.14015,36.18125],[-115.14172,36.18143],[-115.14374,36.18111],[-115.1441,36.18128],[-115.14335,36.18346],[-115.14335,36.18704],[-115.14313,36.18827],[-115.14267,36.18932],[-115.13976,36.19337],[-115.13687,36.19962],[-115.13567,36.20161],[-115.11695,36.22713],[-115.11449,36.22969],[-115.10674,36.23611],[-115.07273,36.26372],[-115.06921,36.26592],[-115.06519,36.26779],[-114.94796,36.31177],[-114.9465,36.3125],[-114.94451,36.31377],[-114.93839,36.31967],[-114.93603,36.32151],[-114.93335,36.32324],[-114.92604,36.32716],[-114.92321,36.32944],[-114.90521,36.35158],[-114.90462,36.35254],[-114.90398,36.35364],[-114.90322,36.35598],[-114.90294,36.35771],[-114.90278,36.36156],[-114.90197,36.36389],[-114.85481,36.44037],[-114.85226,36.4435],[-114.84846,36.44729],[-114.82604,36.46854],[-114.82361,36.47036],[-114.81862,36.47318],[-114.76174,36.50197],[-114.75451,36.5058],[-114.75011,36.5091],[-114.71277,36.54025],[-114.65646,36.58003],[-114.65378,36.5824],[-114.65171,36.58485],[-114.64085,36.59892],[-114.63898,36.601],[-114.5939,36.64146],[-114.58164,36.65349],[-114.5742,36.66053],[-114.57226,36.66204],[-114.56904,36.66374],[-114.56739,36.66433],[-114.56502,36.66489],[-114.53612,36.66747],[-114.52441,36.66973],[-114.52183,36.67053],[-114.51991,36.67144],[-114.51728,36.67329],[-114.51519,36.67561],[-114.51157,36.68249],[-114.51025,36.68449],[-114.50828,36.68691],[-114.50571,36.68941],[-114.49707,36.69678],[-114.49509,36.69829],[-114.42468,36.74174],[-114.42114,36.74368],[-114.4187,36.74474],[-114.41553,36.74584],[-114.36637,36.75979],[-114.36003,36.76137],[-114.26348,36.77857],[-114.25963,36.77858],[-114.25613,36.77795],[-114.25376,36.77716],[-114.24772,36.77444],[-114.23642,36.77085],[-114.23135,36.76977],[-114.17897,36.7633],[-114.1768,36.7632],[-114.17432,36.76335],[-114.17232,36.76368],[-114.17028,36.76428],[-114.16727,36.76559],[-114.15838,36.77076],[-114.15137,36.77346],[-114.14907,36.77456],[-114.11077,36.80109],[-114.10699,36.80312],[-114.1048,36.80382],[-114.09799,36.80538],[-114.09116,36.80841],[-114.08856,36.80923],[-114.08683,36.80957],[-114.08401,36.80979],[-114.0822,36.80974],[-114.07545,36.80889],[-114.0733,36.80897],[-114.07124,36.80939],[-114.0697,36.80997],[-114.059,36.81504],[-114.05716,36.81574],[-114.03394,36.82179],[-114.01168,36.82893],[-114.00814,36.83032],[-114.0055,36.83188],[-114.00278,36.83427],[-113.98541,36.85452],[-113.98211,36.85757],[-113.97766,36.86078],[-113.92857,36.89188],[-113.92704,36.89258],[-113.92533,36.89307],[-113.91571,36.89414],[-113.9133,36.89463],[-113.91059,36.8956],[-113.87504,36.91654],[-113.87261,36.91744],[-113.87037,36.91787],[-113.86488,36.91794],[-113.86306,36.91822],[-113.86187,36.91876],[-113.85982,36.92047],[-113.85864,36.92113],[-113.85578,36.92211],[-113.85459,36.92227],[-113.85337,36.92201],[-113.85235,36.9214],[-113.85174,36.9206],[-113.85114,36.91934],[-113.85038,36.91853],[-113.84981,36.91818],[-113.84684,36.91727],[-113.84478,36.91567],[-113.84411,36.91537],[-113.8434,36.91519],[-113.83797,36.91496],[-113.83718,36.91502],[-113.83589,36.91542],[-113.83464,36.91636],[-113.83227,36.92056],[-113.83208,36.92162],[-113.83227,36.92612],[-113.83199,36.927],[-113.83129,36.92796],[-113.82837,36.93048],[-113.82629,36.93329],[-113.82599,36.93415],[-113.82586,36.93688],[-113.82528,36.93808],[-113.82456,36.93891],[-113.82281,36.93994],[-113.81664,36.94129],[-113.81462,36.94197],[-113.81029,36.9456],[-113.80687,36.94673],[-113.80543,36.9475],[-113.79917,36.953],[-113.79681,36.95443],[-113.78717,36.95767],[-113.78371,36.95937],[-113.78248,36.95974],[-113.78057,36.9599],[-113.77561,36.95989],[-113.77066,36.95935],[-113.76395,36.96063],[-113.7613,36.9618],[-113.75973,36.96297],[-113.75408,36.96967],[-113.75179,36.97086],[-113.75064,36.97111],[-113.74904,36.97117],[-113.73782,36.97051],[-113.73243,36.96999],[-113.72578,36.97126],[-113.72457,36.97114],[-113.72057,36.97021],[-113.71895,36.97014],[-113.71751,36.97045],[-113.71679,36.97077],[-113.71309,36.97333],[-113.71204,36.97369],[-113.70948,36.97387],[-113.69799,36.97375],[-113.69129,36.97233],[-113.68923,36.97235],[-113.68757,36.97279],[-113.68326,36.9749],[-113.68026,36.97564],[-113.67732,36.97612],[-113.67601,36.97663],[-113.67505,36.97724],[-113.67307,36.97892],[-113.67195,36.97944],[-113.67039,36.97967],[-113.66192,36.97917],[-113.65889,36.97916],[-113.65228,36.97981],[-113.64852,36.98062],[-113.64341,36.98223],[-113.6296,36.98766],[-113.62788,36.98872],[-113.6264,36.98991],[-113.62483,36.9919],[-113.6237,36.9946],[-113.62303,36.99848],[-113.6217,37.00158],[-113.59907,37.03674],[-113.59732,37.03891],[-113.59179,37.04405],[-113.58997,37.0465],[-113.58922,37.04793],[-113.58849,37.04991],[-113.58724,37.05534],[-113.58632,37.05695],[-113.58442,37.05919],[-113.58387,37.06039],[-113.58364,37.06147],[-113.58476,37.07744],[-113.58418,37.0806],[-113.58291,37.08336],[-113.58156,37.08528],[-113.57947,37.08738],[-113.57744,37.08885],[-113.56592,37.09588],[-113.5629,37.09878],[-113.56223,37.09966],[-113.5607,37.10247],[-113.55741,37.1109],[-113.55585,37.1132],[-113.55491,37.11408],[-113.55231,37.11583],[-113.53536,37.12298],[-113.53032,37.12544],[-113.52541,37.12843],[-113.51146,37.13773],[-113.50872,37.13928],[-113.50593,37.14044],[-113.4903,37.14566],[-113.48692,37.14725],[-113.48389,37.14943],[-113.47619,37.15732],[-113.47443,37.15854],[-113.47303,37.15912],[-113.46331,37.16178],[-113.45233,37.16588],[-113.45054,37.16616],[-113.44877,37.16585],[-113.447,37.165],[-113.44111,37.16109],[-113.43949,37.16048],[-113.43825,37.16025],[-113.43671,37.16023],[-113.43035,37.16135],[-113.42665,37.16217],[-113.42471,37.16304],[-113.41894,37.16658],[-113.41594,37.16763],[-113.41223,37.16815],[-113.40303,37.16837],[-113.40204,37.16822],[-113.40065,37.16773],[-113.39941,37.16702],[-113.39818,37.16577],[-113.39667,37.16373],[-113.39568,37.1629],[-113.39316,37.16154],[-113.39131,37.1613],[-113.38918,37.16169],[-113.3852,37.16439],[-113.38297,37.1653],[-113.35067,37.17291],[-113.34604,37.17299],[-113.34414,37.17324],[-113.33636,37.17576],[-113.33425,37.17623],[-113.33095,37.17635],[-113.28797,37.17651],[-113.28544,37.17667],[-113.28491,37.17689],[-113.28437,37.17745],[-113.28427,37.18033],[-113.28396,37.18142],[-113.27899,37.18794],[-113.27782,37.18973],[-113.27631,37.19338],[-113.27244,37.20138],[-113.27216,37.20233],[-113.2722,37.21087],[-113.26671,37.21094],[-113.26556,37.21129],[-113.26476,37.21183],[-113.26421,37.21249],[-113.26393,37.21346],[-113.26404,37.21666],[-113.25858,37.22128],[-113.25825,37.22226],[-113.25864,37.22418],[-113.25838,37.22542],[-113.25795,37.22606],[-113.25726,37.2266],[-113.25637,37.22695],[-113.25556,37.22706],[-113.2539,37.22681],[-113.25271,37.22602],[-113.25223,37.22526],[-113.25048,37.21945],[-113.24975,37.21816],[-113.24391,37.21192],[-113.24282,37.21114],[-113.24164,37.21061],[-113.23168,37.20768],[-113.19578,37.20373],[-113.18845,37.20358],[-113.18106,37.20408],[-113.17919,37.20403],[-113.17684,37.20338],[-113.16645,37.19828],[-113.16477,37.19773],[-113.16089,37.19672],[-113.15757,37.19624],[-113.15378,37.19521],[-113.14987,37.19523],[-113.14805,37.19497],[-113.14621,37.19416],[-113.14509,37.19333],[-113.14152,37.1893],[-113.13787,37.18631],[-113.13515,37.1837],[-113.13438,37.1832],[-113.12682,37.18026],[-113.12369,37.17972],[-113.12115,37.17902],[-113.1185,37.1788],[-113.11735,37.17849],[-113.11661,37.17811],[-113.11555,37.17718],[-113.11426,37.17447],[-113.1131,37.17334],[-113.11193,37.1728],[-113.10969,37.17217],[-113.10458,37.16902],[-113.10338,37.16846],[-113.10237,37.16822],[-113.10097,37.16814],[-113.09952,37.16838],[-113.09295,37.17125],[-113.09066,37.17181],[-113.08867,37.17173],[-113.08175,37.17046],[-113.07954,37.17021],[-113.07732,37.17023],[-113.0714,37.17085],[-113.07015,37.17083],[-113.06874,37.17055],[-113.06706,37.16979],[-113.06054,37.16427],[-113.05885,37.16311],[-113.05597,37.1618],[-113.05357,37.16122],[-113.0497,37.16088],[-113.03552,37.16127],[-113.03402,37.16096],[-113.03172,37.161],[-113.03042,37.16035],[-113.02966,37.16021],[-113.02904,37.16035],[-113.02717,37.16185],[-113.02582,37.16259],[-113.02453,37.16304],[-113.02379,37.16294],[-113.02279,37.16252],[-113.0217,37.1613],[-113.02107,37.16089],[-113.01875,37.16086],[-113.01807,37.16128],[-113.0175,37.16259],[-113.01704,37.16312],[-113.01537,37.16417],[-113.01372,37.16643],[-113.01317,37.1689],[-113.01344,37.17139],[-113.01293,37.17283],[-113.00879,37.17736],[-113.00633,37.18046],[-113.00573,37.1815],[-113.00364,37.18321],[-113.00067,37.18839],[-113.00016,37.18868],[-112.99852,37.18888]],"type":"LineString"}},{"type":"Feature","properties":{"name":"Springdale, Utah → Bryce Canyon City, Utah"},"geometry":{"coordinates":[[-112.99852,37.18888],[-112.99685,37.18923],[-112.99584,37.18967],[-112.99405,37.19161],[-112.99353,37.19259],[-112.99259,37.19641],[-112.99026,37.19982],[-112.98931,37.20034],[-112.98884,37.20081],[-112.98802,37.20242],[-112.98696,37.20343],[-112.98444,37.20461],[-112.98288,37.2067],[-112.98204,37.20713],[-112.98038,37.20756],[-112.97946,37.20827],[-112.97913,37.20892],[-112.97886,37.21068],[-112.97817,37.21204],[-112.97706,37.2152],[-112.97595,37.21732],[-112.97562,37.21758],[-112.9733,37.21745],[-112.97092,37.21785],[-112.96894,37.21723],[-112.96712,37.2169],[-112.96591,37.21685],[-112.96559,37.21651],[-112.96564,37.21589],[-112.96609,37.21573],[-112.96897,37.21596],[-112.97,37.21591],[-112.9713,37.21659],[-112.97171,37.21658],[-112.97164,37.21617],[-112.96999,37.21549],[-112.96831,37.21564],[-112.96762,37.21529],[-112.96681,37.21529],[-112.96565,37.21498],[-112.96429,37.21514],[-112.96368,37.21547],[-112.9619,37.21572],[-112.96051,37.21541],[-112.95901,37.2146],[-112.95788,37.21452],[-112.95774,37.21424],[-112.95816,37.21412],[-112.96153,37.21502],[-112.96319,37.21476],[-112.96356,37.21438],[-112.96337,37.21407],[-112.96289,37.21398],[-112.96206,37.21458],[-112.96141,37.21459],[-112.95999,37.21398],[-112.95801,37.21264],[-112.95616,37.21232],[-112.95601,37.21208],[-112.9562,37.21189],[-112.95709,37.21211],[-112.96005,37.21237],[-112.96139,37.21277],[-112.96238,37.21263],[-112.96366,37.21287],[-112.96395,37.21254],[-112.96372,37.21238],[-112.96313,37.21254],[-112.9617,37.21243],[-112.96004,37.21185],[-112.95846,37.21153],[-112.9572,37.21023],[-112.9561,37.20987],[-112.94985,37.21112],[-112.94547,37.21082],[-112.94311,37.2112],[-112.9407,37.21328],[-112.9396,37.21466],[-112.93911,37.21482],[-112.9381,37.21479],[-112.93708,37.21549],[-112.9353,37.2153],[-112.93421,37.21407],[-112.93307,37.21359],[-112.93209,37.21349],[-112.93137,37.21406],[-112.93145,37.21521],[-112.9313,37.21549],[-112.93087,37.2157],[-112.92942,37.21594],[-112.92842,37.21706],[-112.92763,37.21706],[-112.92627,37.2163],[-112.92585,37.21628],[-112.92515,37.21656],[-112.92414,37.21737],[-112.92196,37.21829],[-112.92128,37.21814],[-112.91982,37.21604],[-112.91908,37.21578],[-112.91764,37.21685],[-112.91775,37.2174],[-112.91863,37.21784],[-112.91871,37.2182],[-112.91714,37.21954],[-112.91715,37.22081],[-112.91683,37.22149],[-112.91633,37.22174],[-112.91476,37.22206],[-112.91453,37.22247],[-112.91458,37.22329],[-112.91423,37.22362],[-112.91161,37.22364],[-112.91079,37.22439],[-112.91047,37.22523],[-112.91015,37.22547],[-112.90944,37.2253],[-112.90809,37.22332],[-112.90669,37.22291],[-112.90423,37.22336],[-112.90352,37.22438],[-112.90221,37.22481],[-112.90179,37.22481],[-112.90106,37.22405],[-112.89983,37.2237],[-112.89919,37.22233],[-112.89881,37.22216],[-112.89847,37.22256],[-112.8984,37.22392],[-112.89781,37.22477],[-112.89673,37.22477],[-112.89566,37.22508],[-112.89381,37.22447],[-112.89232,37.22444],[-112.89159,37.22466],[-112.89049,37.2257],[-112.8899,37.22598],[-112.88849,37.22574],[-112.88657,37.22599],[-112.88426,37.22676],[-112.87949,37.22763],[-112.87894,37.22821],[-112.87852,37.23053],[-112.87802,37.23145],[-112.87459,37.23381],[-112.87376,37.23409],[-112.87125,37.2342],[-112.85017,37.23784],[-112.84069,37.23819],[-112.8365,37.23848],[-112.83253,37.23911],[-112.83209,37.239],[-112.83149,37.23929],[-112.81274,37.24254],[-112.8115,37.24292],[-112.80327,37.24739],[-112.79659,37.25283],[-112.79441,37.25389],[-112.79314,37.25541],[-112.79248,37.25658],[-112.7912,37.26105],[-112.79041,37.26169],[-112.78965,37.26194],[-112.78697,37.26216],[-112.78371,37.26196],[-112.78085,37.26199],[-112.77951,37.26215],[-112.77661,37.26288],[-112.77509,37.26299],[-112.77292,37.26268],[-112.77131,37.26205],[-112.76854,37.26011],[-112.7668,37.25861],[-112.76267,37.25319],[-112.75937,37.24938],[-112.7506,37.24091],[-112.74831,37.23904],[-112.74537,37.23734],[-112.73217,37.23122],[-112.73038,37.23015],[-112.72692,37.22749],[-112.72559,37.22672],[-112.7124,37.22138],[-112.70977,37.22068],[-112.69816,37.21956],[-112.69683,37.21955],[-112.69562,37.21976],[-112.69464,37.22014],[-112.69352,37.22093],[-112.68846,37.22679],[-112.68753,37.22753],[-112.68637,37.22777],[-112.68537,37.22754],[-112.68473,37.22708],[-112.6834,37.22504],[-112.68113,37.22326],[-112.67924,37.22511],[-112.678,37.22674],[-112.67408,37.23674],[-112.67245,37.23975],[-112.67091,37.24185],[-112.66229,37.24942],[-112.66162,37.25018],[-112.6606,37.25233],[-112.65902,37.25664],[-112.65843,37.25772],[-112.64975,37.27109],[-112.64842,37.27204],[-112.6437,37.27444],[-112.64241,37.2754],[-112.6413,37.27591],[-112.64061,37.27603],[-112.63251,37.27595],[-112.63133,37.27623],[-112.63073,37.27655],[-112.62997,37.27731],[-112.62823,37.28007],[-112.62716,37.28136],[-112.62583,37.28235],[-112.62357,37.28357],[-112.62238,37.28462],[-112.61876,37.29092],[-112.61412,37.29681],[-112.61224,37.29825],[-112.6064,37.30083],[-112.60367,37.30238],[-112.60116,37.30453],[-112.60032,37.30547],[-112.59897,37.30749],[-112.598,37.30984],[-112.59756,37.31216],[-112.5976,37.32229],[-112.59787,37.32294],[-112.59914,37.32459],[-112.59978,37.32652],[-112.59982,37.3301],[-112.60013,37.33144],[-112.60078,37.33254],[-112.60338,37.33575],[-112.60509,37.33926],[-112.60521,37.34043],[-112.60491,37.34145],[-112.60445,37.34212],[-112.60034,37.34623],[-112.59846,37.35022],[-112.59791,37.35349],[-112.59816,37.35438],[-112.59925,37.35619],[-112.59936,37.35715],[-112.59815,37.36031],[-112.59712,37.36143],[-112.59453,37.36271],[-112.59376,37.36326],[-112.59306,37.36394],[-112.59255,37.36494],[-112.59244,37.36567],[-112.59269,37.36673],[-112.59438,37.36865],[-112.59489,37.36971],[-112.59485,37.37252],[-112.59457,37.37346],[-112.59208,37.37655],[-112.59028,37.37798],[-112.58803,37.37881],[-112.58343,37.37901],[-112.58133,37.37962],[-112.58021,37.38027],[-112.57705,37.38285],[-112.57541,37.38374],[-112.57084,37.38578],[-112.56925,37.38705],[-112.56719,37.38907],[-112.56444,37.39037],[-112.56331,37.39107],[-112.56186,37.39271],[-112.5582,37.39787],[-112.55582,37.40287],[-112.55327,37.40514],[-112.55138,37.40854],[-112.54778,37.41316],[-112.54702,37.41591],[-112.54652,37.41685],[-112.54058,37.42283],[-112.53895,37.42518],[-112.5384,37.42644],[-112.53823,37.42762],[-112.53866,37.43235],[-112.53823,37.43808],[-112.5378,37.44151],[-112.537,37.44402],[-112.53605,37.44572],[-112.53466,37.4475],[-112.5337,37.44846],[-112.52819,37.45291],[-112.52446,37.45824],[-112.52295,37.45981],[-112.51984,37.46236],[-112.51877,37.46374],[-112.51688,37.46948],[-112.51339,37.47395],[-112.51311,37.47481],[-112.51316,37.47632],[-112.5141,37.47909],[-112.51447,37.48173],[-112.51405,37.48541],[-112.51339,37.48727],[-112.51152,37.49056],[-112.50818,37.4956],[-112.50702,37.49683],[-112.50463,37.4985],[-112.50323,37.49983],[-112.49834,37.50669],[-112.49753,37.50902],[-112.49779,37.5145],[-112.49728,37.51641],[-112.49656,37.51769],[-112.4875,37.5307],[-112.48703,37.53277],[-112.48792,37.55481],[-112.48764,37.55792],[-112.4866,37.56088],[-112.47781,37.57786],[-112.47614,37.58645],[-112.47574,37.5876],[-112.47467,37.5893],[-112.47214,37.59195],[-112.47121,37.59362],[-112.47081,37.59545],[-112.47083,37.60015],[-112.47035,37.60134],[-112.46853,37.60393],[-112.46793,37.60534],[-112.46769,37.60651],[-112.46744,37.61051],[-112.46684,37.61235],[-112.45528,37.62964],[-112.45418,37.63099],[-112.45142,37.63311],[-112.4398,37.63836],[-112.43835,37.63939],[-112.43715,37.64063],[-112.43515,37.64405],[-112.43451,37.64568],[-112.4344,37.65533],[-112.43393,37.65679],[-112.43315,37.65793],[-112.42607,37.66353],[-112.42301,37.66562],[-112.42076,37.6669],[-112.41663,37.66884],[-112.40447,37.67392],[-112.40242,37.67542],[-112.40074,37.67765],[-112.399,37.68074],[-112.39883,37.68254],[-112.39915,37.68374],[-112.40216,37.6896],[-112.40251,37.69215],[-112.4021,37.69398],[-112.40069,37.69685],[-112.39839,37.70036],[-112.38929,37.71191],[-112.38161,37.72816],[-112.38047,37.73071],[-112.37984,37.73316],[-112.37956,37.74359],[-112.37898,37.74547],[-112.37715,37.74855],[-112.37675,37.74955],[-112.35995,37.74849],[-112.34005,37.74469],[-112.33549,37.74343],[-112.33446,37.74328],[-112.33312,37.74334],[-112.32807,37.74434],[-112.32734,37.74476],[-112.32579,37.74643],[-112.32484,37.74699],[-112.32358,37.74735],[-112.32192,37.74708],[-112.3191,37.7453],[-112.3166,37.74441],[-112.31497,37.74436],[-112.31239,37.74474],[-112.30997,37.74393],[-112.30906,37.74387],[-112.30642,37.74451],[-112.3045,37.74443],[-112.30269,37.74471],[-112.30187,37.74457],[-112.30103,37.74397],[-112.30035,37.74183],[-112.29933,37.74089],[-112.29827,37.74049],[-112.29639,37.74013],[-112.29463,37.73875],[-112.29318,37.7382],[-112.29132,37.73722],[-112.28837,37.73669],[-112.28744,37.73631],[-112.28207,37.73295],[-112.27973,37.73206],[-112.27711,37.73014],[-112.27581,37.72977],[-112.27356,37.72959],[-112.27223,37.7291],[-112.27117,37.72831],[-112.26965,37.72662],[-112.26735,37.72503],[-112.26622,37.72322],[-112.26533,37.72223],[-112.26324,37.72087],[-112.26145,37.72045],[-112.23625,37.71716],[-112.23361,37.71663],[-112.20883,37.7091],[-112.20523,37.70734],[-112.1975,37.70185],[-112.19485,37.70043],[-112.19219,37.69943],[-112.18845,37.6986],[-112.15576,37.69335],[-112.15294,37.69264],[-112.15219,37.69088],[-112.1522,37.69019],[-112.15639,37.67409]],"type":"LineString"}},{"type":"Feature","properties":{"name":"Bryce Canyon City, Utah → Page, Arizona"},"geometry":{"coordinates":[[-112.15639,37.67409],[-112.1522,37.69019],[-112.15247,37.69213],[-112.15216,37.69245],[-112.15233,37.69272],[-112.1912,37.69916],[-112.19335,37.69982],[-112.19612,37.70105],[-112.1975,37.70185],[-112.20523,37.70734],[-112.20883,37.7091],[-112.23277,37.71641],[-112.23625,37.71716],[-112.26145,37.72045],[-112.26324,37.72087],[-112.26533,37.72223],[-112.26622,37.72322],[-112.26735,37.72503],[-112.26965,37.72662],[-112.27117,37.72831],[-112.27223,37.7291],[-112.27356,37.72959],[-112.27581,37.72977],[-112.27711,37.73014],[-112.27973,37.73206],[-112.28207,37.73295],[-112.28744,37.73631],[-112.28837,37.73669],[-112.29132,37.73722],[-112.29318,37.7382],[-112.29463,37.73875],[-112.29639,37.74013],[-112.29827,37.74049],[-112.29933,37.74089],[-112.30035,37.74183],[-112.30103,37.74397],[-112.30187,37.74457],[-112.30269,37.74471],[-112.3045,37.74443],[-112.30642,37.74451],[-112.30906,37.74387],[-112.30997,37.74393],[-112.31239,37.74474],[-112.31497,37.74436],[-112.3166,37.74441],[-112.3191,37.7453],[-112.32192,37.74708],[-112.32358,37.74735],[-112.32484,37.74699],[-112.32579,37.74643],[-112.32734,37.74476],[-112.32807,37.74434],[-112.33312,37.74334],[-112.33446,37.74328],[-112.33549,37.74343],[-112.34005,37.74469],[-112.35995,37.74849],[-112.37689,37.74965],[-112.37733,37.74831],[-112.37898,37.74547],[-112.37956,37.74359],[-112.37984,37.73316],[-112.38047,37.73071],[-112.38161,37.72816],[-112.38929,37.71191],[-112.39839,37.70036],[-112.40069,37.69685],[-112.4021,37.69398],[-112.40251,37.69215],[-112.40216,37.6896],[-112.39915,37.68374],[-112.39883,37.68254],[-112.399,37.68074],[-112.40074,37.67765],[-112.40242,37.67542],[-112.40447,37.67392],[-112.41663,37.66884],[-112.42076,37.6669],[-112.42301,37.66562],[-112.42607,37.66353],[-112.43315,37.65793],[-112.43393,37.65679],[-112.4344,37.65533],[-112.43451,37.64568],[-112.43515,37.64405],[-112.43715,37.64063],[-112.43835,37.63939],[-112.4398,37.63836],[-112.45142,37.63311],[-112.45418,37.63099],[-112.45528,37.62964],[-112.46684,37.61235],[-112.46744,37.61051],[-112.46769,37.60651],[-112.46793,37.60534],[-112.46853,37.60393],[-112.47035,37.60134],[-112.47083,37.60015],[-112.47081,37.59545],[-112.47121,37.59362],[-112.47214,37.59195],[-112.47467,37.5893],[-112.47574,37.5876],[-112.47614,37.58645],[-112.47781,37.57786],[-112.4866,37.56088],[-112.48764,37.55792],[-112.48792,37.55481],[-112.48703,37.53277],[-112.4875,37.5307],[-112.49656,37.51769],[-112.49728,37.51641],[-112.49779,37.5145],[-112.49753,37.50902],[-112.49834,37.50669],[-112.50323,37.49983],[-112.50463,37.4985],[-112.50702,37.49683],[-112.50818,37.4956],[-112.51152,37.49056],[-112.51339,37.48727],[-112.51405,37.48541],[-112.51447,37.48173],[-112.5141,37.47909],[-112.51316,37.47632],[-112.51311,37.47481],[-112.51339,37.47395],[-112.51688,37.46948],[-112.51877,37.46374],[-112.51984,37.46236],[-112.52295,37.45981],[-112.52446,37.45824],[-112.52819,37.45291],[-112.5337,37.44846],[-112.53466,37.4475],[-112.53605,37.44572],[-112.537,37.44402],[-112.5378,37.44151],[-112.53823,37.43808],[-112.53866,37.43235],[-112.53823,37.42762],[-112.5384,37.42644],[-112.53895,37.42518],[-112.54058,37.42283],[-112.54652,37.41685],[-112.54702,37.41591],[-112.54778,37.41316],[-112.55138,37.40854],[-112.55327,37.40514],[-112.55582,37.40287],[-112.5582,37.39787],[-112.56186,37.39271],[-112.56331,37.39107],[-112.56444,37.39037],[-112.56719,37.38907],[-112.56925,37.38705],[-112.57084,37.38578],[-112.57541,37.38374],[-112.57705,37.38285],[-112.58021,37.38027],[-112.58133,37.37962],[-112.58343,37.37901],[-112.58803,37.37881],[-112.59028,37.37798],[-112.59208,37.37655],[-112.59457,37.37346],[-112.59485,37.37252],[-112.59489,37.36971],[-112.59438,37.36865],[-112.59269,37.36673],[-112.59244,37.36567],[-112.59255,37.36494],[-112.59306,37.36394],[-112.59376,37.36326],[-112.59453,37.36271],[-112.59712,37.36143],[-112.59815,37.36031],[-112.59936,37.35715],[-112.59925,37.35619],[-112.59816,37.35438],[-112.59791,37.35349],[-112.59846,37.35022],[-112.60034,37.34623],[-112.60445,37.34212],[-112.60491,37.34145],[-112.60521,37.34043],[-112.60509,37.33926],[-112.60338,37.33575],[-112.60078,37.33254],[-112.60013,37.33144],[-112.59982,37.3301],[-112.59978,37.32652],[-112.59914,37.32459],[-112.59787,37.32294],[-112.5976,37.32229],[-112.59756,37.31216],[-112.598,37.30984],[-112.59897,37.30749],[-112.60032,37.30547],[-112.60116,37.30453],[-112.60367,37.30238],[-112.6064,37.30083],[-112.61224,37.29825],[-112.61412,37.29681],[-112.61876,37.29092],[-112.62238,37.28462],[-112.62357,37.28357],[-112.62583,37.28235],[-112.62716,37.28136],[-112.62823,37.28007],[-112.62997,37.27731],[-112.63073,37.27655],[-112.63133,37.27623],[-112.63251,37.27595],[-112.64061,37.27603],[-112.6413,37.27591],[-112.64241,37.2754],[-112.6437,37.27444],[-112.64842,37.27204],[-112.64975,37.27109],[-112.65843,37.25772],[-112.65902,37.25664],[-112.6606,37.25233],[-112.66162,37.25018],[-112.66229,37.24942],[-112.67091,37.24185],[-112.67245,37.23975],[-112.67365,37.2377],[-112.67759,37.22758],[-112.67876,37.22566],[-112.68136,37.2229],[-112.68403,37.21603],[-112.68443,37.21391],[-112.68414,37.21041],[-112.68446,37.20797],[-112.68516,37.20639],[-112.68537,37.20535],[-112.6853,37.20494],[-112.68476,37.20418],[-112.68399,37.20367],[-112.68263,37.20342],[-112.67601,37.20415],[-112.67511,37.20418],[-112.67377,37.20394],[-112.67228,37.20304],[-112.66605,37.19674],[-112.66496,37.1962],[-112.66265,37.19569],[-112.66153,37.19494],[-112.66089,37.19371],[-112.66087,37.19142],[-112.66048,37.19059],[-112.65984,37.18986],[-112.65864,37.18915],[-112.58033,37.15759],[-112.57797,37.15646],[-112.57604,37.1553],[-112.57443,37.15412],[-112.57248,37.15231],[-112.57038,37.14966],[-112.56917,37.14754],[-112.56832,37.14525],[-112.56736,37.14058],[-112.56599,37.13784],[-112.56589,37.13678],[-112.56636,37.13479],[-112.56634,37.13383],[-112.56487,37.12963],[-112.56514,37.1268],[-112.56505,37.12472],[-112.56401,37.11987],[-112.56345,37.11844],[-112.5619,37.11638],[-112.55983,37.11476],[-112.55769,37.11383],[-112.55445,37.11307],[-112.5531,37.1126],[-112.55139,37.11154],[-112.55068,37.11085],[-112.54946,37.10893],[-112.54917,37.10781],[-112.54866,37.10337],[-112.54723,37.09953],[-112.54652,37.09839],[-112.54384,37.09612],[-112.54297,37.09469],[-112.54218,37.09092],[-112.53915,37.08276],[-112.53841,37.07772],[-112.53615,37.0741],[-112.53678,37.07166],[-112.5371,37.06568],[-112.53691,37.06278],[-112.53716,37.05984],[-112.53511,37.05433],[-112.535,37.04949],[-112.53438,37.04854],[-112.53332,37.04816],[-112.52745,37.04815],[-112.52685,37.04802],[-112.52644,37.04756],[-112.52638,37.04299],[-112.51664,37.04299],[-112.51496,37.04278],[-112.51329,37.04231],[-112.49276,37.03143],[-112.48835,37.02977],[-112.48459,37.02893],[-112.45357,37.02375],[-112.44892,37.02319],[-112.44413,37.02292],[-112.4366,37.02313],[-112.43288,37.02352],[-112.42892,37.02415],[-112.38127,37.03522],[-112.37534,37.03632],[-112.36803,37.03717],[-112.36136,37.03746],[-112.22456,37.04105],[-112.22024,37.04153],[-112.21735,37.04232],[-112.21477,37.0434],[-112.21211,37.04498],[-112.10054,37.12267],[-112.08478,37.13498],[-112.05128,37.15697],[-112.04576,37.16013],[-111.99701,37.18485],[-111.99404,37.18583],[-111.99182,37.1862],[-111.98857,37.18626],[-111.98574,37.18585],[-111.98321,37.18509],[-111.98035,37.18363],[-111.97843,37.18217],[-111.97646,37.17989],[-111.97511,37.17707],[-111.9703,37.1639],[-111.96976,37.16174],[-111.96946,37.15905],[-111.96956,37.15697],[-111.96991,37.15493],[-111.97681,37.13148],[-111.97693,37.12952],[-111.97667,37.12593],[-111.97596,37.12481],[-111.97455,37.12394],[-111.9734,37.12372],[-111.97188,37.12393],[-111.96674,37.12695],[-111.96486,37.12755],[-111.96383,37.1277],[-111.9569,37.12789],[-111.95472,37.12768],[-111.95318,37.12727],[-111.95083,37.12616],[-111.93478,37.11455],[-111.93315,37.11353],[-111.9305,37.1122],[-111.92708,37.11095],[-111.92245,37.10993],[-111.8925,37.10556],[-111.86932,37.09957],[-111.86783,37.09952],[-111.86669,37.09981],[-111.86122,37.10343],[-111.85899,37.10413],[-111.84139,37.10524],[-111.8371,37.10506],[-111.83413,37.10472],[-111.68272,37.08527],[-111.68014,37.0846],[-111.67748,37.0836],[-111.65751,37.07555],[-111.65545,37.07459],[-111.65269,37.07283],[-111.65034,37.07064],[-111.64105,37.05922],[-111.63974,37.0579],[-111.63668,37.05564],[-111.62845,37.05128],[-111.62568,37.04934],[-111.62321,37.04677],[-111.61644,37.03737],[-111.61519,37.03614],[-111.61373,37.03516],[-111.60676,37.0316],[-111.60438,37.03002],[-111.60182,37.02796],[-111.55576,36.98622],[-111.55235,36.98424],[-111.54841,36.98287],[-111.54564,36.98235],[-111.52611,36.98004],[-111.52298,36.97896],[-111.52032,36.97738],[-111.5184,36.97548],[-111.5079,36.96145],[-111.50013,36.95357],[-111.49848,36.95155],[-111.49677,36.9483],[-111.49505,36.94015],[-111.49464,36.93904],[-111.49379,36.93787],[-111.4899,36.93514],[-111.48901,36.93467],[-111.48818,36.93445],[-111.48665,36.93452],[-111.48023,36.9364],[-111.47922,36.93627],[-111.47773,36.93546],[-111.47468,36.93346],[-111.47313,36.93159],[-111.47259,36.93002],[-111.47209,36.92584],[-111.47219,36.92542],[-111.47144,36.92563],[-111.46888,36.92575],[-111.46542,36.92551],[-111.46455,36.92515],[-111.46426,36.92482],[-111.46408,36.92415],[-111.46414,36.92122],[-111.46394,36.92066],[-111.46345,36.92025],[-111.46109,36.91966],[-111.45981,36.9189],[-111.45787,36.91716],[-111.45571,36.91481],[-111.45634,36.91443],[-111.45688,36.91504]],"type":"LineString"}},{"type":"Feature","properties":{"name":"Page, Arizona → Grand Canyon Village, Arizona"},"geometry":{"coordinates":[[-111.45688,36.91504],[-111.45634,36.91443],[-111.45892,36.91294],[-111.46128,36.91191],[-111.46347,36.9114],[-111.46306,36.91063],[-111.4621,36.90966],[-111.4716,36.9069],[-111.47235,36.90683],[-111.47763,36.90741],[-111.48188,36.90894],[-111.48402,36.9054],[-111.48444,36.90516],[-111.48468,36.90421],[-111.50051,36.87712],[-111.50123,36.87563],[-111.50798,36.85007],[-111.50854,36.83458],[-111.50899,36.83198],[-111.5286,36.78667],[-111.52938,36.78578],[-111.53056,36.78523],[-111.53363,36.78498],[-111.53643,36.78422],[-111.53803,36.7845],[-111.54011,36.7858],[-111.54099,36.78611],[-111.54259,36.78613],[-111.54448,36.78558],[-111.54585,36.78486],[-111.55338,36.77755],[-111.55842,36.771],[-111.57234,36.75447],[-111.57369,36.75255],[-111.60311,36.69385],[-111.61964,36.66972],[-111.62085,36.66869],[-111.62214,36.6683],[-111.6237,36.66839],[-111.62572,36.66915],[-111.62685,36.66921],[-111.62764,36.66907],[-111.63103,36.66759],[-111.63234,36.66654],[-111.63303,36.66538],[-111.63319,36.66458],[-111.63286,36.66011],[-111.63202,36.65782],[-111.63276,36.65518],[-111.63214,36.65106],[-111.63228,36.65031],[-111.63333,36.64813],[-111.63338,36.64733],[-111.63287,36.64571],[-111.63301,36.64408],[-111.6328,36.64313],[-111.63234,36.64244],[-111.63054,36.64103],[-111.63,36.64037],[-111.62972,36.63938],[-111.62987,36.6384],[-111.63037,36.63762],[-111.63233,36.63559],[-111.63348,36.63498],[-111.6347,36.6346],[-111.6367,36.63444],[-111.64727,36.63515],[-111.64867,36.63511],[-111.65076,36.63444],[-111.65159,36.63388],[-111.65248,36.63289],[-111.65305,36.63125],[-111.65575,36.60433],[-111.657,36.59808],[-111.65708,36.59685],[-111.65689,36.59547],[-111.65621,36.59378],[-111.64319,36.57563],[-111.64076,36.56986],[-111.63466,36.56007],[-111.6197,36.54355],[-111.61405,36.53821],[-111.60388,36.52777],[-111.59695,36.51959],[-111.5915,36.51541],[-111.58622,36.50993],[-111.58449,36.50755],[-111.58364,36.50585],[-111.56837,36.46645],[-111.56605,36.46133],[-111.54821,36.42994],[-111.54414,36.42161],[-111.5363,36.40683],[-111.53258,36.40147],[-111.52676,36.39557],[-111.52569,36.39409],[-111.51355,36.36932],[-111.50906,36.36188],[-111.50809,36.35998],[-111.50667,36.35617],[-111.50513,36.34976],[-111.50455,36.34828],[-111.50378,36.34698],[-111.50207,36.34507],[-111.49867,36.34202],[-111.49273,36.33415],[-111.4818,36.32312],[-111.4766,36.31748],[-111.47422,36.31557],[-111.47001,36.31257],[-111.4647,36.30772],[-111.46046,36.3038],[-111.45386,36.29652],[-111.4428,36.28181],[-111.42178,36.25585],[-111.42037,36.25367],[-111.41769,36.24804],[-111.4162,36.24539],[-111.40052,36.22562],[-111.39714,36.21932],[-111.39566,36.21564],[-111.39422,36.20968],[-111.39378,36.20704],[-111.39308,36.1946],[-111.39316,36.19232],[-111.3936,36.18979],[-111.39465,36.18686],[-111.39911,36.17807],[-111.39964,36.17477],[-111.39482,36.1239],[-111.39483,36.11933],[-111.39621,36.10381],[-111.39607,36.10011],[-111.39527,36.09629],[-111.39218,36.08494],[-111.39173,36.08215],[-111.39156,36.07925],[-111.39185,36.07598],[-111.39765,36.03825],[-111.3982,36.03168],[-111.39799,36.0286],[-111.39322,35.99978],[-111.39289,35.99623],[-111.3929,35.99358],[-111.39308,35.9908],[-111.39829,35.95227],[-111.40611,35.89601],[-111.40774,35.88935],[-111.41346,35.87074],[-111.41537,35.86668],[-111.41811,35.86241],[-111.42492,35.85511],[-111.42603,35.85539],[-111.42934,35.85577],[-111.437,35.85569],[-111.43867,35.85581],[-111.44139,35.85643],[-111.4474,35.85845],[-111.45146,35.85913],[-111.4547,35.85916],[-111.45893,35.85884],[-111.47478,35.85836],[-111.47682,35.85855],[-111.47842,35.85895],[-111.48095,35.8602],[-111.4899,35.86757],[-111.49159,35.86865],[-111.49352,35.86958],[-111.49909,35.87183],[-111.50207,35.87276],[-111.50516,35.87353],[-111.51489,35.87531],[-111.51753,35.87642],[-111.5195,35.87797],[-111.55083,35.90716],[-111.55275,35.90861],[-111.56626,35.91728],[-111.56963,35.91916],[-111.57239,35.92018],[-111.5794,35.92228],[-111.58714,35.92374],[-111.58982,35.9239],[-111.60592,35.92353],[-111.60874,35.92385],[-111.61122,35.9248],[-111.61914,35.92942],[-111.62158,35.93048],[-111.62374,35.93116],[-111.62712,35.93174],[-111.63878,35.93286],[-111.6409,35.93351],[-111.64402,35.93494],[-111.64515,35.93517],[-111.64888,35.93546],[-111.65084,35.93585],[-111.65609,35.93728],[-111.65956,35.93769],[-111.66244,35.93899],[-111.66356,35.93928],[-111.66514,35.9393],[-111.6767,35.93812],[-111.683,35.93681],[-111.69142,35.93656],[-111.6927,35.93666],[-111.69449,35.93709],[-111.69906,35.93951],[-111.701,35.93965],[-111.70241,35.93927],[-111.70349,35.93862],[-111.7083,35.93324],[-111.70947,35.93225],[-111.71114,35.93161],[-111.72267,35.92942],[-111.72419,35.92896],[-111.72638,35.92782],[-111.73041,35.92443],[-111.73219,35.92357],[-111.73359,35.92336],[-111.7555,35.92284],[-111.75785,35.92311],[-111.76021,35.9239],[-111.76208,35.92505],[-111.76364,35.92665],[-111.77961,35.94784],[-111.78109,35.95113],[-111.78998,35.97552],[-111.79134,35.97781],[-111.79826,35.98669],[-111.79887,35.98776],[-111.79945,35.98996],[-111.79935,35.99176],[-111.79897,35.993],[-111.79677,35.99702],[-111.7963,35.99841],[-111.79634,36.00004],[-111.79698,36.00155],[-111.7977,36.00242],[-111.79867,36.00318],[-111.80115,36.00439],[-111.80226,36.00513],[-111.80478,36.00844],[-111.80799,36.01056],[-111.80843,36.01183],[-111.8076,36.01401],[-111.80717,36.0163],[-111.80753,36.01747],[-111.80823,36.01816],[-111.80927,36.01863],[-111.81218,36.0192],[-111.81662,36.02135],[-111.82033,36.02192],[-111.82203,36.0224],[-111.82402,36.02339],[-111.82566,36.02475],[-111.82668,36.02612],[-111.82767,36.02814],[-111.82857,36.02951],[-111.83116,36.03178],[-111.83171,36.03268],[-111.83173,36.03358],[-111.83143,36.03426],[-111.82895,36.03794],[-111.82911,36.03885],[-111.82999,36.03936],[-111.83097,36.03932],[-111.83272,36.03861],[-111.8336,36.03785],[-111.83432,36.03661],[-111.83483,36.03635],[-111.83571,36.03645],[-111.83703,36.03758],[-111.83784,36.03766],[-111.83859,36.03741],[-111.83996,36.03581],[-111.8478,36.02954],[-111.84964,36.02826],[-111.85248,36.02704],[-111.85343,36.02627],[-111.85617,36.02315],[-111.85843,36.02203],[-111.86109,36.01998],[-111.86195,36.01909],[-111.863,36.0171],[-111.86352,36.01664],[-111.87299,36.01299],[-111.87425,36.01064],[-111.87473,36.01028],[-111.87541,36.01044],[-111.87679,36.01192],[-111.87804,36.01208],[-111.88085,36.01111],[-111.8829,36.0109],[-111.88352,36.01062],[-111.88493,36.0095],[-111.8886,36.00808],[-111.88992,36.00813],[-111.89044,36.00839],[-111.89146,36.00934],[-111.89247,36.0094],[-111.89296,36.00907],[-111.89426,36.00758],[-111.89555,36.00718],[-111.89622,36.00724],[-111.89699,36.00754],[-111.90453,36.01136],[-111.90568,36.01151],[-111.9079,36.01134],[-111.90899,36.01104],[-111.91254,36.00891],[-111.91395,36.00634],[-111.91732,36.00393],[-111.91834,36.00356],[-111.92428,36.0022],[-111.92592,36.0013],[-111.93878,35.98725],[-111.93941,35.98626],[-111.93989,35.98458],[-111.94058,35.98339],[-111.94405,35.98075],[-111.94518,35.98026],[-111.94661,35.98015],[-111.94995,35.98128],[-111.95117,35.98128],[-111.95198,35.98107],[-111.95558,35.97884],[-111.95797,35.97651],[-111.96089,35.97533],[-111.96213,35.97462],[-111.96359,35.97311],[-111.96467,35.97113],[-111.96573,35.97018],[-111.9701,35.96843],[-111.97117,35.96822],[-111.97224,35.96821],[-111.97534,35.96877],[-111.97893,35.97041],[-111.98131,35.97263],[-111.98187,35.97347],[-111.98251,35.97511],[-111.98292,35.97559],[-111.98342,35.97595],[-111.98613,35.97682],[-111.98727,35.9774],[-111.98834,35.97864],[-111.99024,35.98524],[-111.99187,35.98852],[-111.99263,35.98936],[-111.99506,35.99132],[-111.99692,35.99258],[-111.9981,35.99316],[-112.00168,35.99413],[-112.0071,35.99681],[-112.00813,35.99706],[-112.01093,35.99731],[-112.01331,35.99711],[-112.01474,35.99674],[-112.02164,35.99379],[-112.02355,35.99358],[-112.02539,35.99387],[-112.02854,35.99513],[-112.03159,35.99612],[-112.0515,36.00849],[-112.0529,36.00899],[-112.05563,36.00959],[-112.06001,36.01109],[-112.0632,36.0114],[-112.06467,36.01199],[-112.0657,36.0132],[-112.06632,36.0157],[-112.06503,36.02499],[-112.06505,36.02625],[-112.06739,36.0331],[-112.06877,36.03454],[-112.07297,36.03701],[-112.08519,36.04627],[-112.08739,36.04705],[-112.09108,36.04725],[-112.09453,36.04804],[-112.09878,36.04998],[-112.10241,36.05083],[-112.10526,36.05217],[-112.10544,36.05226],[-112.10474,36.0536],[-112.10452,36.05494],[-112.10491,36.05689],[-112.10545,36.05731],[-112.10603,36.05742],[-112.10674,36.05725],[-112.10769,36.05664],[-112.10881,36.05665],[-112.11108,36.05835],[-112.11121,36.05923],[-112.11136,36.05926],[-112.1119,36.0593],[-112.11244,36.05906],[-112.11334,36.0577],[-112.11394,36.05719],[-112.11707,36.05608],[-112.11839,36.05509],[-112.12007,36.05463],[-112.12119,36.05516],[-112.1227,36.05385],[-112.12436,36.05336],[-112.12556,36.05348],[-112.12634,36.05379],[-112.12836,36.05526],[-112.12951,36.05587]],"type":"LineString"}},{"type":"Feature","properties":{"name":"Grand Canyon Village, Arizona → Flagstaff, Arizona"},"geometry":{"coordinates":[[-112.12951,36.05587],[-112.1259,36.0536],[-112.12424,36.05334],[-112.12316,36.05356],[-112.12248,36.05241],[-112.1225,36.05179],[-112.12231,36.05143],[-112.12314,36.0508],[-112.12332,36.05037],[-112.12328,36.04977],[-112.12244,36.04799],[-112.12238,36.04556],[-112.12299,36.04427],[-112.12363,36.04363],[-112.12496,36.04298],[-112.12745,36.0426],[-112.12724,36.0416],[-112.12649,36.04084],[-112.12548,36.04053],[-112.12409,36.03967],[-112.12164,36.03952],[-112.12256,36.03546],[-112.12304,36.03221],[-112.12298,36.02628],[-112.12259,36.0215],[-112.12224,36.02005],[-112.12071,36.01608],[-112.12037,36.01423],[-112.12027,36.01221],[-112.12033,36.0107],[-112.12124,36.00498],[-112.12139,36.00182],[-112.12196,36.00011],[-112.12186,35.99835],[-112.12316,35.9927],[-112.12337,35.99027],[-112.12325,35.98464],[-112.1237,35.98087],[-112.12458,35.97768],[-112.12486,35.97708],[-112.1253,35.97677],[-112.12537,35.97586],[-112.12615,35.97392],[-112.12876,35.96845],[-112.12925,35.96806],[-112.12934,35.96732],[-112.1307,35.96438],[-112.13163,35.96117],[-112.13193,35.95815],[-112.1296,35.90888],[-112.12953,35.90461],[-112.12981,35.89835],[-112.13026,35.894],[-112.13157,35.88584],[-112.13212,35.88098],[-112.13372,35.85517],[-112.1336,35.85205],[-112.13195,35.83871],[-112.132,35.81819],[-112.12923,35.77785],[-112.13087,35.76183],[-112.13133,35.71232],[-112.14466,35.61395],[-112.1463,35.60418],[-112.16291,35.54105],[-112.17298,35.50956],[-112.17347,35.50695],[-112.17467,35.48872],[-112.17514,35.48645],[-112.1772,35.47919],[-112.17753,35.47724],[-112.17716,35.47499],[-112.17451,35.46971],[-112.17311,35.4663],[-112.17036,35.45669],[-112.17039,35.45513],[-112.17155,35.44632],[-112.17168,35.44371],[-112.16918,35.39857],[-112.16859,35.39647],[-112.16196,35.38075],[-112.16156,35.37879],[-112.16185,35.37639],[-112.16659,35.36278],[-112.16719,35.3603],[-112.16727,35.35807],[-112.16647,35.34535],[-112.16555,35.34324],[-112.15917,35.33467],[-112.15231,35.32117],[-112.14886,35.31605],[-112.14224,35.30013],[-112.14147,35.29707],[-112.1414,35.29462],[-112.14182,35.29226],[-112.14564,35.2837],[-112.15006,35.26638],[-112.15025,35.26261],[-112.15153,35.25989],[-112.15021,35.25943],[-112.14545,35.25834],[-112.14361,35.25803],[-112.14086,35.25789],[-112.096,35.25832],[-112.08543,35.25782],[-112.08279,35.25782],[-112.08013,35.25814],[-112.07784,35.25868],[-112.07518,35.25963],[-112.06794,35.26274],[-112.06385,35.26388],[-112.06074,35.26444],[-112.05863,35.26464],[-112.05589,35.26474],[-112.05282,35.26463],[-112.04935,35.26418],[-112.04678,35.26365],[-112.00152,35.25281],[-111.99068,35.24921],[-111.98804,35.24853],[-111.98304,35.24763],[-111.97937,35.24733],[-111.97457,35.24739],[-111.96845,35.24817],[-111.93326,35.25671],[-111.93029,35.25696],[-111.92675,35.25675],[-111.91158,35.25306],[-111.90886,35.25262],[-111.90267,35.25222],[-111.89987,35.25166],[-111.89645,35.25048],[-111.89152,35.24818],[-111.88922,35.24745],[-111.88697,35.24698],[-111.88481,35.24676],[-111.88196,35.24676],[-111.87466,35.2479],[-111.87015,35.24839],[-111.86278,35.24857],[-111.85808,35.24827],[-111.85382,35.24772],[-111.84805,35.24655],[-111.84407,35.24542],[-111.84037,35.24412],[-111.83633,35.2424],[-111.79922,35.22487],[-111.79375,35.2218],[-111.78758,35.21721],[-111.78499,35.2157],[-111.78298,35.21486],[-111.77574,35.21238],[-111.77419,35.21138],[-111.77312,35.21037],[-111.77106,35.20719],[-111.76969,35.20555],[-111.76831,35.20441],[-111.76649,35.20336],[-111.75463,35.19947],[-111.75173,35.19891],[-111.7456,35.19823],[-111.74337,35.19769],[-111.741,35.19673],[-111.73625,35.19375],[-111.72852,35.19108],[-111.72681,35.18962],[-111.72616,35.18933],[-111.72512,35.18937],[-111.72444,35.18979],[-111.72296,35.19164],[-111.72291,35.19289],[-111.71276,35.19312],[-111.71089,35.19301],[-111.70847,35.19263],[-111.69512,35.1893],[-111.68907,35.18882],[-111.68424,35.18787],[-111.68156,35.18776],[-111.66897,35.18809],[-111.66771,35.18839],[-111.66676,35.18884],[-111.66182,35.19253],[-111.66082,35.1928],[-111.6588,35.19291],[-111.6585,35.1928],[-111.65516,35.19539],[-111.6536,35.19844],[-111.65308,35.19863],[-111.65198,35.19842]],"type":"LineString"}},{"type":"Feature","properties":{"name":"Las Vegas, Nevada"},"geometry":{"type":"Point","coordinates":[-115.14841,36.16743]}},{"type":"Feature","properties":{"name":"Springdale, Utah"},"geometry":{"type":"Point","coordinates":[-112.99855,37.18887]}},{"type":"Feature","properties":{"name":"Bryce Canyon City, Utah"},"geometry":{"type":"Point","coordinates":[-112.1565,37.67411]}},{"type":"Feature","properties":{"name":"Page, Arizona"},"geometry":{"type":"Point","coordinates":[-111.45729,36.91483]}},{"type":"Feature","properties":{"name":"Grand Canyon Village, Arizona"},"geometry":{"type":"Point","coordinates":[-112.12816,36.05781]}},{"type":"Feature","properties":{"name":"Flagstaff, Arizona"},"geometry":{"type":"Point","coordinates":[-111.65182,35.19875]}}]}