{"type":"FeatureCollection","features":[{"type":"Feature","properties":{"name":"Hanoi, Vietnam → Ninh Binh, Vietnam"},"geometry":{"coordinates":[[105.85382,21.02823],[105.8537,21.02825],[105.85388,21.03029],[105.85313,21.03157],[105.85172,21.03188],[105.85133,21.03176],[105.851,21.03141],[105.85094,21.03108],[105.8514,21.02906],[105.85112,21.02799],[105.85167,21.02581],[105.84929,21.01858],[105.84904,21.00861],[105.84501,21.00799],[105.84247,21.00777],[105.84129,21.00784],[105.84077,20.97243],[105.84174,20.96839],[105.84185,20.96558],[105.8489,20.96553],[105.84913,20.96542],[105.84911,20.96085],[105.84937,20.95892],[105.84992,20.95718],[105.8508,20.95553],[105.85789,20.94536],[105.85874,20.9435],[105.8593,20.94092],[105.85894,20.93376],[105.85971,20.92551],[105.85975,20.9158],[105.8601,20.9121],[105.86066,20.90918],[105.86263,20.90309],[105.86755,20.89305],[105.87169,20.88268],[105.8734,20.87964],[105.87969,20.87043],[105.8806,20.86835],[105.88093,20.86648],[105.88074,20.86147],[105.88096,20.85962],[105.8819,20.85615],[105.88513,20.84763],[105.88561,20.84573],[105.8902,20.81351],[105.89105,20.80956],[105.89257,20.8057],[105.89515,20.80061],[105.89652,20.79746],[105.89918,20.78867],[105.90003,20.7863],[105.90138,20.78337],[105.90289,20.78073],[105.9151,20.76207],[105.91629,20.75986],[105.91821,20.7554],[105.91945,20.75092],[105.92013,20.74681],[105.92032,20.7409],[105.91986,20.7366],[105.91835,20.72995],[105.91788,20.7259],[105.9179,20.72348],[105.91838,20.71781],[105.91855,20.70671],[105.91882,20.704],[105.91971,20.70078],[105.92088,20.69837],[105.9331,20.68181],[105.93475,20.67889],[105.93589,20.67573],[105.93646,20.67184],[105.93651,20.65805],[105.93681,20.65466],[105.93744,20.65063],[105.94651,20.61438],[105.94744,20.61027],[105.94803,20.60665],[105.95122,20.57168],[105.9512,20.57019],[105.95074,20.56706],[105.94895,20.55864],[105.94823,20.54856],[105.94781,20.53993],[105.94881,20.52005],[105.94986,20.50212],[105.95017,20.49977],[105.95072,20.49796],[105.9514,20.49648],[105.95678,20.48799],[105.95783,20.48556],[105.96888,20.43927],[105.9752,20.40513],[105.97666,20.3964],[105.98239,20.35101],[105.98303,20.34665],[105.98351,20.34463],[105.98513,20.34045],[105.9861,20.33864],[106.00085,20.31572],[106.00289,20.3121],[106.00499,20.30757],[106.01134,20.29264],[106.01136,20.29194],[106.01075,20.29101],[106.01071,20.29046],[106.01263,20.28803],[106.01354,20.28567],[106.01343,20.28514],[106.0111,20.2832],[105.99018,20.26797],[105.9893,20.26751],[105.97811,20.26466],[105.96952,20.26175],[105.9744,20.25093],[105.97445,20.25007],[105.97396,20.24896],[105.97411,20.2489],[105.97475,20.25033],[105.97491,20.2504],[105.9755,20.25014],[105.97543,20.24948],[105.97298,20.24504],[105.9721,20.24283],[105.97442,20.24213]],"type":"LineString"}},{"type":"Feature","properties":{"name":"Ninh Binh, Vietnam → Hue, Vietnam"},"geometry":{"coordinates":[[105.97442,20.24213],[105.97427,20.24205],[105.974,20.24236],[105.97215,20.24294],[105.97024,20.23928],[105.96938,20.23653],[105.96802,20.23711],[105.96645,20.23354],[105.96624,20.23274],[105.96635,20.23185],[105.96778,20.22676],[105.96754,20.22469],[105.9668,20.22283],[105.96504,20.22007],[105.96442,20.21817],[105.96133,20.21797],[105.96034,20.21797],[105.9601,20.2181],[105.95982,20.21791],[105.96015,20.21687],[105.96103,20.21008],[105.96085,20.20374],[105.96064,20.20204],[105.95937,20.19576],[105.959,20.19465],[105.95677,20.19202],[105.95429,20.18812],[105.95132,20.18687],[105.94291,20.18194],[105.94065,20.18077],[105.93733,20.17957],[105.93385,20.17893],[105.93024,20.17885],[105.91778,20.18079],[105.91473,20.18073],[105.91247,20.18003],[105.89042,20.17032],[105.88723,20.16922],[105.88528,20.16889],[105.86066,20.16628],[105.85818,20.16561],[105.85604,20.16451],[105.85391,20.16277],[105.83919,20.14789],[105.83688,20.14507],[105.81468,20.10778],[105.81366,20.10581],[105.81264,20.1033],[105.8116,20.09912],[105.81125,20.09544],[105.81196,20.07772],[105.81171,20.07117],[105.81123,20.06764],[105.81044,20.06393],[105.80928,20.06003],[105.80807,20.05677],[105.80614,20.05263],[105.80476,20.05013],[105.80253,20.04663],[105.79528,20.03653],[105.79109,20.03105],[105.7784,20.01322],[105.7766,20.0106],[105.7753,20.00833],[105.77343,20.00414],[105.76939,19.99167],[105.76847,19.98714],[105.76771,19.98155],[105.76688,19.97848],[105.76621,19.97693],[105.76035,19.96554],[105.75794,19.96118],[105.75388,19.9544],[105.75301,19.95322],[105.74984,19.95005],[105.74816,19.94778],[105.74696,19.94516],[105.74504,19.93975],[105.74184,19.93436],[105.7392,19.92941],[105.73801,19.92571],[105.73729,19.9222],[105.73527,19.90949],[105.73466,19.90498],[105.73404,19.89834],[105.73327,19.89419],[105.72716,19.87733],[105.72289,19.86632],[105.72181,19.86405],[105.72029,19.86193],[105.70605,19.84806],[105.70423,19.84596],[105.70116,19.84146],[105.69849,19.83696],[105.69696,19.83391],[105.69538,19.82961],[105.69398,19.81846],[105.68665,19.78158],[105.68503,19.77594],[105.68427,19.77411],[105.68187,19.76999],[105.67558,19.76102],[105.67319,19.75734],[105.66904,19.74964],[105.66633,19.74413],[105.66496,19.73965],[105.66462,19.73626],[105.66472,19.73214],[105.66669,19.69897],[105.66721,19.68425],[105.66831,19.66275],[105.66854,19.66068],[105.66913,19.65816],[105.6711,19.65159],[105.67294,19.64392],[105.67529,19.63085],[105.67666,19.62164],[105.67661,19.61847],[105.67637,19.61662],[105.6758,19.61478],[105.67214,19.60546],[105.66947,19.59748],[105.66884,19.59477],[105.66617,19.58004],[105.66516,19.56673],[105.6649,19.56537],[105.66387,19.56318],[105.66128,19.56022],[105.66008,19.55848],[105.65913,19.55652],[105.65848,19.55436],[105.65818,19.55176],[105.65895,19.54121],[105.65889,19.53859],[105.65425,19.51799],[105.6539,19.51498],[105.654,19.51164],[105.65459,19.50924],[105.6634,19.48615],[105.6637,19.48469],[105.66371,19.4836],[105.66312,19.47588],[105.66343,19.47375],[105.66402,19.47201],[105.66511,19.46992],[105.66708,19.46734],[105.67691,19.45546],[105.67849,19.4531],[105.68033,19.44946],[105.68095,19.44634],[105.68277,19.43015],[105.68501,19.41527],[105.68634,19.41168],[105.68912,19.40674],[105.69448,19.39651],[105.69534,19.39428],[105.69584,19.39228],[105.69645,19.38438],[105.69647,19.37801],[105.69553,19.37181],[105.69501,19.37009],[105.69471,19.36712],[105.69523,19.36686],[105.69601,19.36708],[105.69747,19.36654],[105.69972,19.36622],[105.70557,19.36587],[105.70742,19.36541],[105.7085,19.36495],[105.71381,19.36236],[105.71459,19.36184],[105.72229,19.35557],[105.72448,19.35406],[105.72467,19.35375],[105.72431,19.35134],[105.72418,19.34373],[105.72363,19.32952],[105.72407,19.31277],[105.72357,19.30842],[105.72427,19.29664],[105.72531,19.28858],[105.72514,19.28394],[105.72432,19.28085],[105.72235,19.27711],[105.7187,19.27117],[105.71639,19.26918],[105.714,19.26247],[105.71137,19.25379],[105.70984,19.2495],[105.70921,19.2488],[105.70733,19.24784],[105.7057,19.24625],[105.70278,19.24295],[105.70127,19.24079],[105.69994,19.2382],[105.69755,19.23162],[105.69412,19.22465],[105.68789,19.21602],[105.68634,19.21411],[105.68512,19.21067],[105.68432,19.20925],[105.67787,19.19997],[105.67108,19.19102],[105.65563,19.17435],[105.62587,19.14166],[105.6143,19.1285],[105.60912,19.12197],[105.60467,19.11543],[105.59725,19.1035],[105.5937,19.09722],[105.58775,19.0827],[105.58651,19.07884],[105.58585,19.07597],[105.58528,19.0748],[105.58263,19.06634],[105.58185,19.06228],[105.58251,19.04577],[105.58337,19.03415],[105.58443,19.02553],[105.58528,19.0219],[105.58542,19.01788],[105.58566,19.01612],[105.58658,19.01267],[105.5883,19.00959],[105.58789,19.00765],[105.5882,19.00666],[105.59046,19.00516],[105.5927,19.00433],[105.59352,19.00345],[105.60044,18.98199],[105.60061,18.98097],[105.60094,18.97352],[105.60074,18.97054],[105.60114,18.96516],[105.60161,18.96025],[105.60285,18.95107],[105.60431,18.94205],[105.60895,18.92207],[105.60891,18.92093],[105.60785,18.9168],[105.60627,18.91229],[105.60399,18.90351],[105.60204,18.89751],[105.6005,18.88676],[105.60066,18.88497],[105.60218,18.88245],[105.60512,18.88053],[105.60837,18.87977],[105.61558,18.87686],[105.61613,18.87634],[105.61646,18.8757],[105.61737,18.87272],[105.61787,18.87206],[105.61873,18.87143],[105.62472,18.86799],[105.62712,18.86686],[105.64525,18.86044],[105.64603,18.85985],[105.65021,18.85562],[105.65086,18.85477],[105.65106,18.8543],[105.65184,18.84779],[105.65159,18.84043],[105.65297,18.81218],[105.65255,18.80931],[105.64872,18.79273],[105.64672,18.78264],[105.64642,18.78096],[105.64633,18.77863],[105.64729,18.77478],[105.65037,18.76513],[105.65315,18.75781],[105.65524,18.75282],[105.65755,18.74643],[105.6601,18.73631],[105.65998,18.73562],[105.65899,18.73314],[105.659,18.73215],[105.66089,18.72805],[105.66321,18.72563],[105.66362,18.72495],[105.66754,18.71409],[105.66922,18.7099],[105.67464,18.6993],[105.6748,18.69888],[105.6747,18.69862],[105.67496,18.69828],[105.67402,18.66573],[105.68591,18.66555],[105.68889,18.66537],[105.68947,18.66513],[105.69054,18.66409],[105.69957,18.65325],[105.70224,18.65027],[105.70396,18.64894],[105.71209,18.64431],[105.71283,18.64311],[105.71283,18.64217],[105.71266,18.64169],[105.70971,18.63596],[105.70908,18.63541],[105.70625,18.63407],[105.70563,18.63337],[105.70472,18.62979],[105.70532,18.62725],[105.70515,18.62495],[105.70589,18.62234],[105.70592,18.62175],[105.70571,18.62119],[105.70332,18.61744],[105.7004,18.61521],[105.69864,18.61347],[105.69277,18.60382],[105.69155,18.60246],[105.6915,18.60192],[105.69205,18.59941],[105.69196,18.5979],[105.69229,18.59665],[105.69228,18.59552],[105.69081,18.59154],[105.68638,18.57352],[105.6864,18.57181],[105.68686,18.56913],[105.68833,18.56615],[105.69196,18.56126],[105.694,18.55556],[105.69732,18.55199],[105.69997,18.54888],[105.70054,18.54793],[105.70167,18.54392],[105.70335,18.53555],[105.70404,18.53341],[105.70598,18.53035],[105.70612,18.52969],[105.70647,18.52959],[105.70669,18.5293],[105.71711,18.51455],[105.72705,18.50672],[105.73812,18.49504],[105.75816,18.47487],[105.76294,18.46906],[105.77152,18.46032],[105.77514,18.45554],[105.77615,18.45275],[105.80347,18.41931],[105.80692,18.41654],[105.8168,18.40767],[105.82971,18.39664],[105.84044,18.38917],[105.84337,18.3867],[105.84381,18.38615],[105.84394,18.38537],[105.84417,18.37406],[105.84177,18.36615],[105.84167,18.36487],[105.84213,18.36344],[105.84698,18.35501],[105.84837,18.35311],[105.856,18.3474],[105.86242,18.34137],[105.86798,18.33242],[105.87392,18.32667],[105.87484,18.32561],[105.87684,18.32123],[105.87909,18.31564],[105.8795,18.31499],[105.89675,18.29759],[105.89934,18.29624],[105.90697,18.29306],[105.90868,18.29276],[105.91051,18.29275],[105.91906,18.29322],[105.92161,18.29355],[105.92284,18.29394],[105.93454,18.29951],[105.93527,18.29952],[105.94713,18.28921],[105.98696,18.25927],[105.99194,18.25578],[106.01045,18.24393],[106.02441,18.23454],[106.03162,18.23225],[106.04028,18.22977],[106.07381,18.22141],[106.07886,18.21991],[106.11072,18.21135],[106.1118,18.21119],[106.11479,18.21145],[106.11568,18.21129],[106.11983,18.20843],[106.12421,18.20649],[106.12688,18.20506],[106.13093,18.20376],[106.13161,18.20365],[106.1412,18.20402],[106.14555,18.20394],[106.15335,18.20283],[106.15535,18.2024],[106.16672,18.19847],[106.17105,18.19666],[106.21115,18.17759],[106.23961,18.1607],[106.2412,18.15936],[106.24305,18.15616],[106.24843,18.14585],[106.25492,18.13212],[106.25924,18.12481],[106.26306,18.1189],[106.26785,18.10799],[106.26777,18.10778],[106.26803,18.10768],[106.27631,18.09549],[106.28579,18.08335],[106.2878,18.07994],[106.2906,18.07361],[106.29394,18.06949],[106.30188,18.06516],[106.30572,18.06173],[106.30939,18.05905],[106.31326,18.05515],[106.31425,18.05442],[106.31646,18.05302],[106.323,18.05003],[106.32917,18.04831],[106.34074,18.04851],[106.34572,18.04796],[106.35039,18.04828],[106.35517,18.04954],[106.3563,18.04964],[106.35752,18.04938],[106.3621,18.04763],[106.36552,18.04737],[106.36849,18.04641],[106.37074,18.04543],[106.37779,18.04482],[106.37899,18.04452],[106.38153,18.043],[106.38597,18.03986],[106.38846,18.03852],[106.39223,18.03581],[106.39529,18.03225],[106.39628,18.03046],[106.39785,18.02908],[106.39911,18.02748],[106.40338,18.02384],[106.40668,18.02129],[106.40785,18.02075],[106.42138,18.01665],[106.42554,18.01478],[106.42723,18.01417],[106.43293,18.01299],[106.43911,18.01265],[106.4417,18.01237],[106.44744,18.01038],[106.44987,18.00914],[106.4539,18.0077],[106.45445,18.00729],[106.46194,17.99952],[106.46417,17.99685],[106.46546,17.99565],[106.46671,17.99462],[106.47108,17.99165],[106.4758,17.98874],[106.47753,17.98744],[106.47934,17.98657],[106.48021,17.98593],[106.48069,17.98521],[106.48111,17.98356],[106.48115,17.98265],[106.48099,17.98199],[106.4806,17.98139],[106.48001,17.98091],[106.47784,17.97992],[106.47754,17.97965],[106.47342,17.97551],[106.47265,17.97453],[106.47144,17.97246],[106.47108,17.97142],[106.47091,17.9678],[106.47049,17.96725],[106.46841,17.96556],[106.46756,17.96466],[106.46709,17.96377],[106.46683,17.96239],[106.46673,17.95337],[106.46693,17.95202],[106.46718,17.95161],[106.46862,17.95041],[106.47026,17.9484],[106.47237,17.94732],[106.473,17.94682],[106.47715,17.93942],[106.47744,17.93737],[106.47755,17.93422],[106.47731,17.93148],[106.47671,17.92887],[106.47623,17.92767],[106.47213,17.92025],[106.46728,17.91203],[106.4655,17.9093],[106.46167,17.90129],[106.45949,17.89828],[106.4573,17.8959],[106.44724,17.887],[106.44446,17.88073],[106.44277,17.87754],[106.44197,17.87659],[106.43914,17.87511],[106.43855,17.87443],[106.43816,17.87311],[106.43516,17.85268],[106.43322,17.83759],[106.43205,17.80623],[106.43236,17.79822],[106.4338,17.79062],[106.43721,17.77917],[106.43817,17.77706],[106.43961,17.77474],[106.44145,17.771],[106.44433,17.7649],[106.44452,17.76405],[106.43938,17.74039],[106.43938,17.72869],[106.43872,17.72449],[106.43874,17.72374],[106.43934,17.72254],[106.4437,17.71902],[106.44421,17.71782],[106.4441,17.71704],[106.4405,17.70738],[106.44036,17.70614],[106.44059,17.70462],[106.44119,17.7034],[106.44201,17.70237],[106.44317,17.70146],[106.4445,17.70089],[106.45299,17.70006],[106.45835,17.69792],[106.45974,17.69752],[106.46466,17.69735],[106.47401,17.69629],[106.48608,17.69312],[106.48703,17.69231],[106.49048,17.68828],[106.50369,17.67187],[106.50898,17.66654],[106.50943,17.66589],[106.51076,17.66282],[106.51362,17.65875],[106.51368,17.65814],[106.51257,17.6563],[106.51256,17.65547],[106.51436,17.65248],[106.51498,17.64985],[106.51666,17.64731],[106.51775,17.6436],[106.51825,17.64023],[106.52064,17.63671],[106.52171,17.63127],[106.52284,17.62939],[106.52874,17.6208],[106.52963,17.61843],[106.53116,17.61287],[106.53147,17.60845],[106.53362,17.60121],[106.53356,17.58717],[106.53828,17.57547],[106.53967,17.57252],[106.5424,17.56444],[106.54268,17.56318],[106.54334,17.55424],[106.54396,17.55161],[106.5507,17.54375],[106.55461,17.5386],[106.55497,17.53786],[106.55581,17.53769],[106.55816,17.53586],[106.55904,17.53495],[106.55942,17.53398],[106.55925,17.53244],[106.55598,17.5237],[106.55597,17.51071],[106.5561,17.5098],[106.56142,17.49707],[106.56796,17.48278],[106.57406,17.47646],[106.57566,17.47512],[106.57541,17.47505],[106.57163,17.47562],[106.57038,17.47537],[106.56928,17.47491],[106.56385,17.47161],[106.56186,17.47074],[106.56154,17.47049],[106.56102,17.46921],[106.55695,17.46896],[106.55843,17.46606],[106.56079,17.46224],[106.56757,17.45545],[106.5683,17.45452],[106.5711,17.44994],[106.57648,17.44395],[106.57709,17.44308],[106.58082,17.43574],[106.58398,17.43014],[106.585,17.42939],[106.58783,17.42871],[106.58849,17.42837],[106.59422,17.42382],[106.59477,17.42319],[106.59705,17.41766],[106.60501,17.40491],[106.61063,17.39445],[106.61099,17.39337],[106.61121,17.39188],[106.61087,17.38703],[106.61145,17.38537],[106.61266,17.38418],[106.6172,17.38187],[106.61787,17.38121],[106.61836,17.38032],[106.61943,17.37773],[106.61983,17.3762],[106.62055,17.3711],[106.62224,17.36705],[106.6234,17.35736],[106.6247,17.35387],[106.62496,17.35274],[106.62491,17.35149],[106.62406,17.34606],[106.62416,17.34456],[106.62443,17.34369],[106.626,17.34069],[106.62631,17.3396],[106.62624,17.33747],[106.6242,17.32844],[106.62352,17.32261],[106.62361,17.32177],[106.62405,17.32091],[106.6272,17.31842],[106.63169,17.314],[106.63646,17.31113],[106.63783,17.30971],[106.63893,17.30728],[106.64558,17.28958],[106.64626,17.28793],[106.64713,17.28657],[106.66349,17.26518],[106.68129,17.25006],[106.68282,17.24813],[106.68504,17.24465],[106.68651,17.24283],[106.69406,17.2358],[106.69555,17.23418],[106.69978,17.22891],[106.70311,17.22567],[106.70956,17.21984],[106.71016,17.21894],[106.71064,17.21776],[106.71156,17.21419],[106.71203,17.21304],[106.71254,17.2123],[106.71418,17.21082],[106.7152,17.20954],[106.71549,17.20818],[106.7155,17.20587],[106.71594,17.20465],[106.71667,17.20367],[106.7192,17.20153],[106.7206,17.19968],[106.72068,17.19927],[106.72008,17.19652],[106.72463,17.1923],[106.72909,17.18758],[106.73533,17.18058],[106.73706,17.17839],[106.73798,17.17612],[106.73909,17.17075],[106.73961,17.16929],[106.74181,17.16463],[106.74403,17.1605],[106.74679,17.15691],[106.74835,17.15514],[106.75071,17.15278],[106.75359,17.15029],[106.76312,17.14338],[106.76453,17.14206],[106.76733,17.1387],[106.76825,17.13792],[106.77143,17.13596],[106.77396,17.13553],[106.77496,17.13508],[106.77552,17.13448],[106.77617,17.13266],[106.7768,17.13154],[106.77978,17.1295],[106.78164,17.12658],[106.7826,17.12587],[106.78707,17.12327],[106.79262,17.12136],[106.7967,17.11926],[106.80042,17.11775],[106.80166,17.11732],[106.80327,17.11701],[106.80877,17.11648],[106.80978,17.11655],[106.81139,17.11724],[106.81319,17.11872],[106.81435,17.11933],[106.81691,17.1203],[106.81798,17.12052],[106.81927,17.12041],[106.82746,17.11879],[106.8291,17.11797],[106.83549,17.11319],[106.83654,17.11174],[106.83726,17.10947],[106.83832,17.10799],[106.8399,17.10719],[106.84327,17.10623],[106.84501,17.10554],[106.84568,17.10476],[106.84596,17.1041],[106.84712,17.09872],[106.84767,17.09753],[106.84873,17.09675],[106.85166,17.09569],[106.85266,17.09517],[106.85348,17.09448],[106.8543,17.09312],[106.85532,17.0909],[106.85621,17.08984],[106.85816,17.08827],[106.8592,17.08718],[106.86087,17.08459],[106.86169,17.08291],[106.86191,17.08163],[106.8619,17.08037],[106.86157,17.07397],[106.86105,17.07257],[106.86014,17.07086],[106.85985,17.06965],[106.85994,17.06877],[106.86086,17.06527],[106.86138,17.06151],[106.86181,17.06018],[106.86357,17.057],[106.86454,17.05611],[106.86795,17.0544],[106.86823,17.05379],[106.8683,17.05213],[106.86869,17.05173],[106.87104,17.05123],[106.87332,17.05016],[106.87463,17.04924],[106.87622,17.04772],[106.87706,17.04714],[106.88253,17.04438],[106.88552,17.04229],[106.88731,17.04066],[106.88865,17.0398],[106.89096,17.03892],[106.89417,17.03678],[106.8952,17.03566],[106.89721,17.03255],[106.89923,17.03049],[106.90005,17.02908],[106.90048,17.02757],[106.9009,17.0239],[106.90134,17.02278],[106.90207,17.02176],[106.90369,17.02039],[106.9063,17.01855],[106.91157,17.01634],[106.9146,17.01535],[106.9155,17.01489],[106.91656,17.01418],[106.91752,17.01327],[106.91972,17.01061],[106.92013,17.00957],[106.92092,17.00533],[106.92155,16.99762],[106.92155,16.99359],[106.92198,16.99195],[106.92262,16.99105],[106.92299,16.99077],[106.92472,16.99071],[106.92543,16.99052],[106.92571,16.99025],[106.92623,16.98821],[106.92688,16.98717],[106.93136,16.98329],[106.93295,16.98153],[106.94069,16.96731],[106.94883,16.95616],[106.95551,16.94566],[106.9563,16.944],[106.95828,16.93683],[106.95936,16.93413],[106.95958,16.93198],[106.95904,16.92503],[106.9595,16.92296],[106.96732,16.90856],[106.96827,16.90742],[106.96934,16.90665],[106.98701,16.89909],[106.98803,16.89849],[106.98965,16.89676],[106.992,16.89322],[106.99243,16.89174],[106.99286,16.88444],[106.99286,16.8804],[106.99248,16.87609],[106.9928,16.87406],[106.99393,16.87152],[106.99599,16.86787],[106.99792,16.86345],[107.00048,16.86058],[107.00088,16.85971],[107.00059,16.85887],[106.99802,16.8552],[106.99751,16.85423],[106.9973,16.85336],[106.99741,16.85207],[106.99888,16.84834],[106.99918,16.84704],[106.99908,16.84573],[106.99793,16.84283],[106.99759,16.84153],[106.9978,16.84037],[106.99837,16.83952],[107.00008,16.83775],[107.00048,16.83679],[107.00055,16.83585],[107.0003,16.83327],[107.00055,16.83219],[107.00395,16.82708],[107.00482,16.82629],[107.00581,16.82593],[107.01081,16.82594],[107.01195,16.82565],[107.0129,16.82485],[107.01318,16.82422],[107.0133,16.82353],[107.01309,16.82194],[107.01944,16.8246],[107.02767,16.82603],[107.03815,16.82919],[107.0402,16.82926],[107.04503,16.82852],[107.04734,16.82858],[107.05255,16.83044],[107.05713,16.83335],[107.06664,16.83759],[107.07001,16.83874],[107.07501,16.84014],[107.08103,16.84121],[107.08396,16.8421],[107.09469,16.83001],[107.09538,16.8295],[107.09781,16.82859],[107.09893,16.82767],[107.10068,16.82387],[107.10138,16.82296],[107.11518,16.81065],[107.11892,16.80471],[107.11966,16.80387],[107.12378,16.80105],[107.12916,16.79652],[107.13386,16.79319],[107.13662,16.79172],[107.14469,16.78849],[107.15188,16.784],[107.15288,16.7831],[107.15918,16.7754],[107.16183,16.77272],[107.16716,16.76775],[107.16812,16.76611],[107.17039,16.76735],[107.17132,16.76724],[107.17661,16.76229],[107.17903,16.76056],[107.18064,16.75979],[107.19002,16.75611],[107.19272,16.7556],[107.19772,16.75293],[107.19867,16.7522],[107.19965,16.75065],[107.20105,16.74239],[107.20256,16.73692],[107.20258,16.7338],[107.20301,16.73266],[107.20307,16.72625],[107.2033,16.72534],[107.20392,16.72432],[107.20883,16.71906],[107.20986,16.71821],[107.21222,16.71678],[107.21283,16.71603],[107.21363,16.71413],[107.21417,16.71346],[107.2187,16.70899],[107.22053,16.70751],[107.22205,16.70573],[107.23004,16.69789],[107.23137,16.69686],[107.24234,16.69106],[107.24545,16.6892],[107.25474,16.68175],[107.26422,16.67142],[107.27803,16.66059],[107.28174,16.65494],[107.28275,16.65368],[107.30352,16.63165],[107.30576,16.63013],[107.30746,16.62842],[107.30793,16.62739],[107.30759,16.62333],[107.30769,16.62241],[107.30942,16.61839],[107.31036,16.61731],[107.31326,16.61571],[107.314,16.61515],[107.31598,16.61157],[107.31813,16.61027],[107.3262,16.60389],[107.3281,16.60276],[107.3291,16.60239],[107.33297,16.60211],[107.33516,16.60058],[107.34015,16.59826],[107.34363,16.59445],[107.35209,16.58614],[107.3551,16.58503],[107.35907,16.58537],[107.36274,16.58387],[107.36476,16.58212],[107.36953,16.57734],[107.37963,16.57062],[107.39,16.56093],[107.39282,16.56016],[107.40204,16.55457],[107.40955,16.5508],[107.41091,16.55017],[107.41226,16.54981],[107.41707,16.54894],[107.42349,16.54738],[107.42497,16.54723],[107.42629,16.54746],[107.43167,16.54933],[107.43727,16.55057],[107.43798,16.55105],[107.43883,16.55195],[107.43969,16.55225],[107.44143,16.55173],[107.45232,16.54718],[107.45418,16.545],[107.45643,16.54329],[107.457,16.54294],[107.45891,16.54234],[107.45954,16.5419],[107.46913,16.53259],[107.47971,16.52178],[107.48312,16.51968],[107.48394,16.51879],[107.48545,16.51842],[107.49457,16.51313],[107.53594,16.49235],[107.54948,16.48354],[107.55489,16.48125],[107.55549,16.48065],[107.56088,16.47317],[107.56511,16.46806],[107.56594,16.46664],[107.56836,16.46332],[107.57031,16.461],[107.57401,16.46204],[107.57698,16.46315],[107.58018,16.4647],[107.58367,16.46722],[107.58645,16.46395]],"type":"LineString"}},{"type":"Feature","properties":{"name":"Hue, Vietnam → Hoi An, Vietnam"},"geometry":{"coordinates":[[107.58645,16.46395],[107.58639,16.46369],[107.58677,16.4638],[107.59479,16.46332],[107.59489,16.4631],[107.59517,16.4631],[107.59591,16.46245],[107.59971,16.45884],[107.60022,16.45731],[107.60063,16.45335],[107.6013,16.4528],[107.61488,16.44425],[107.62957,16.43686],[107.63605,16.43181],[107.63945,16.4297],[107.64884,16.427],[107.65458,16.4257],[107.66521,16.41879],[107.69864,16.39176],[107.7113,16.38276],[107.73066,16.36499],[107.73468,16.36037],[107.73617,16.35763],[107.73813,16.35191],[107.74078,16.34283],[107.74136,16.34165],[107.74958,16.33106],[107.75031,16.33035],[107.75106,16.32984],[107.75227,16.32933],[107.76346,16.32607],[107.76889,16.32467],[107.77024,16.32408],[107.77137,16.32313],[107.77532,16.31905],[107.80447,16.3001],[107.80893,16.29672],[107.81607,16.29006],[107.81724,16.28934],[107.81888,16.28894],[107.83839,16.28781],[107.84242,16.2863],[107.84469,16.28578],[107.84605,16.28596],[107.84772,16.28661],[107.85021,16.28854],[107.8515,16.28884],[107.85262,16.28885],[107.85351,16.28849],[107.8544,16.28781],[107.86402,16.27568],[107.86495,16.27496],[107.86581,16.27458],[107.88863,16.26873],[107.89559,16.26905],[107.89656,16.2692],[107.89709,16.26944],[107.8976,16.26999],[107.89787,16.27075],[107.89854,16.27606],[107.89945,16.27768],[107.90082,16.27882],[107.90506,16.28164],[107.90642,16.28214],[107.90788,16.28228],[107.9098,16.28193],[107.91064,16.28152],[107.92118,16.27415],[107.92329,16.27322],[107.92525,16.27288],[107.9892,16.27145],[108.02648,16.26979],[108.02849,16.26936],[108.03044,16.26798],[108.03127,16.26704],[108.03303,16.26398],[108.03447,16.26248],[108.03652,16.26137],[108.04007,16.26041],[108.04165,16.26033],[108.04264,16.26073],[108.04384,16.2621],[108.04438,16.26249],[108.04507,16.26373],[108.04608,16.26462],[108.04677,16.26484],[108.04851,16.26461],[108.05057,16.26406],[108.05548,16.26331],[108.05741,16.26258],[108.05814,16.26194],[108.05984,16.25977],[108.06823,16.25359],[108.07015,16.25143],[108.06997,16.25131],[108.0701,16.25087],[108.07169,16.24863],[108.07226,16.24788],[108.07367,16.24668],[108.07484,16.24509],[108.07588,16.2429],[108.07742,16.24036],[108.07886,16.2359],[108.08186,16.23141],[108.08214,16.22913],[108.08277,16.22864],[108.08323,16.22869],[108.08342,16.22943],[108.08368,16.2295],[108.0866,16.22655],[108.08985,16.22215],[108.09073,16.22056],[108.09129,16.21916],[108.10716,16.16439],[108.10726,16.1636],[108.107,16.16176],[108.10524,16.15765],[108.10464,16.15538],[108.10465,16.1504],[108.10483,16.14741],[108.10584,16.14347],[108.10628,16.14261],[108.10672,16.142],[108.10774,16.14114],[108.11016,16.1399],[108.11081,16.13895],[108.11102,16.13798],[108.11059,16.1364],[108.10982,16.13513],[108.10669,16.13224],[108.10518,16.1314],[108.10549,16.1307],[108.10611,16.12804],[108.10714,16.12707],[108.10839,16.12683],[108.11557,16.12788],[108.11929,16.12791],[108.11933,16.12677],[108.11966,16.12593],[108.12166,16.12281],[108.1251,16.11798],[108.12603,16.1157],[108.12908,16.11198],[108.13001,16.10974],[108.13233,16.10613],[108.13727,16.0963],[108.13827,16.09496],[108.14196,16.09172],[108.14252,16.09093],[108.15182,16.06828],[108.15265,16.06701],[108.16525,16.05852],[108.16736,16.05671],[108.16846,16.05628],[108.16995,16.05622],[108.17125,16.05664],[108.17386,16.05856],[108.17817,16.06135],[108.17881,16.06142],[108.17907,16.06119],[108.19092,16.02541],[108.19143,16.02438],[108.19334,16.02188],[108.19376,16.02091],[108.19385,16.01967],[108.19279,16.01446],[108.19293,16.00994],[108.19024,16.00271],[108.19034,16.00181],[108.19237,15.99436],[108.19344,15.99315],[108.20793,15.98034],[108.20813,15.97969],[108.2085,15.97338],[108.20929,15.97018],[108.21955,15.9489],[108.2329,15.922],[108.24064,15.90597],[108.242,15.90458],[108.24314,15.90375],[108.25237,15.89981],[108.25385,15.89897],[108.25563,15.89753],[108.25664,15.8964],[108.25632,15.89548],[108.25575,15.8921],[108.25737,15.88964],[108.27756,15.89036],[108.28211,15.88934],[108.28433,15.88934],[108.28688,15.88891],[108.2889,15.88829],[108.28965,15.88756],[108.29066,15.88689],[108.29234,15.88611],[108.29424,15.88478],[108.29497,15.88403],[108.29633,15.88207],[108.29724,15.88131],[108.29825,15.88013],[108.29882,15.87985],[108.30138,15.87981],[108.30302,15.88029],[108.30358,15.8802],[108.30513,15.87938],[108.30583,15.87918],[108.30979,15.87953],[108.31163,15.88053],[108.31273,15.88085],[108.31402,15.88071],[108.31547,15.87998],[108.31886,15.87996],[108.32263,15.87886],[108.32311,15.87895],[108.32422,15.87986],[108.32484,15.88004],[108.33113,15.8798],[108.33537,15.87915],[108.33636,15.87949],[108.33617,15.8809],[108.33665,15.88119],[108.3362,15.88266],[108.33494,15.885],[108.33626,15.88571],[108.33638,15.88532],[108.33715,15.88556],[108.33783,15.88666],[108.33784,15.88789],[108.33742,15.88851]],"type":"LineString"}},{"type":"Feature","properties":{"name":"Hoi An, Vietnam → Da Lat, Vietnam"},"geometry":{"coordinates":[[108.33742,15.88851],[108.33784,15.88789],[108.33783,15.88666],[108.33715,15.88556],[108.33638,15.88532],[108.33626,15.88571],[108.33494,15.885],[108.3362,15.88266],[108.33665,15.88119],[108.33617,15.8809],[108.33636,15.87949],[108.33537,15.87915],[108.33113,15.8798],[108.32484,15.88004],[108.32422,15.87986],[108.32311,15.87895],[108.32263,15.87886],[108.31886,15.87996],[108.31547,15.87998],[108.31402,15.88071],[108.31273,15.88085],[108.31163,15.88053],[108.30979,15.87953],[108.30551,15.87922],[108.30513,15.87938],[108.30572,15.88112],[108.30544,15.8813],[108.30523,15.88118],[108.3049,15.88011],[108.305,15.87922],[108.30865,15.8697],[108.30929,15.86549],[108.31173,15.86233],[108.31193,15.86049],[108.31173,15.85984],[108.31085,15.85827],[108.31106,15.85658],[108.31081,15.85575],[108.31108,15.85339],[108.31267,15.84629],[108.31256,15.84261],[108.31233,15.84213],[108.31168,15.84088],[108.30929,15.84156],[108.30461,15.84201],[108.30018,15.84114],[108.297,15.8411],[108.28905,15.84002],[108.28504,15.84043],[108.28388,15.83998],[108.28698,15.83344],[108.28765,15.83239],[108.28852,15.83186],[108.29318,15.82991],[108.2937,15.82955],[108.29419,15.82889],[108.29447,15.8278],[108.29486,15.823],[108.29439,15.81988],[108.29455,15.81906],[108.3099,15.80029],[108.32534,15.7857],[108.34226,15.7638],[108.37807,15.71822],[108.40086,15.68848],[108.42948,15.64057],[108.43125,15.6378],[108.43353,15.63493],[108.43428,15.63375],[108.43829,15.62594],[108.44414,15.61612],[108.45435,15.60151],[108.46078,15.59264],[108.46113,15.59193],[108.46533,15.5859],[108.46306,15.57215],[108.46348,15.56993],[108.464,15.56895],[108.46486,15.56785],[108.46592,15.56702],[108.46776,15.56597],[108.47584,15.5621],[108.4863,15.55646],[108.48702,15.55594],[108.49242,15.55051],[108.49429,15.54929],[108.4953,15.54885],[108.49635,15.5486],[108.49755,15.54857],[108.50503,15.54939],[108.506,15.54974],[108.50917,15.5515],[108.5101,15.5518],[108.51266,15.55146],[108.51636,15.54998],[108.5503,15.52532],[108.55085,15.52483],[108.55288,15.52213],[108.55585,15.51966],[108.56353,15.51257],[108.5648,15.51132],[108.56617,15.50959],[108.56686,15.50846],[108.56839,15.50419],[108.57036,15.50025],[108.583,15.48091],[108.58396,15.48016],[108.58765,15.47875],[108.58835,15.4783],[108.60143,15.46432],[108.60981,15.45612],[108.6192,15.44656],[108.62055,15.44569],[108.63753,15.43845],[108.66139,15.4288],[108.66275,15.42808],[108.66528,15.42627],[108.66972,15.42234],[108.68686,15.40572],[108.68969,15.4016],[108.69023,15.40108],[108.71461,15.38329],[108.72152,15.37463],[108.72498,15.36958],[108.72581,15.36789],[108.72628,15.36412],[108.72992,15.34802],[108.73039,15.34703],[108.73091,15.34634],[108.73473,15.34261],[108.73603,15.34166],[108.73678,15.34088],[108.73703,15.34034],[108.73743,15.33729],[108.73912,15.3345],[108.74066,15.33325],[108.74113,15.33265],[108.75107,15.31343],[108.75582,15.30365],[108.75991,15.29832],[108.76489,15.28935],[108.77501,15.27033],[108.78176,15.24981],[108.78269,15.23855],[108.78602,15.22593],[108.79435,15.18755],[108.79744,15.16746],[108.79808,15.16641],[108.80169,15.16274],[108.8041,15.16098],[108.80648,15.15967],[108.80794,15.15838],[108.80968,15.15586],[108.81026,15.15477],[108.8107,15.15339],[108.81089,15.15117],[108.81059,15.14923],[108.8087,15.14443],[108.80539,15.13367],[108.80532,15.13303],[108.8055,15.13241],[108.80595,15.13184],[108.80793,15.13097],[108.81033,15.1288],[108.8138,15.12492],[108.81459,15.12364],[108.8164,15.11635],[108.81828,15.10679],[108.81816,15.10569],[108.81664,15.09895],[108.82415,15.08895],[108.84129,15.06055],[108.84661,15.05207],[108.84831,15.04899],[108.84931,15.04615],[108.85114,15.04241],[108.85354,15.03674],[108.85741,15.02941],[108.8578,15.02882],[108.86367,15.02254],[108.86903,15.01467],[108.87183,15.00682],[108.87386,15.00227],[108.87527,15.00162],[108.88153,14.99702],[108.88228,14.99634],[108.88285,14.99553],[108.88314,14.99476],[108.88589,14.98257],[108.90091,14.94823],[108.90174,14.94597],[108.90183,14.94435],[108.90168,14.94355],[108.90083,14.94171],[108.89934,14.94022],[108.8962,14.93803],[108.89592,14.93735],[108.91196,14.90722],[108.92224,14.88614],[108.92686,14.87653],[108.93028,14.86772],[108.93502,14.85622],[108.93665,14.85266],[108.94133,14.84383],[108.9447,14.83638],[108.94508,14.83593],[108.94559,14.83574],[108.94763,14.83625],[108.94846,14.83631],[108.95418,14.83532],[108.95588,14.8348],[108.9572,14.83411],[108.96844,14.82693],[108.9695,14.82565],[108.98362,14.79452],[108.98384,14.79344],[108.98571,14.76824],[108.98591,14.76736],[108.98841,14.76559],[108.99261,14.76297],[109.01005,14.75241],[109.01119,14.7519],[109.02135,14.74878],[109.02747,14.74501],[109.02838,14.74384],[109.03123,14.73662],[109.03146,14.73504],[109.03195,14.72186],[109.03459,14.71637],[109.03504,14.7143],[109.03548,14.71342],[109.03665,14.71255],[109.03911,14.71212],[109.04458,14.70992],[109.04724,14.70946],[109.04968,14.71002],[109.05055,14.70983],[109.05126,14.70949],[109.05246,14.70814],[109.05378,14.70783],[109.0556,14.70608],[109.05599,14.70535],[109.05629,14.70349],[109.05726,14.70232],[109.0581,14.70093],[109.05986,14.69944],[109.06117,14.69761],[109.06131,14.69696],[109.06119,14.696],[109.06055,14.69384],[109.0595,14.69178],[109.059,14.69033],[109.05894,14.68941],[109.06007,14.6867],[109.06139,14.6846],[109.06505,14.6772],[109.06705,14.67148],[109.06678,14.66521],[109.06366,14.65667],[109.0637,14.65589],[109.0646,14.65295],[109.06482,14.65149],[109.06353,14.64837],[109.06299,14.64629],[109.06492,14.63922],[109.06469,14.63113],[109.06386,14.62861],[109.06226,14.62569],[109.06192,14.62184],[109.06133,14.62012],[109.06078,14.61925],[109.05996,14.61839],[109.0566,14.61566],[109.05452,14.61282],[109.05289,14.60964],[109.05274,14.6087],[109.05307,14.60762],[109.05379,14.60347],[109.05399,14.59989],[109.05365,14.59555],[109.05316,14.59438],[109.04836,14.58763],[109.04795,14.5866],[109.04799,14.58563],[109.05003,14.57683],[109.04863,14.55655],[109.04817,14.55562],[109.04525,14.55337],[109.0447,14.55277],[109.04416,14.5518],[109.04175,14.54299],[109.03945,14.53924],[109.03933,14.53882],[109.03887,14.53605],[109.03818,14.53332],[109.03836,14.52977],[109.03798,14.5265],[109.03689,14.52459],[109.03516,14.52241],[109.03483,14.52161],[109.03472,14.51115],[109.0344,14.51044],[109.03472,14.50984],[109.03461,14.48928],[109.03329,14.47306],[109.03284,14.47215],[109.03084,14.47025],[109.02726,14.46592],[109.01936,14.44536],[109.00572,14.43374],[109.00454,14.43211],[109.00401,14.43091],[109.00356,14.42926],[109.00342,14.42768],[109.00372,14.42551],[109.00416,14.42426],[109.01823,14.39632],[109.0289,14.37464],[109.02908,14.37295],[109.02934,14.37205],[109.02982,14.37141],[109.03147,14.36997],[109.03674,14.36063],[109.03718,14.35943],[109.03834,14.35479],[109.03873,14.35388],[109.05277,14.33563],[109.0591,14.32708],[109.07724,14.30031],[109.0781,14.29891],[109.07826,14.29826],[109.07899,14.25145],[109.07763,14.24691],[109.0764,14.24469],[109.07579,14.24408],[109.07343,14.24286],[109.07278,14.24226],[109.07206,14.24098],[109.07045,14.23128],[109.06877,14.22501],[109.06808,14.22007],[109.06544,14.21466],[109.06324,14.2084],[109.05347,14.18286],[109.04601,14.15768],[109.04589,14.15692],[109.04591,14.15258],[109.04584,14.1516],[109.04565,14.15134],[109.04585,14.15075],[109.04594,14.14617],[109.04579,14.12958],[109.04556,14.12615],[109.04466,14.12014],[109.03824,14.09572],[109.03753,14.09252],[109.0375,14.09133],[109.04633,14.05748],[109.04987,14.03779],[109.05469,14.01355],[109.05514,14.01288],[109.05728,14.01148],[109.0587,14.00972],[109.05922,14.00873],[109.05937,13.99505],[109.06028,13.9927],[109.06188,13.98579],[109.06184,13.98453],[109.06116,13.98082],[109.06377,13.96762],[109.07683,13.94629],[109.08109,13.93883],[109.0817,13.93858],[109.0879,13.93913],[109.08905,13.9389],[109.08991,13.93846],[109.1053,13.9242],[109.11002,13.91964],[109.11777,13.90897],[109.11825,13.90807],[109.11859,13.90694],[109.11974,13.89834],[109.12153,13.88795],[109.1227,13.88448],[109.12261,13.88428],[109.12298,13.88378],[109.12333,13.88259],[109.12438,13.87763],[109.12448,13.87662],[109.12427,13.87384],[109.12438,13.87282],[109.12493,13.87191],[109.12764,13.86845],[109.12918,13.86736],[109.12975,13.86647],[109.14311,13.8306],[109.14592,13.82098],[109.14707,13.81632],[109.14704,13.80819],[109.14745,13.80404],[109.14751,13.79612],[109.14782,13.79034],[109.14768,13.78836],[109.14819,13.78494],[109.14968,13.76505],[109.15213,13.74419],[109.15269,13.73767],[109.15462,13.73437],[109.15609,13.73301],[109.15686,13.73169],[109.15955,13.72886],[109.16009,13.72639],[109.1607,13.72461],[109.16064,13.72396],[109.16009,13.72276],[109.16015,13.72201],[109.16168,13.72029],[109.16282,13.71793],[109.16404,13.7166],[109.1652,13.71355],[109.16568,13.71311],[109.16698,13.71255],[109.1684,13.71254],[109.16894,13.71224],[109.17049,13.70976],[109.17308,13.70614],[109.17357,13.70574],[109.17743,13.70639],[109.17845,13.70605],[109.17888,13.70563],[109.17892,13.70503],[109.17734,13.70392],[109.17654,13.70287],[109.17645,13.70214],[109.17651,13.70165],[109.17764,13.69981],[109.17751,13.69907],[109.17823,13.69747],[109.17828,13.69613],[109.17793,13.69489],[109.17847,13.69414],[109.17825,13.69277],[109.17848,13.69141],[109.17838,13.68867],[109.17878,13.68718],[109.17809,13.68615],[109.17742,13.68411],[109.17724,13.68071],[109.17812,13.67954],[109.17971,13.67846],[109.18054,13.67698],[109.18139,13.67605],[109.18252,13.67285],[109.18379,13.67074],[109.18515,13.669],[109.18623,13.66843],[109.18648,13.66789],[109.18616,13.66757],[109.18504,13.66786],[109.18427,13.6685],[109.1831,13.66896],[109.18267,13.66884],[109.18245,13.66855],[109.1823,13.66745],[109.18126,13.6635],[109.18112,13.66251],[109.18115,13.65971],[109.18088,13.65808],[109.17969,13.65576],[109.17957,13.65499],[109.18088,13.65239],[109.18129,13.65115],[109.18178,13.64735],[109.1827,13.6433],[109.18283,13.63868],[109.1831,13.63708],[109.18518,13.62929],[109.20009,13.57784],[109.20019,13.5776],[109.20155,13.57642],[109.20248,13.57625],[109.2039,13.57709],[109.2071,13.57837],[109.20856,13.57976],[109.20896,13.57997],[109.20939,13.57999],[109.21008,13.57963],[109.21392,13.57613],[109.21592,13.57466],[109.22161,13.57266],[109.22293,13.57166],[109.2247,13.56967],[109.22556,13.56919],[109.22817,13.56873],[109.2292,13.56881],[109.22952,13.569],[109.23043,13.57021],[109.23058,13.57162],[109.23106,13.57227],[109.23429,13.57304],[109.24035,13.57222],[109.24318,13.57145],[109.24381,13.57099],[109.24449,13.56978],[109.2457,13.5682],[109.24574,13.56745],[109.2451,13.56428],[109.24565,13.56194],[109.24559,13.56113],[109.24517,13.56052],[109.2419,13.55717],[109.24164,13.55663],[109.24161,13.55583],[109.24236,13.55427],[109.24279,13.55384],[109.24506,13.55278],[109.24683,13.55142],[109.24942,13.5503],[109.2508,13.54924],[109.25116,13.54845],[109.25137,13.54616],[109.25109,13.54368],[109.25244,13.54146],[109.253,13.53772],[109.25289,13.53705],[109.25248,13.53642],[109.25092,13.53545],[109.25023,13.53475],[109.24903,13.53065],[109.24798,13.52912],[109.24713,13.52747],[109.24517,13.52595],[109.24472,13.5253],[109.24444,13.52445],[109.24447,13.52336],[109.24532,13.51976],[109.24605,13.5189],[109.24827,13.51777],[109.24864,13.51739],[109.2489,13.51672],[109.24888,13.51596],[109.24749,13.5135],[109.24735,13.51283],[109.24834,13.50876],[109.24845,13.50593],[109.24908,13.50332],[109.24901,13.5021],[109.24867,13.50114],[109.24818,13.50035],[109.24628,13.4987],[109.2455,13.49845],[109.24381,13.49856],[109.24307,13.49846],[109.24059,13.4972],[109.23988,13.49667],[109.2394,13.49461],[109.23876,13.49336],[109.23857,13.49247],[109.23964,13.48973],[109.23951,13.48891],[109.23875,13.48831],[109.2343,13.48689],[109.233,13.48625],[109.23168,13.48502],[109.2285,13.48115],[109.22793,13.48022],[109.22791,13.47891],[109.22884,13.47678],[109.22962,13.47418],[109.2295,13.47127],[109.22892,13.46902],[109.22742,13.46553],[109.22667,13.46451],[109.22518,13.46312],[109.22443,13.4629],[109.22348,13.46286],[109.22457,13.46278],[109.22471,13.46226],[109.22194,13.45873],[109.22042,13.45242],[109.21955,13.45215],[109.21837,13.45124],[109.216,13.44701],[109.21552,13.44582],[109.2155,13.44497],[109.21666,13.44284],[109.21703,13.44167],[109.21739,13.43331],[109.21549,13.42505],[109.2144,13.42136],[109.21284,13.41023],[109.21277,13.40879],[109.21286,13.40286],[109.21324,13.40017],[109.21263,13.39558],[109.21281,13.39493],[109.21319,13.39455],[109.21627,13.39315],[109.21744,13.3923],[109.21971,13.3902],[109.22208,13.38877],[109.2231,13.38833],[109.22524,13.38815],[109.22848,13.38717],[109.22919,13.38725],[109.23112,13.38794],[109.23415,13.38728],[109.23577,13.38754],[109.23796,13.38711],[109.24073,13.38774],[109.24135,13.38763],[109.24192,13.38723],[109.24231,13.38631],[109.24305,13.3797],[109.2434,13.37054],[109.24313,13.36952],[109.24184,13.36738],[109.24044,13.36595],[109.23778,13.36452],[109.23633,13.36398],[109.23478,13.36298],[109.22682,13.36116],[109.226,13.36055],[109.22376,13.35769],[109.22083,13.35563],[109.21972,13.35546],[109.21601,13.35638],[109.215,13.35647],[109.21151,13.35536],[109.21052,13.35474],[109.20984,13.35369],[109.20938,13.35104],[109.20685,13.34716],[109.20644,13.34594],[109.20585,13.34079],[109.2066,13.33864],[109.20661,13.33655],[109.20701,13.33409],[109.20736,13.33266],[109.20931,13.3294],[109.21027,13.32436],[109.21066,13.32389],[109.21298,13.32244],[109.21341,13.32192],[109.21383,13.32093],[109.21516,13.3198],[109.21572,13.31893],[109.21656,13.3139],[109.21748,13.31339],[109.21778,13.31288],[109.21798,13.30384],[109.21818,13.30306],[109.21864,13.3023],[109.22442,13.29589],[109.22512,13.29526],[109.22568,13.29499],[109.22882,13.29421],[109.23068,13.29439],[109.23148,13.29467],[109.23279,13.29593],[109.23432,13.29684],[109.235,13.29695],[109.23579,13.29665],[109.23653,13.29558],[109.24002,13.28887],[109.24115,13.28743],[109.24205,13.28588],[109.24387,13.28429],[109.24713,13.27893],[109.25096,13.26917],[109.25091,13.26784],[109.25028,13.26626],[109.25016,13.26548],[109.25068,13.26362],[109.25088,13.26181],[109.25125,13.26125],[109.25278,13.26047],[109.25316,13.25988],[109.25312,13.25913],[109.25226,13.25736],[109.25214,13.25645],[109.25221,13.25568],[109.25285,13.25348],[109.25785,13.2399],[109.26113,13.22994],[109.26639,13.21636],[109.27543,13.18802],[109.28156,13.17029],[109.28217,13.16446],[109.2828,13.15438],[109.28272,13.14797],[109.28238,13.14529],[109.28157,13.14414],[109.27925,13.1428],[109.27842,13.14186],[109.27819,13.14109],[109.2781,13.1379],[109.27768,13.13578],[109.2769,13.13405],[109.27588,13.13262],[109.27118,13.12816],[109.26943,13.12715],[109.26482,13.12518],[109.26383,13.1244],[109.26279,13.12296],[109.26232,13.1217],[109.26221,13.12019],[109.26234,13.11269],[109.26285,13.11018],[109.27515,13.07917],[109.2762,13.07697],[109.27704,13.0756],[109.27909,13.07273],[109.27956,13.0724],[109.28162,13.06993],[109.30793,13.03775],[109.30873,13.03707],[109.30988,13.03642],[109.31119,13.03609],[109.31314,13.03607],[109.3135,13.03574],[109.31972,13.0215],[109.33473,12.98499],[109.3371,12.98254],[109.33732,12.98155],[109.33725,12.97495],[109.33751,12.974],[109.33799,12.97323],[109.34329,12.97071],[109.34429,12.96995],[109.35723,12.94687],[109.3586,12.94468],[109.36049,12.93558],[109.36226,12.92992],[109.36244,12.92852],[109.3625,12.92421],[109.36738,12.91081],[109.36769,12.90934],[109.36765,12.90772],[109.36728,12.90602],[109.36657,12.90453],[109.36507,12.90251],[109.3645,12.90113],[109.36419,12.89415],[109.36429,12.89302],[109.36468,12.89194],[109.36561,12.89075],[109.37038,12.88749],[109.37115,12.88672],[109.37171,12.88574],[109.37208,12.88421],[109.37183,12.88225],[109.35753,12.84527],[109.35732,12.84274],[109.35839,12.8387],[109.35848,12.83694],[109.35833,12.8353],[109.35647,12.82906],[109.35583,12.82639],[109.35527,12.81771],[109.3549,12.81556],[109.35403,12.81242],[109.35314,12.81088],[109.35234,12.81021],[109.35139,12.80973],[109.34219,12.8073],[109.33996,12.80701],[109.33861,12.80706],[109.33283,12.80767],[109.33094,12.80744],[109.32938,12.80694],[109.32269,12.80294],[109.31744,12.79917],[109.30905,12.79374],[109.30588,12.79195],[109.30253,12.78979],[109.29406,12.78519],[109.29196,12.78362],[109.29021,12.78198],[109.28893,12.78058],[109.28755,12.77867],[109.27604,12.76016],[109.26875,12.74652],[109.26751,12.74453],[109.26504,12.74168],[109.26364,12.74046],[109.26186,12.73926],[109.26001,12.73826],[109.25802,12.73746],[109.23861,12.73154],[109.23792,12.73144],[109.23738,12.7316],[109.23706,12.73198],[109.2371,12.73278],[109.23743,12.73311],[109.23793,12.73321],[109.23836,12.73307],[109.23872,12.73262],[109.24059,12.72575],[109.24068,12.72499],[109.24052,12.72442],[109.23221,12.71725],[109.22755,12.71095],[109.2271,12.70989],[109.22655,12.70732],[109.22709,12.70258],[109.22674,12.699],[109.21724,12.68722],[109.21636,12.6854],[109.21487,12.68137],[109.21331,12.67888],[109.21235,12.67542],[109.20476,12.66056],[109.1985,12.65061],[109.1933,12.64485],[109.1916,12.64216],[109.19019,12.63949],[109.1891,12.63675],[109.18809,12.63473],[109.18771,12.63353],[109.1873,12.63131],[109.18621,12.62792],[109.1841,12.62413],[109.18252,12.6209],[109.1805,12.61184],[109.1796,12.60666],[109.17805,12.60096],[109.177,12.59606],[109.17586,12.58962],[109.17059,12.57171],[109.16085,12.5322],[109.1604,12.52907],[109.15978,12.52661],[109.15716,12.51972],[109.15439,12.51506],[109.15414,12.51389],[109.15388,12.51343],[109.15417,12.51126],[109.15401,12.50994],[109.15346,12.50902],[109.15254,12.50808],[109.15171,12.50753],[109.14284,12.50527],[109.13963,12.50396],[109.13875,12.50317],[109.1382,12.5021],[109.1381,12.50122],[109.14025,12.4961],[109.14022,12.49254],[109.13997,12.49124],[109.13907,12.48993],[109.13464,12.48631],[109.13401,12.48562],[109.12732,12.47416],[109.12377,12.4686],[109.12337,12.46768],[109.12234,12.46346],[109.12073,12.45558],[109.11863,12.45063],[109.11847,12.44924],[109.12015,12.44562],[109.12154,12.44152],[109.12466,12.43704],[109.12671,12.43323],[109.12746,12.43217],[109.13286,12.42696],[109.13378,12.42619],[109.13479,12.42561],[109.13582,12.42524],[109.13696,12.42508],[109.14195,12.42507],[109.14352,12.42462],[109.14445,12.42415],[109.14628,12.42124],[109.14864,12.41923],[109.14946,12.41822],[109.15082,12.41414],[109.15161,12.41291],[109.1605,12.40343],[109.16199,12.4027],[109.17209,12.3997],[109.17339,12.39916],[109.18207,12.39336],[109.19181,12.38723],[109.19589,12.38344],[109.19663,12.38229],[109.1968,12.38164],[109.19676,12.38075],[109.19612,12.37876],[109.19594,12.37754],[109.19633,12.37477],[109.19631,12.37293],[109.19493,12.36778],[109.19521,12.36055],[109.19571,12.35908],[109.19773,12.35739],[109.19832,12.35663],[109.19868,12.35566],[109.19868,12.35466],[109.19713,12.34926],[109.19733,12.34601],[109.19511,12.33927],[109.1947,12.33515],[109.19364,12.33197],[109.19281,12.32819],[109.19246,12.32727],[109.19075,12.32411],[109.18897,12.32196],[109.18851,12.32109],[109.18797,12.3186],[109.18701,12.31546],[109.18692,12.31407],[109.18721,12.31128],[109.18696,12.31052],[109.18657,12.31003],[109.18583,12.30964],[109.18395,12.30949],[109.18291,12.30919],[109.1819,12.30849],[109.18073,12.30727],[109.17972,12.30668],[109.17172,12.30494],[109.17039,12.30451],[109.16834,12.30337],[109.16555,12.30096],[109.1625,12.2975],[109.16122,12.29693],[109.155,12.29511],[109.15385,12.29452],[109.14941,12.28975],[109.14805,12.28872],[109.13822,12.28399],[109.13285,12.28167],[109.12697,12.27828],[109.1182,12.27497],[109.11473,12.27341],[109.11366,12.27278],[109.10962,12.26944],[109.10894,12.26857],[109.10859,12.26731],[109.1082,12.26186],[109.10647,12.25567],[109.10586,12.2545],[109.09957,12.24497],[109.09403,12.24416],[109.09226,12.24423],[109.07964,12.24564],[109.05067,12.24554],[109.0473,12.24734],[109.04334,12.24881],[109.0408,12.24959],[109.0359,12.25064],[109.03443,12.25111],[109.03287,12.25207],[109.02767,12.25659],[109.02656,12.25736],[109.02511,12.25804],[109.00478,12.26313],[109.00148,12.26411],[108.99337,12.26786],[108.9895,12.27134],[108.98872,12.27183],[108.98774,12.27205],[108.95292,12.27101],[108.94049,12.26883],[108.93943,12.26908],[108.93652,12.27083],[108.93516,12.27143],[108.93018,12.27234],[108.92662,12.27253],[108.92573,12.27221],[108.92366,12.27087],[108.92248,12.27067],[108.92168,12.27088],[108.91709,12.2733],[108.91607,12.27369],[108.91519,12.27374],[108.91188,12.27303],[108.91105,12.27307],[108.90813,12.27456],[108.90554,12.27722],[108.90494,12.27748],[108.90446,12.27743],[108.90243,12.27612],[108.90172,12.27589],[108.89932,12.27665],[108.89741,12.27664],[108.89639,12.27624],[108.89529,12.27537],[108.8926,12.27422],[108.89128,12.2738],[108.8898,12.27359],[108.88894,12.27366],[108.888,12.27426],[108.88657,12.2758],[108.88533,12.27666],[108.88399,12.27699],[108.88321,12.2769],[108.88043,12.27594],[108.88004,12.27564],[108.87935,12.27429],[108.87876,12.27367],[108.87454,12.27174],[108.87357,12.27142],[108.87037,12.27126],[108.86966,12.27105],[108.86871,12.27027],[108.86846,12.26811],[108.86741,12.26707],[108.86446,12.265],[108.86345,12.26509],[108.86171,12.26568],[108.86133,12.26566],[108.86106,12.26542],[108.86006,12.26354],[108.85936,12.26315],[108.85635,12.26304],[108.85552,12.26339],[108.85474,12.26307],[108.8543,12.26321],[108.85364,12.26404],[108.85252,12.26452],[108.8523,12.26541],[108.85156,12.26654],[108.85178,12.2683],[108.85136,12.26904],[108.8507,12.26931],[108.84869,12.26904],[108.84784,12.26919],[108.84722,12.26963],[108.84654,12.27054],[108.84442,12.27227],[108.84391,12.27226],[108.84203,12.27154],[108.83968,12.27118],[108.83925,12.27094],[108.83853,12.27005],[108.83722,12.26985],[108.83608,12.26947],[108.83521,12.26833],[108.83379,12.26801],[108.83269,12.26734],[108.83188,12.26658],[108.82913,12.26716],[108.82733,12.2671],[108.82513,12.26749],[108.82366,12.26846],[108.82284,12.26875],[108.82196,12.26882],[108.81917,12.26854],[108.81624,12.2679],[108.81577,12.26749],[108.81552,12.26685],[108.81558,12.2642],[108.81536,12.2639],[108.81435,12.26327],[108.81419,12.26292],[108.81441,12.26106],[108.81514,12.25898],[108.81504,12.25862],[108.8143,12.25785],[108.81408,12.2573],[108.81414,12.25696],[108.81481,12.25601],[108.81495,12.25549],[108.81483,12.25412],[108.81435,12.25293],[108.81208,12.25183],[108.81075,12.25014],[108.80893,12.2489],[108.80665,12.24819],[108.80499,12.24803],[108.80334,12.2465],[108.8024,12.24639],[108.80103,12.24579],[108.79996,12.2459],[108.79948,12.24578],[108.79821,12.24439],[108.79776,12.24446],[108.79663,12.246],[108.7958,12.2464],[108.7953,12.24623],[108.79443,12.24417],[108.79448,12.24386],[108.7949,12.24334],[108.7949,12.24282],[108.7946,12.2425],[108.79375,12.24215],[108.79336,12.24154],[108.7934,12.24097],[108.79396,12.23979],[108.79364,12.23865],[108.79377,12.23756],[108.79344,12.23678],[108.79345,12.23601],[108.7929,12.23525],[108.79289,12.23367],[108.79275,12.23325],[108.79211,12.23271],[108.79116,12.23249],[108.79084,12.23283],[108.79049,12.23445],[108.78976,12.23505],[108.78929,12.23573],[108.78872,12.23579],[108.78783,12.23509],[108.78725,12.23411],[108.78723,12.23374],[108.7876,12.23346],[108.78846,12.23368],[108.7888,12.2332],[108.78788,12.23163],[108.78738,12.23138],[108.78537,12.23145],[108.78396,12.23032],[108.78363,12.22984],[108.78367,12.22934],[108.78432,12.22825],[108.78552,12.22716],[108.78574,12.22661],[108.78485,12.2244],[108.78357,12.22328],[108.78307,12.22319],[108.78161,12.22382],[108.77763,12.2233],[108.77547,12.22221],[108.77371,12.22088],[108.77328,12.22091],[108.7732,12.22115],[108.77336,12.22142],[108.77438,12.222],[108.77494,12.22272],[108.77574,12.22304],[108.77738,12.22455],[108.77891,12.22489],[108.78226,12.225],[108.78311,12.22556],[108.78327,12.22596],[108.7831,12.22618],[108.78109,12.22658],[108.78037,12.22723],[108.77969,12.2275],[108.77911,12.22928],[108.77916,12.23019],[108.77883,12.23121],[108.77751,12.23249],[108.77649,12.23307],[108.77613,12.23313],[108.77556,12.2329],[108.77526,12.233],[108.77511,12.2333],[108.77533,12.23404],[108.77523,12.23431],[108.77496,12.2344],[108.77322,12.23385],[108.7722,12.23417],[108.77199,12.23444],[108.77206,12.23477],[108.77309,12.23591],[108.77281,12.23692],[108.77288,12.2373],[108.77503,12.23943],[108.77614,12.2402],[108.77689,12.24142],[108.7768,12.24188],[108.77641,12.24204],[108.77482,12.24188],[108.77377,12.24115],[108.77167,12.24092],[108.77089,12.24023],[108.77056,12.23971],[108.76999,12.23768],[108.76957,12.23695],[108.76899,12.23638],[108.76741,12.23576],[108.76708,12.23536],[108.76714,12.23421],[108.76668,12.23317],[108.7666,12.23179],[108.76622,12.23004],[108.76638,12.22944],[108.76715,12.22813],[108.76659,12.22712],[108.7671,12.22573],[108.76696,12.22532],[108.7665,12.22493],[108.76459,12.22456],[108.76268,12.22366],[108.7584,12.22376],[108.75752,12.22297],[108.75727,12.22202],[108.75694,12.22172],[108.75652,12.22165],[108.75594,12.22199],[108.7556,12.22191],[108.75428,12.22026],[108.75421,12.21983],[108.75461,12.21844],[108.75487,12.21826],[108.75547,12.21821],[108.75608,12.21768],[108.75635,12.21731],[108.75625,12.21684],[108.75405,12.21583],[108.75394,12.21455],[108.75212,12.21282],[108.75166,12.21208],[108.75132,12.21191],[108.7508,12.2121],[108.75072,12.2131],[108.74936,12.21535],[108.74879,12.21565],[108.74823,12.21548],[108.74794,12.21483],[108.74805,12.21374],[108.74792,12.21327],[108.74745,12.21287],[108.74637,12.21256],[108.74604,12.21216],[108.74605,12.21082],[108.74555,12.21002],[108.74537,12.20915],[108.74419,12.208],[108.74326,12.20798],[108.74287,12.20768],[108.74258,12.20644],[108.74264,12.20523],[108.74173,12.20447],[108.74149,12.20348],[108.74127,12.20334],[108.73983,12.2034],[108.73944,12.20328],[108.73883,12.20249],[108.73897,12.20086],[108.7383,12.20003],[108.73752,12.1995],[108.73673,12.19926],[108.73583,12.19849],[108.73496,12.19811],[108.73412,12.19712],[108.7331,12.19692],[108.73256,12.19594],[108.73121,12.19521],[108.73018,12.19394],[108.72925,12.19349],[108.72723,12.19192],[108.72736,12.1915],[108.72882,12.19154],[108.72926,12.191],[108.72926,12.19029],[108.72888,12.18893],[108.72881,12.18808],[108.72891,12.18774],[108.72966,12.1871],[108.72952,12.18547],[108.7298,12.18469],[108.72973,12.1833],[108.72898,12.18118],[108.72887,12.17928],[108.72858,12.17926],[108.72839,12.17947],[108.72864,12.18263],[108.72856,12.18444],[108.72823,12.18554],[108.72786,12.18575],[108.72746,12.18553],[108.72745,12.18523],[108.72792,12.18462],[108.72804,12.18409],[108.72649,12.18171],[108.72611,12.17991],[108.72593,12.17962],[108.7257,12.17958],[108.72542,12.17998],[108.72596,12.18157],[108.7263,12.18381],[108.72595,12.18473],[108.7255,12.18527],[108.72525,12.18604],[108.72477,12.1865],[108.7236,12.18668],[108.72305,12.18713],[108.72225,12.18727],[108.72145,12.18802],[108.72077,12.18818],[108.72015,12.18903],[108.7199,12.18985],[108.71987,12.19062],[108.72011,12.19105],[108.72154,12.19214],[108.72224,12.1933],[108.72293,12.19391],[108.72352,12.19521],[108.72384,12.19545],[108.72466,12.19546],[108.72497,12.19563],[108.72508,12.1961],[108.72473,12.19645],[108.72296,12.19653],[108.72241,12.19632],[108.72099,12.19532],[108.72081,12.19437],[108.72004,12.19355],[108.71975,12.19298],[108.71821,12.19219],[108.71767,12.19063],[108.71656,12.18961],[108.71593,12.18811],[108.71512,12.18704],[108.71496,12.18553],[108.71348,12.18347],[108.71257,12.1826],[108.7119,12.1822],[108.71033,12.18211],[108.70812,12.1811],[108.70798,12.18078],[108.70844,12.17935],[108.70843,12.17808],[108.70818,12.17779],[108.70714,12.17776],[108.70702,12.17689],[108.70677,12.17659],[108.70644,12.1766],[108.70495,12.17726],[108.7048,12.17752],[108.70479,12.17827],[108.70454,12.17853],[108.70325,12.17848],[108.70158,12.17918],[108.70075,12.1786],[108.70116,12.17777],[108.70103,12.17745],[108.70014,12.17724],[108.69978,12.1769],[108.70022,12.17577],[108.69977,12.1755],[108.69907,12.17562],[108.69864,12.17597],[108.6983,12.17657],[108.69787,12.1782],[108.69714,12.17889],[108.69609,12.1795],[108.69554,12.17964],[108.69375,12.1794],[108.69237,12.17995],[108.69122,12.18191],[108.69116,12.18369],[108.69008,12.18541],[108.68959,12.18563],[108.68851,12.18571],[108.68799,12.18619],[108.68757,12.18632],[108.68557,12.18538],[108.6845,12.18528],[108.68349,12.18348],[108.68318,12.18237],[108.68299,12.18216],[108.68086,12.18252],[108.67849,12.18101],[108.67805,12.18004],[108.67736,12.17908],[108.67719,12.17682],[108.67584,12.17546],[108.66956,12.17301],[108.66884,12.17247],[108.66861,12.17186],[108.66868,12.16881],[108.66838,12.1684],[108.66723,12.16772],[108.66694,12.1673],[108.66667,12.16401],[108.66644,12.16316],[108.66612,12.16281],[108.66512,12.1623],[108.66472,12.16103],[108.66264,12.15792],[108.66212,12.15583],[108.65999,12.15332],[108.65887,12.15146],[108.65655,12.149],[108.65581,12.14746],[108.65549,12.14624],[108.65428,12.14549],[108.65372,12.14426],[108.65334,12.14412],[108.65182,12.14429],[108.65072,12.14382],[108.65007,12.14332],[108.64918,12.14208],[108.64776,12.14129],[108.64692,12.14062],[108.6466,12.14008],[108.64605,12.13961],[108.64584,12.13874],[108.64552,12.1383],[108.64321,12.13747],[108.64238,12.13733],[108.64197,12.13658],[108.64118,12.1367],[108.64002,12.1374],[108.63886,12.13785],[108.63664,12.13773],[108.63513,12.139],[108.63351,12.13886],[108.63155,12.13989],[108.63117,12.13961],[108.63033,12.1379],[108.62982,12.13726],[108.62897,12.13659],[108.6278,12.13614],[108.62763,12.13575],[108.62773,12.13522],[108.62811,12.13484],[108.62902,12.13442],[108.62919,12.13405],[108.62886,12.13368],[108.62699,12.13328],[108.62644,12.1329],[108.62612,12.1324],[108.62564,12.13086],[108.62536,12.12912],[108.62555,12.12887],[108.62628,12.12878],[108.62674,12.12842],[108.62705,12.12785],[108.62713,12.12689],[108.62702,12.12647],[108.62631,12.12587],[108.62586,12.12425],[108.62562,12.1242],[108.62536,12.12442],[108.62519,12.12575],[108.62449,12.12629],[108.6244,12.12723],[108.62322,12.12916],[108.62277,12.12928],[108.62137,12.12869],[108.6208,12.12878],[108.62039,12.12921],[108.62006,12.13058],[108.61977,12.13076],[108.61945,12.1307],[108.61529,12.12826],[108.61436,12.12657],[108.61398,12.12642],[108.61353,12.12647],[108.61323,12.12691],[108.61349,12.12914],[108.6133,12.12982],[108.61246,12.13006],[108.61149,12.13114],[108.61015,12.13115],[108.60902,12.13066],[108.60746,12.13199],[108.60527,12.13247],[108.60494,12.13292],[108.6039,12.13533],[108.60296,12.1359],[108.60236,12.13708],[108.60129,12.13771],[108.6009,12.13773],[108.60066,12.13717],[108.6009,12.135],[108.60046,12.13357],[108.59961,12.13342],[108.59833,12.13289],[108.59745,12.1332],[108.59614,12.13301],[108.59552,12.13322],[108.59513,12.13314],[108.59443,12.13142],[108.59291,12.12936],[108.59276,12.12772],[108.59213,12.12675],[108.59164,12.12622],[108.59006,12.12543],[108.58929,12.12414],[108.58864,12.12377],[108.58807,12.1228],[108.58713,12.12218],[108.58521,12.1191],[108.58399,12.11783],[108.58387,12.11711],[108.58404,12.11665],[108.5848,12.11598],[108.5864,12.11497],[108.58664,12.11463],[108.58669,12.11384],[108.58653,12.11325],[108.58577,12.11249],[108.58512,12.11236],[108.58362,12.11262],[108.58175,12.11184],[108.5813,12.11135],[108.58094,12.10979],[108.5806,12.10932],[108.57861,12.10936],[108.57705,12.1092],[108.57679,12.10903],[108.57623,12.10806],[108.57455,12.10721],[108.57418,12.10724],[108.57364,12.10771],[108.573,12.10785],[108.57169,12.10858],[108.5713,12.10862],[108.57041,12.10831],[108.56932,12.10909],[108.5687,12.1092],[108.56804,12.10881],[108.56749,12.10751],[108.56636,12.107],[108.56485,12.10547],[108.56323,12.10455],[108.56056,12.10406],[108.55798,12.10406],[108.555,12.10505],[108.55417,12.10445],[108.55338,12.10429],[108.55205,12.10188],[108.55056,12.10047],[108.55016,12.09917],[108.54984,12.09882],[108.54893,12.09849],[108.54735,12.09862],[108.54524,12.09824],[108.54339,12.09719],[108.5432,12.09628],[108.54287,12.09586],[108.54204,12.09546],[108.53959,12.0951],[108.53844,12.09412],[108.53706,12.09355],[108.53614,12.09214],[108.53473,12.09161],[108.53358,12.09002],[108.53242,12.08621],[108.53128,12.08608],[108.5305,12.08519],[108.52878,12.08489],[108.52753,12.0839],[108.52589,12.08333],[108.52523,12.08283],[108.52297,12.07575],[108.51791,12.07329],[108.51619,12.07272],[108.51165,12.07023],[108.50895,12.0658],[108.5084,12.06352],[108.50797,12.06301],[108.50634,12.06234],[108.50531,12.06253],[108.50331,12.06512],[108.50083,12.06623],[108.49695,12.06602],[108.49596,12.06573],[108.49424,12.06456],[108.4932,12.06313],[108.49231,12.06248],[108.4925,12.06115],[108.49238,12.06049],[108.49193,12.05955],[108.49055,12.05782],[108.49023,12.0557],[108.48992,12.05475],[108.48903,12.05366],[108.48744,12.05308],[108.4872,12.05251],[108.48727,12.05198],[108.48806,12.04882],[108.48867,12.04424],[108.48898,12.04359],[108.49159,12.04058],[108.49158,12.03955],[108.49225,12.03638],[108.4919,12.03561],[108.49197,12.03508],[108.49285,12.03425],[108.49399,12.03355],[108.4942,12.0328],[108.49458,12.03226],[108.49509,12.03206],[108.49602,12.03207],[108.49662,12.03125],[108.49787,12.03126],[108.49882,12.03107],[108.50009,12.03024],[108.50026,12.02975],[108.50005,12.0294],[108.49807,12.02837],[108.49707,12.02681],[108.49581,12.02435],[108.49447,12.02243],[108.49423,12.02114],[108.49356,12.02045],[108.49305,12.01922],[108.49207,12.01842],[108.49201,12.01752],[108.49171,12.01725],[108.49083,12.01707],[108.48981,12.01652],[108.4894,12.0156],[108.48814,12.01449],[108.48713,12.01262],[108.48713,12.01209],[108.48769,12.01121],[108.48782,12.00964],[108.48731,12.00895],[108.48712,12.00831],[108.48555,12.0067],[108.48544,12.00634],[108.48567,12.00462],[108.48618,12.00332],[108.48601,12.00147],[108.48721,11.99875],[108.48741,11.99546],[108.48799,11.99418],[108.48796,11.9934],[108.48769,11.99271],[108.48691,11.99209],[108.48476,11.99278],[108.48429,11.9928],[108.48201,11.99206],[108.48152,11.99184],[108.48127,11.99152],[108.48089,11.9903],[108.48137,11.98822],[108.48064,11.98683],[108.48007,11.98621],[108.47965,11.98509],[108.47975,11.98343],[108.47906,11.98265],[108.47884,11.98181],[108.47857,11.98056],[108.47829,11.97741],[108.47799,11.97719],[108.47686,11.9771],[108.47622,11.97681],[108.47539,11.97551],[108.47452,11.97333],[108.47459,11.97091],[108.47527,11.97007],[108.47555,11.969],[108.4745,11.96508],[108.4718,11.96141],[108.47104,11.96082],[108.47138,11.96007],[108.47126,11.95981],[108.47069,11.9596],[108.46969,11.95977],[108.46957,11.95963],[108.46915,11.95803],[108.46988,11.95701],[108.47006,11.95646],[108.46948,11.95546],[108.4694,11.95384],[108.46559,11.95155],[108.46438,11.94953],[108.46401,11.94926],[108.45956,11.94761],[108.45698,11.94508],[108.45663,11.94408],[108.45625,11.94361],[108.45394,11.942],[108.4527,11.94187],[108.45205,11.94097],[108.45124,11.94039],[108.44957,11.94018],[108.44842,11.94052],[108.44795,11.94048],[108.44193,11.93867],[108.44059,11.9397],[108.43969,11.93971],[108.43867,11.93936],[108.43787,11.93991],[108.4377,11.9401],[108.43772,11.94038],[108.43753,11.9404],[108.43744,11.94023]],"type":"LineString"}},{"type":"Feature","properties":{"name":"Da Lat, Vietnam → Ho Chi Minh City, Vietnam"},"geometry":{"coordinates":[[108.43744,11.94023],[108.4385,11.93939],[108.43853,11.93921],[108.43969,11.93971],[108.44043,11.93975],[108.44116,11.93931],[108.44173,11.93874],[108.44176,11.93853],[108.44491,11.93765],[108.44532,11.93727],[108.44554,11.93647],[108.44551,11.93594],[108.44608,11.93571],[108.44663,11.93589],[108.44795,11.9369],[108.45137,11.93792],[108.45327,11.93822],[108.45761,11.93992],[108.45902,11.94001],[108.45939,11.93979],[108.4589,11.93751],[108.45844,11.93614],[108.45802,11.93545],[108.45809,11.93516],[108.45846,11.93476],[108.45857,11.93425],[108.4583,11.93388],[108.45769,11.93359],[108.45763,11.93331],[108.45903,11.93218],[108.45907,11.93177],[108.45997,11.92976],[108.45997,11.92915],[108.45978,11.92819],[108.45918,11.92672],[108.45752,11.92529],[108.45748,11.92154],[108.45799,11.92072],[108.45754,11.91964],[108.45788,11.9188],[108.45832,11.91852],[108.45918,11.91843],[108.46005,11.91887],[108.46045,11.91888],[108.46079,11.91856],[108.46084,11.91809],[108.46009,11.91742],[108.45671,11.91632],[108.45609,11.91578],[108.45541,11.91544],[108.45383,11.91521],[108.45364,11.91478],[108.45388,11.91314],[108.45454,11.91274],[108.45652,11.91238],[108.45798,11.91124],[108.45862,11.91119],[108.45993,11.91142],[108.46164,11.91005],[108.46275,11.90981],[108.46303,11.90957],[108.46303,11.90915],[108.46267,11.90886],[108.46196,11.90897],[108.46114,11.90952],[108.46077,11.90951],[108.45993,11.90815],[108.45791,11.90803],[108.45765,11.90782],[108.45757,11.90741],[108.45773,11.90714],[108.45823,11.90688],[108.46017,11.90643],[108.4609,11.90554],[108.46227,11.90565],[108.46311,11.90494],[108.46445,11.90424],[108.46562,11.90274],[108.46579,11.90184],[108.46537,11.90061],[108.46497,11.90028],[108.4631,11.89982],[108.46261,11.89906],[108.46197,11.89661],[108.46178,11.89482],[108.4623,11.89231],[108.46249,11.89193],[108.46314,11.89157],[108.46366,11.89102],[108.46521,11.88691],[108.46707,11.88513],[108.46807,11.88352],[108.46977,11.88161],[108.47126,11.88045],[108.4715,11.8797],[108.47126,11.87948],[108.47013,11.87917],[108.46959,11.87691],[108.46896,11.87561],[108.46591,11.87194],[108.46482,11.86908],[108.46418,11.86805],[108.45939,11.8639],[108.45844,11.86239],[108.45801,11.86112],[108.45801,11.86066],[108.45523,11.84972],[108.45427,11.84466],[108.4527,11.83872],[108.45001,11.8327],[108.44927,11.83159],[108.44808,11.83032],[108.43639,11.82147],[108.43477,11.81971],[108.43398,11.81853],[108.4334,11.81716],[108.43168,11.81081],[108.43083,11.80864],[108.42679,11.80098],[108.42549,11.79948],[108.42452,11.79868],[108.42103,11.79671],[108.41713,11.79405],[108.41585,11.79354],[108.41258,11.79263],[108.41098,11.79176],[108.40984,11.79048],[108.40719,11.78699],[108.40422,11.78422],[108.40149,11.78231],[108.40018,11.7809],[108.38414,11.75732],[108.38377,11.75599],[108.38379,11.75279],[108.38359,11.75158],[108.38237,11.74904],[108.38143,11.74825],[108.37732,11.74637],[108.37536,11.74425],[108.37498,11.74327],[108.37415,11.73772],[108.37368,11.73272],[108.37294,11.731],[108.36021,11.71598],[108.35965,11.71557],[108.35506,11.71378],[108.35425,11.71329],[108.34852,11.70522],[108.34467,11.69135],[108.34395,11.69008],[108.34312,11.68934],[108.34183,11.6887],[108.33468,11.68712],[108.33343,11.68655],[108.32856,11.68136],[108.32631,11.67833],[108.32119,11.67447],[108.31652,11.6691],[108.31601,11.66833],[108.31142,11.65844],[108.31113,11.65741],[108.31151,11.65595],[108.31421,11.64944],[108.31473,11.64781],[108.3147,11.64711],[108.31405,11.64602],[108.31217,11.64484],[108.31184,11.64449],[108.30804,11.63606],[108.30725,11.63473],[108.30403,11.63143],[108.29618,11.62942],[108.29198,11.62796],[108.2852,11.62676],[108.27992,11.62754],[108.27594,11.62993],[108.27017,11.63061],[108.26871,11.63004],[108.26558,11.62835],[108.25996,11.6266],[108.25931,11.62624],[108.2576,11.62465],[108.25666,11.62404],[108.25531,11.62378],[108.25171,11.62407],[108.25012,11.624],[108.24596,11.62239],[108.23914,11.61841],[108.23832,11.61816],[108.23521,11.61825],[108.23457,11.61857],[108.23278,11.62029],[108.23221,11.62065],[108.22894,11.62111],[108.22779,11.62152],[108.22647,11.62148],[108.22545,11.62113],[108.22327,11.61931],[108.2183,11.61749],[108.21624,11.61721],[108.21352,11.61627],[108.20958,11.61614],[108.20889,11.61623],[108.20528,11.61745],[108.20341,11.61901],[108.20229,11.62053],[108.19885,11.62415],[108.19855,11.62657],[108.19696,11.62743],[108.19614,11.62816],[108.19546,11.62911],[108.19478,11.62943],[108.19411,11.62936],[108.1921,11.62827],[108.19163,11.62816],[108.18866,11.62857],[108.18484,11.62876],[108.17694,11.62585],[108.17601,11.62573],[108.15482,11.62629],[108.15375,11.62657],[108.15323,11.62691],[108.14896,11.63026],[108.14806,11.63042],[108.14539,11.63002],[108.13859,11.62714],[108.13746,11.62624],[108.13269,11.61872],[108.12877,11.61134],[108.1281,11.61037],[108.12745,11.60984],[108.1248,11.60882],[108.11974,11.6094],[108.11842,11.60982],[108.11176,11.6134],[108.11099,11.61348],[108.10719,11.61197],[108.10649,11.61126],[108.10386,11.60778],[108.09651,11.60448],[108.09227,11.60094],[108.08801,11.59895],[108.0829,11.59723],[108.08175,11.5966],[108.07942,11.59443],[108.07873,11.5933],[108.07856,11.59233],[108.07875,11.59003],[108.07842,11.58771],[108.07492,11.5768],[108.07422,11.57587],[108.0711,11.57372],[108.07013,11.57347],[108.06688,11.57343],[108.06629,11.57361],[108.06419,11.57483],[108.06256,11.57525],[108.05879,11.57473],[108.04982,11.57413],[108.04881,11.57398],[108.03944,11.5712],[108.03402,11.56816],[108.02917,11.56772],[108.02831,11.56803],[108.02521,11.56992],[108.02481,11.57054],[108.02405,11.57279],[108.02308,11.57472],[108.0225,11.5754],[108.022,11.57569],[108.02059,11.57597],[108.01951,11.57587],[108.01508,11.5739],[108.01371,11.57353],[108.01313,11.57372],[108.01279,11.57403],[108.012,11.57601],[108.01145,11.57664],[108.01038,11.57717],[108.00922,11.57722],[108.00697,11.57627],[108.00579,11.5756],[108.00293,11.57234],[107.99977,11.56737],[107.99664,11.56451],[107.99542,11.56362],[107.99431,11.56309],[107.99265,11.56299],[107.99112,11.56213],[107.98758,11.56064],[107.98623,11.55977],[107.98446,11.5581],[107.982,11.55708],[107.98019,11.55564],[107.97883,11.55482],[107.9782,11.55476],[107.97764,11.5549],[107.97582,11.55597],[107.97139,11.55641],[107.97064,11.55611],[107.96822,11.55401],[107.96445,11.55257],[107.96397,11.55206],[107.96361,11.55089],[107.96362,11.54917],[107.9642,11.54619],[107.96406,11.54339],[107.96197,11.53965],[107.96139,11.53904],[107.96068,11.53879],[107.95646,11.53837],[107.95385,11.53744],[107.95132,11.53755],[107.94906,11.53724],[107.94495,11.53894],[107.94017,11.53941],[107.93682,11.54009],[107.93262,11.54376],[107.92931,11.54591],[107.92817,11.54642],[107.92655,11.54653],[107.92275,11.5452],[107.92186,11.54518],[107.91498,11.54643],[107.91029,11.54914],[107.90937,11.5494],[107.90328,11.54826],[107.89586,11.54355],[107.89262,11.54278],[107.89198,11.5422],[107.8893,11.53842],[107.88836,11.53732],[107.88453,11.53473],[107.88369,11.53447],[107.88117,11.53435],[107.87928,11.53463],[107.87758,11.53428],[107.87541,11.53331],[107.87146,11.53258],[107.86985,11.5315],[107.8689,11.53114],[107.86337,11.53142],[107.8594,11.53227],[107.85875,11.53278],[107.85773,11.53444],[107.8569,11.53475],[107.85413,11.53411],[107.85214,11.53256],[107.85062,11.53223],[107.84962,11.53183],[107.84689,11.53026],[107.84452,11.5298],[107.8407,11.53014],[107.8355,11.52947],[107.83022,11.53117],[107.82975,11.53166],[107.82922,11.53316],[107.82882,11.53381],[107.82706,11.53521],[107.82621,11.53567],[107.82482,11.53561],[107.81952,11.53385],[107.81856,11.53391],[107.81799,11.53438],[107.81647,11.53642],[107.81314,11.53889],[107.81155,11.54141],[107.81107,11.54295],[107.81054,11.54293],[107.8097,11.54326],[107.8038,11.54376],[107.80325,11.54371],[107.8026,11.54338],[107.79689,11.53918],[107.78987,11.5374],[107.78525,11.53554],[107.77676,11.53016],[107.77266,11.52819],[107.76824,11.52471],[107.76749,11.52442],[107.76515,11.52399],[107.76415,11.52294],[107.76367,11.52117],[107.7632,11.52024],[107.76032,11.51805],[107.75778,11.51496],[107.75729,11.51457],[107.75457,11.51394],[107.75195,11.51384],[107.75119,11.51341],[107.75004,11.5122],[107.74917,11.51102],[107.7466,11.50579],[107.7462,11.50191],[107.74622,11.49204],[107.7459,11.4912],[107.74422,11.48909],[107.744,11.48855],[107.74397,11.48764],[107.74467,11.48473],[107.74405,11.48367],[107.74302,11.48098],[107.73847,11.47799],[107.73814,11.47764],[107.73644,11.47442],[107.73539,11.47362],[107.73498,11.47308],[107.73447,11.4719],[107.73459,11.471],[107.73409,11.47005],[107.73406,11.46927],[107.73361,11.4687],[107.73262,11.46818],[107.73196,11.46523],[107.73061,11.46382],[107.73002,11.46393],[107.72954,11.46485],[107.72936,11.46492],[107.72779,11.4645],[107.72754,11.46394],[107.72779,11.46317],[107.72745,11.46115],[107.72702,11.46082],[107.72521,11.4601],[107.72504,11.45949],[107.72417,11.45873],[107.72393,11.45804],[107.72322,11.45701],[107.72251,11.45638],[107.72177,11.45604],[107.72085,11.45593],[107.71988,11.45611],[107.71873,11.45596],[107.71809,11.45624],[107.71778,11.4561],[107.71776,11.45487],[107.71886,11.45416],[107.71913,11.45286],[107.71962,11.4522],[107.71962,11.45184],[107.71912,11.45128],[107.71834,11.45102],[107.71757,11.44978],[107.71768,11.44837],[107.71748,11.44779],[107.71706,11.44748],[107.71486,11.44768],[107.71433,11.44797],[107.71354,11.44806],[107.71262,11.44876],[107.71229,11.44866],[107.71225,11.44824],[107.7129,11.44599],[107.7131,11.44273],[107.71304,11.44242],[107.71239,11.44184],[107.71215,11.4414],[107.71022,11.44033],[107.70957,11.43936],[107.70872,11.43896],[107.70749,11.43748],[107.70513,11.43724],[107.70401,11.43532],[107.70308,11.43508],[107.70249,11.43516],[107.70206,11.43478],[107.69961,11.43375],[107.69922,11.43376],[107.69837,11.43427],[107.69716,11.43373],[107.69604,11.43206],[107.69477,11.43108],[107.69419,11.42984],[107.69277,11.42928],[107.69244,11.42849],[107.69234,11.42776],[107.69152,11.42671],[107.69021,11.42639],[107.68854,11.42535],[107.68473,11.42465],[107.68348,11.42388],[107.68186,11.42342],[107.67726,11.41991],[107.66654,11.41366],[107.65909,11.41084],[107.65143,11.40981],[107.64771,11.40842],[107.64283,11.40939],[107.64157,11.4093],[107.63696,11.41024],[107.63486,11.41113],[107.62391,11.41033],[107.62117,11.41119],[107.6205,11.41124],[107.61897,11.41079],[107.61029,11.40969],[107.60772,11.4096],[107.60608,11.40908],[107.60568,11.40912],[107.60367,11.4102],[107.60297,11.41033],[107.60089,11.40995],[107.59677,11.41041],[107.59201,11.41009],[107.59094,11.41068],[107.58846,11.41403],[107.58584,11.41602],[107.58519,11.4172],[107.58486,11.41751],[107.58204,11.4187],[107.57972,11.41916],[107.57895,11.41916],[107.57671,11.4187],[107.57611,11.4184],[107.57501,11.41731],[107.57441,11.41479],[107.57391,11.41397],[107.57263,11.41264],[107.57138,11.40631],[107.57144,11.4043],[107.57083,11.40317],[107.57037,11.40272],[107.56778,11.40131],[107.56621,11.3998],[107.56498,11.39899],[107.56467,11.39849],[107.56458,11.39742],[107.56436,11.39687],[107.5626,11.39583],[107.56158,11.39444],[107.55969,11.39256],[107.55907,11.3922],[107.55434,11.39111],[107.55348,11.3913],[107.55162,11.39245],[107.55064,11.39238],[107.54685,11.39063],[107.54579,11.3895],[107.54516,11.38913],[107.54272,11.38876],[107.53914,11.38759],[107.53311,11.38414],[107.53102,11.38132],[107.52829,11.37716],[107.52844,11.37378],[107.52785,11.37257],[107.52781,11.37216],[107.52832,11.37082],[107.5284,11.36891],[107.5268,11.36339],[107.52269,11.35575],[107.52189,11.35099],[107.52171,11.34768],[107.5216,11.34393],[107.52192,11.34041],[107.52177,11.33354],[107.51979,11.32837],[107.51641,11.31822],[107.51541,11.31639],[107.51237,11.31192],[107.50699,11.30778],[107.50598,11.30665],[107.50433,11.30259],[107.50059,11.29535],[107.49974,11.294],[107.48562,11.28331],[107.48159,11.28143],[107.47798,11.27865],[107.47694,11.2785],[107.47386,11.27909],[107.47305,11.27909],[107.46992,11.27807],[107.46935,11.27801],[107.4653,11.27863],[107.4638,11.27863],[107.46297,11.27842],[107.46191,11.27785],[107.45832,11.27506],[107.45719,11.27465],[107.45324,11.27433],[107.4496,11.27505],[107.44533,11.27425],[107.44403,11.27387],[107.42811,11.26563],[107.40053,11.24708],[107.38543,11.23438],[107.37057,11.21623],[107.3565,11.20028],[107.352,11.19625],[107.34374,11.18295],[107.34314,11.18026],[107.34237,11.17818],[107.34181,11.17755],[107.34082,11.17735],[107.33648,11.17898],[107.33565,11.1791],[107.33475,11.17897],[107.33174,11.17719],[107.32811,11.17561],[107.32491,11.17429],[107.32073,11.17306],[107.31731,11.17012],[107.31552,11.16911],[107.31384,11.16883],[107.30977,11.16928],[107.30477,11.16801],[107.3008,11.16776],[107.29681,11.16633],[107.29207,11.16439],[107.28732,11.16291],[107.28236,11.16108],[107.27504,11.15744],[107.27286,11.15765],[107.26294,11.15991],[107.25789,11.15987],[107.25687,11.15967],[107.25273,11.15784],[107.24402,11.15798],[107.23788,11.15581],[107.23741,11.15549],[107.23701,11.15468],[107.23715,11.15239],[107.23592,11.14884],[107.23553,11.14843],[107.235,11.14818],[107.23026,11.14756],[107.22976,11.14737],[107.22937,11.147],[107.22909,11.14645],[107.22886,11.1441],[107.22861,11.14335],[107.222,11.13423],[107.22102,11.12959],[107.22089,11.12853],[107.22098,11.12775],[107.22327,11.12177],[107.2243,11.1206],[107.22708,11.11885],[107.22796,11.11775],[107.2293,11.11041],[107.22928,11.10935],[107.22828,11.10448],[107.22663,11.0967],[107.22615,11.09561],[107.22566,11.09523],[107.21447,11.09035],[107.21205,11.08976],[107.18538,11.08808],[107.17717,11.08986],[107.17623,11.08987],[107.17544,11.08966],[107.17451,11.08909],[107.17377,11.0881],[107.16674,11.07362],[107.16675,11.07261],[107.1694,11.06075],[107.17236,11.04509],[107.17665,11.01675],[107.1767,11.01484],[107.17642,11.01421],[107.17569,11.01337],[107.16382,11.00302],[107.16319,11.00197],[107.1619,10.99874],[107.16144,10.99808],[107.16051,10.99745],[107.15775,10.99673],[107.15572,10.99531],[107.15474,10.99439],[107.15363,10.99183],[107.15409,10.98754],[107.15388,10.98626],[107.14572,10.97195],[107.14064,10.96376],[107.14029,10.96231],[107.14008,10.9424],[107.15929,10.94231],[107.16111,10.94217],[107.16203,10.94196],[107.16251,10.94167],[107.16432,10.94001],[107.16488,10.93921],[107.1651,10.93828],[107.16521,10.93181],[107.16511,10.92611],[107.16493,10.92395],[107.16322,10.91457],[107.16239,10.91245],[107.16165,10.91128],[107.16034,10.90989],[107.15091,10.90234],[107.1496,10.901],[107.14863,10.89958],[107.14457,10.89143],[107.14305,10.88959],[107.14101,10.88804],[107.13192,10.88188],[107.12955,10.87999],[107.12674,10.8773],[107.12291,10.87276],[107.10989,10.85598],[107.1065,10.85241],[107.10367,10.84991],[107.08779,10.83733],[107.08171,10.8322],[107.05223,10.8048],[107.048,10.80122],[107.04431,10.79844],[107.03806,10.79432],[107.01075,10.77758],[107.00749,10.77577],[107.0049,10.7746],[107.00125,10.77334],[106.9974,10.77243],[106.97877,10.76852],[106.96702,10.76624],[106.96609,10.76594],[106.96294,10.76554],[106.9585,10.76545],[106.95389,10.76593],[106.95064,10.76664],[106.93712,10.77035],[106.931,10.77256],[106.90907,10.78211],[106.90623,10.78321],[106.90101,10.78465],[106.89178,10.78641],[106.88803,10.78684],[106.88537,10.7869],[106.87623,10.78679],[106.85354,10.78593],[106.84751,10.78613],[106.84365,10.78671],[106.82123,10.79132],[106.79355,10.79602],[106.78868,10.79655],[106.76728,10.79603],[106.76256,10.79549],[106.75529,10.79384],[106.75332,10.7932],[106.75154,10.79237],[106.75121,10.79054],[106.75066,10.78911],[106.74975,10.78773],[106.74893,10.78698],[106.73979,10.78221],[106.72313,10.77368],[106.72001,10.77233],[106.71683,10.77137],[106.7165,10.77262],[106.71644,10.77373]],"type":"LineString"}},{"type":"Feature","properties":{"name":"Hanoi, Vietnam"},"geometry":{"type":"Point","coordinates":[105.85404,21.02833]}},{"type":"Feature","properties":{"name":"Ninh Binh, Vietnam"},"geometry":{"type":"Point","coordinates":[105.97462,20.24211]}},{"type":"Feature","properties":{"name":"Hue, Vietnam"},"geometry":{"type":"Point","coordinates":[107.58634,16.46393]}},{"type":"Feature","properties":{"name":"Hoi An, Vietnam"},"geometry":{"type":"Point","coordinates":[108.33679,15.88804]}},{"type":"Feature","properties":{"name":"Da Lat, Vietnam"},"geometry":{"type":"Point","coordinates":[108.43758,11.94024]}},{"type":"Feature","properties":{"name":"Ho Chi Minh City, Vietnam"},"geometry":{"type":"Point","coordinates":[106.7166,10.77373]}}]}